station,valid,lon,lat,tmpf,dwpf,relh,drct,sknt,p01i,alti,mslp,vsby,gust,skyc1,skyc2,skyc3,skyc4,skyl1,skyl2,skyl3,skyl4,wxcodes,ice_accretion_1hr,ice_accretion_3hr,ice_accretion_6hr,peak_wind_gust,peak_wind_drct,peak_wind_time,feel,metar,snowdepth
LGA,1973-05-01T00:00:00Z,-73.8803,40.7794,57.02,41,54.95,180,12,NA,NA,1022,15,NA,CLR,CLR,CLR,NA,NA,NA,NA,NA,NA,NA,NA,NA,NA,NA,NA,57.02,KLGA 010000Z AUTO 18012KT 15SM CLR CLR CLR 14/05 RMK 60630 SLP220 T01390050 53012 IEM_DS3505,NA
LGA,1973-05-01T01:00:00Z,-73.8803,40.7794,56.84,41.9,57.27,200,9,NA,30.2,1022.7,15,NA,SCT,NA,NA,NA,24600,NA,NA,NA,NA,NA,NA,NA,NA,NA,NA,56.84,KLGA 010100Z AUTO 20009KT 15SM SCT246 14/06 A3020 RMK SLP227 T01380055 IEM_DS3505,NA
LGA,1973-05-01T02:00:00Z,-73.8803,40.7794,59.9,39.92,47.53,220,10,NA,30.22,1023.4,15,NA,SCT,SCT,NA,NA,9800,24600,NA,NA,NA,NA,NA,NA,NA,NA,NA,59.9,KLGA 010200Z AUTO 22010KT 15SM SCT098 SCT246 16/04 A3022 RMK SLP234 T01550044 IEM_DS3505,NA
LGA,1973-05-01T03:00:00Z,-73.8803,40.7794,59,41,51.18,240,9,NA,30.24,1024,15,NA,SCT,BKN,CLR,CLR,9800,24600,NA,NA,NA,NA,NA,NA,NA,NA,NA,59,KLGA 010300Z AUTO 24009KT 15SM SCT098 BKN246 CLR CLR 15/05 A3024 RMK SLP240 T01500050 52022 IEM_DS3505,NA
LGA,1973-05-01T04:00:00Z,-73.8803,40.7794,57.92,39.92,51.02,230,7,NA,30.25,1024.4,15,NA,SCT,   ,   ,   ,12000,NA,NA,NA,NA,NA,NA,NA,NA,NA,NA,57.92,METAR KLGA 010400Z 23007KT 15SM SCT120 14/04 A3025 RMK SLP244 T01440044,NA
LGA,1973-05-01T05:00:00Z,-73.8803,40.7794,57.92,41,53.2,190,5,NA,30.25,1024.4,9,NA,SCT,   ,   ,   ,25000,NA,NA,NA,NA,NA,NA,NA,NA,NA,NA,57.92,METAR KLGA 010500Z 19005KT 9SM SCT250 14/05 A3025 RMK SLP244 T01440050,NA
LGA,1973-05-01T06:00:00Z,-73.8803,40.7794,57.02,41,54.95,200,5,NA,30.25,1024.4,8,NA,CLR,   ,   ,   ,NA,NA,NA,NA,NA,NA,NA,NA,NA,NA,NA,57.02,METAR KLGA 010600Z 20005KT 8SM CLR 14/05 A//// RMK SLP244 60630 T01390050,NA
LGA,1973-05-01T07:00:00Z,-73.8803,40.7794,53.96,41,61.41,240,4,NA,30.25,1024.4,8,NA,CLR,   ,   ,   ,NA,NA,NA,NA,NA,NA,NA,NA,NA,NA,NA,53.96,METAR KLGA 010700Z 24004KT 8SM CLR 12/05 A3025 RMK SLP244 T01220050,NA
LGA,1973-05-01T08:00:00Z,-73.8803,40.7794,53.96,41,61.41,230,4,NA,30.27,1025.1,9,NA,CLR,   ,   ,   ,NA,NA,NA,NA,NA,NA,NA,NA,NA,NA,NA,53.96,METAR KLGA 010800Z 23004KT 9SM CLR 12/05 A3027 RMK SLP251 T01220050,NA
LGA,1973-05-01T09:00:00Z,-73.8803,40.7794,53.06,41,63.47,200,4,NA,30.28,1025.4,8,NA,CLR,   ,   ,   ,NA,NA,NA,NA,NA,NA,NA,NA,NA,NA,NA,53.06,METAR KLGA 010900Z 20004KT 8SM CLR 12/05 A3028 RMK SLP254 T01170050,NA
LGA,1973-05-01T10:00:00Z,-73.8803,40.7794,53.96,41.9,63.59,120,3,NA,30.28,1025.4,7,NA,CLR,   ,   ,   ,NA,NA,NA,NA,NA,NA,NA,NA,NA,NA,NA,53.96,METAR KLGA 011000Z 12003KT 7SM CLR 12/06 A3028 RMK FEW AC FEW CI W SLP254 T01220055,NA
LGA,1973-05-01T11:00:00Z,-73.8803,40.7794,54.9,45,69.19,140,4,NA,30.31,NA,3,NA,   ,   ,   ,   ,NA,NA,NA,NA,NA,NA,NA,NA,NA,NA,NA,54.9,METAR KLGA 011100Z 14004KT 3SM FUDZ BKN090 OVC250 13/07 A3031 RMK SLP264 T01270072,NA
LGA,1973-05-01T12:00:00Z,-73.8803,40.7794,57,44.1,61.95,180,5.04,NA,30.32,NA,3,NA,   ,   ,   ,   ,NA,NA,NA,NA,NA,NA,NA,NA,NA,NA,NA,57,METAR KLGA 011200Z 19005KT 3SM FUDZ BKN/// OVC/// 14/07 A//// RMK SLP268 T01390067,NA
LGA,1973-05-01T13:00:00Z,-73.8803,40.7794,59,45,59.67,180,7.04,NA,30.33,NA,3,NA,   ,   ,   ,   ,NA,NA,NA,NA,NA,NA,NA,NA,NA,NA,NA,59,METAR KLGA 011300Z 18007KT 3SM FUDZ BKN070 OVC250 15/07 A3033 RMK VA SLP271 T01500072,NA
LGA,1973-05-01T14:00:00Z,-73.8803,40.7794,59.9,41,49.56,160,9.04,NA,30.33,NA,4,NA,   ,   ,   ,   ,NA,NA,NA,NA,NA,NA,NA,NA,NA,NA,NA,59.9,METAR KLGA 011400Z 16009KT 4SM FUDZ OVC070 16/05 A3033 RMK BINOVC TWR VSBY 3 VA SLP271 T01550050,NA
LGA,1973-05-01T15:00:00Z,-73.8803,40.7794,62.96,39.02,41.18,170,8,NA,30.32,1026.8,10,NA,SCT,   ,   ,   ,10000,NA,NA,NA,NA,NA,NA,NA,NA,NA,NA,62.96,METAR KLGA 011500Z 17008KT 10SM SCT100 17/04 A3032 RMK VA SLP268 8/030 T01720039 50000,NA
LGA,1973-05-01T17:00:00Z,-73.8803,40.7794,63.86,35.96,35.37,150,17,NA,30.32,NA,15,NA,SCT,BKN,   ,   ,18000,22000,NA,NA,NA,NA,NA,NA,NA,NA,NA,63.86,METAR KLGA 011700Z 15017KT 15SM SCT180 BKN220 18/02 A3032 RMK % SLPNO T01770022,NA
LGA,1973-05-01T18:00:00Z,-73.8803,40.7794,66.02,35.96,32.81,170,16,NA,30.3,1026.1,15,NA,BKN,   ,   ,   ,NA,NA,NA,NA,NA,NA,NA,NA,NA,NA,NA,66.02,METAR KLGA 011800Z 17016KT 15SM BKN/// 19/02 A//// RMK SLP261 60035 T01890022,NA
LGA,1973-05-01T19:00:00Z,-73.8803,40.7794,63.86,36.86,36.66,160,14,NA,30.3,1026.1,15,NA,BKN,   ,   ,   ,25000,NA,NA,NA,NA,NA,NA,NA,NA,NA,NA,63.86,METAR KLGA 011900Z 16014KT 15SM BKN250 18/03 A3030 RMK VA SLP261 T01770027,NA
LGA,1973-05-01T20:00:00Z,-73.8803,40.7794,64.94,32,29.08,170,17,NA,30.29,1025.7,15,24,SCT,   ,   ,   ,23000,NA,NA,NA,NA,NA,NA,NA,NA,NA,NA,64.94,METAR KLGA 012000Z 17017G24KT 15SM SCT230 18/00 A3029 RMK FEW AC VA SLP257 T01830000,NA
LGA,1973-05-01T21:00:00Z,-73.8803,40.7794,62.96,39.02,41.18,180,16,NA,30.3,1026.1,15,22,BKN,OVC,   ,   ,10000,25000,NA,NA,NA,NA,NA,NA,NA,NA,NA,62.96,METAR KLGA 012100Z 18016G22KT 15SM BKN100 OVC250 17/04 A3030 RMK BINOVC/ VA SLP261 8/036 T01720039 55002,NA
LGA,1973-05-01T22:00:00Z,-73.8803,40.7794,59.9,41.9,51.32,170,13,NA,30.29,1025.7,15,NA,BKN,OVC,   ,   ,7000,20000,NA,NA,NA,NA,NA,NA,NA,NA,NA,59.9,METAR KLGA 012200Z 17013KT 15SM BKN070 OVC200 16/06 A3029 RMK VA SLP257 T01550055,NA
LGA,1973-05-01T23:00:00Z,-73.8803,40.7794,57.92,48.92,71.9,150,13,NA,30.29,1025.7,7,NA,SCT,OVC,   ,   ,4000,7000,NA,NA,-SHRA,NA,NA,NA,NA,NA,NA,57.92,METAR KLGA 012300Z 15013KT 7SM -SHRA SCT040 OVC070 14/09 A3029 RMK RB04 VA SLP257 T01440094,NA
LGA,1973-05-02T00:00:00Z,-73.8803,40.7794,57.02,50,77.32,140,8,0.01,30.3,1026.1,7,NA,SCT,BKN,OVC,   ,NA,NA,NA,NA,-SHRA,NA,NA,NA,NA,NA,NA,57.02,METAR KLGA 020000Z 14008KT 7SM -SHRA SCT/// BKN/// OVC/// 14/10 A//// RMK SLP261 P0001 T01390100,NA
LGA,1973-05-02T01:00:00Z,-73.8803,40.7794,56.84,50,77.83,130,8,NA,30.29,1025.7,7,NA,SCT,OVC,   ,   ,4000,10000,NA,NA,NA,NA,NA,NA,NA,NA,NA,56.84,METAR KLGA 020100Z 13008KT 7SM SCT040 OVC100 14/10 A3029 RMK RE10 SLP257 T01380100,NA
LGA,1973-05-02T02:00:00Z,-73.8803,40.7794,55.94,50,80.4,120,7,NA,30.28,1025.4,7,NA,BKN,   ,   ,   ,8000,NA,NA,NA,NA,NA,NA,NA,NA,NA,NA,55.94,METAR KLGA 020200Z 12007KT 7SM BKN080 13/10 A3028 RMK VA SLP254 T01330100,NA
LGA,1973-05-02T03:00:00Z,-73.8803,40.7794,55.94,50,80.4,140,7,NA,30.28,1025.4,7,NA,SCT,BKN,   ,   ,5000,10000,NA,NA,NA,NA,NA,NA,NA,NA,NA,55.94,METAR KLGA 020300Z 14007KT 7SM SCT050 BKN100 13/10 A3028 RMK / VA SLP254 8/570 T01330100 56007,NA
LGA,1973-05-02T04:00:00Z,-73.8803,40.7794,55.94,50.9,83.14,120,6,NA,30.28,1025.4,5,NA,SCT,OVC,   ,   ,5000,10000,NA,NA,DZ,NA,NA,NA,NA,NA,NA,55.94,METAR KLGA 020400Z 12006KT 5SM DZ SCT050 OVC100 13/11 A3028 RMK SLP254 T01330105,NA
LGA,1973-05-02T06:00:00Z,-73.8803,40.7794,53.96,50,86.41,210,7,NA,30.25,1024.4,6,NA,BKN,OVC,   ,   ,NA,NA,NA,NA,DZ,NA,NA,NA,NA,NA,NA,53.96,METAR KLGA 020600Z 21007KT 6SM DZ BKN/// OVC/// 12/10 A//// RMK SLP244 T01220100,NA
LGA,1973-05-02T08:00:00Z,-73.8803,40.7794,53.96,50,86.41,130,5,NA,30.22,1023.4,6,NA,BKN,OVC,   ,   ,10000,15000,NA,NA,DZ,NA,NA,NA,NA,NA,NA,53.96,METAR KLGA 020800Z 13005KT 6SM DZ BKN100 OVC150 12/10 A3022 RMK LGA5/1 SLP234 T01220100,NA
LGA,1973-05-02T09:00:00Z,-73.8803,40.7794,53.06,50,89.31,50,6,NA,30.21,1023,5,NA,SCT,BKN,   ,   ,NA,NA,NA,NA,DZ,NA,NA,NA,NA,NA,NA,53.06,METAR KLGA 020900Z 05006KT 5SM DZ SCT/// BKN/// 12/10 A//// RMK SLP230 T01170100,NA
LGA,1973-05-02T10:00:00Z,-73.8803,40.7794,52,50,92.86,70,5.04,NA,30.22,NA,10.5,NA,   ,   ,   ,   ,NA,NA,NA,NA,NA,NA,NA,NA,NA,NA,NA,52,METAR KLGA 021000Z 06005KT 21/2SM FGDZ BKN100 OVC200 11/10 A3022 RMK BINOVCLGA5/1 SLP234 T01110100,NA
LGA,1973-05-02T11:00:00Z,-73.8803,40.7794,52,50,92.86,50,6,NA,30.22,NA,10.5,NA,   ,   ,   ,   ,NA,NA,NA,NA,NA,NA,NA,NA,NA,NA,NA,52,METAR KLGA 021100Z 05006KT 21/2SM FGDZ BKN100 BKN160 OVC250 11/10 A3022 RMK / BINOVC VNA SLP234 T01110100,NA
LGA,1973-05-02T12:00:00Z,-73.8803,40.7794,54,51.1,89.88,70,6,NA,30.21,NA,10.5,NA,   ,   ,   ,   ,NA,NA,NA,NA,NA,NA,NA,NA,NA,NA,NA,54,METAR KLGA 021200Z 06006KT 21/2SM FGDZ SCT/// BKN/// 12/11 A//// RMK SLP230 T01220106,NA
LGA,1973-05-02T13:00:00Z,-73.8803,40.7794,59,52.9,80.16,360,6,NA,30.21,NA,10.5,NA,   ,   ,   ,   ,NA,NA,NA,NA,NA,NA,NA,NA,NA,NA,NA,59,METAR KLGA 021300Z 01006KT 21/2SM FGDZ SCT100 SCT250 15/12 A3021 RMK SLP230 T01500116,NA
LGA,1973-05-02T14:00:00Z,-73.8803,40.7794,61.88,52.88,72.31,20,10,NA,30.21,1023,3,NA,BKN,BKN,   ,   ,10000,25000,NA,NA,DZ,NA,NA,NA,NA,NA,NA,61.88,METAR KLGA 021400Z 02010KT 3SM DZ BKN100 BKN250 17/12 A3021 RMK VA SLP230 T01660116,NA
LGA,1973-05-02T15:00:00Z,-73.8803,40.7794,64.94,55.04,70.28,40,8,NA,30.2,1022.7,4,NA,BKN,OVC,   ,   ,10000,25000,NA,NA,DZ,NA,NA,NA,NA,NA,NA,64.94,METAR KLGA 021500Z 04008KT 4SM DZ BKN100 OVC250 18/13 A3020 RMK / SLP227 8/077 T01830128 58003,NA
LGA,1973-05-02T16:00:00Z,-73.8803,40.7794,66.92,54.86,65.18,170,8,NA,30.19,1022.4,4,NA,BKN,OVC,   ,   ,10000,25000,NA,NA,DZ,NA,NA,NA,NA,NA,NA,66.92,METAR KLGA 021600Z 17008KT 4SM DZ BKN100 OVC250 19/13 A3019 RMK VA SLP224 T01940127,NA
LGA,1973-05-02T18:00:00Z,-73.8803,40.7794,66.92,55.04,65.61,180,12,NA,30.16,1021.3,6,NA,BKN,OVC,   ,   ,NA,NA,NA,NA,DZ,NA,NA,NA,NA,NA,NA,66.92,METAR KLGA 021800Z 18012KT 6SM DZ BKN/// OVC/// 19/13 A//// RMK SLP213 T01940128,NA
LGA,1973-05-02T19:00:00Z,-73.8803,40.7794,70.88,56.84,61.14,160,9,NA,30.15,1021,6,NA,BKN,OVC,   ,   ,10000,20000,NA,NA,DZ,NA,NA,NA,NA,NA,NA,70.88,METAR KLGA 021900Z 16009KT 6SM DZ BKN100 OVC200 22/14 A3015 RMK VA SLP210 T02160138,NA
LGA,1973-05-02T20:00:00Z,-73.8803,40.7794,69.98,55.94,61.02,140,12,NA,30.12,1020,7,NA,BKN,OVC,   ,   ,10000,20000,NA,NA,NA,NA,NA,NA,NA,NA,NA,69.98,METAR KLGA 022000Z 14012KT 7SM BKN100 OVC200 21/13 A3012 RMK WND120V160 VA SLP200 T02110133,NA
LGA,1973-05-02T21:00:00Z,-73.8803,40.7794,66.92,55.04,65.61,140,14,NA,30.1,1019.3,7,NA,SCT,BKN,OVC,   ,7000,10000,18000,NA,NA,NA,NA,NA,NA,NA,NA,66.92,METAR KLGA 022100Z 14014KT 7SM SCT070 BKN100 OVC180 19/13 A3010 RMK SLP193 8/07/ T01940128 58020,NA
LGA,1973-05-02T22:00:00Z,-73.8803,40.7794,64.94,53.96,67.57,170,10,NA,30.09,1019,7,NA,BKN,BKN,OVC,   ,7000,10000,18000,NA,NA,NA,NA,NA,NA,NA,NA,64.94,METAR KLGA 022200Z 17010KT 7SM BKN070 BKN100 OVC180 18/12 A3009 RMK VA SLP190 T01830122,NA
LGA,1973-05-02T23:00:00Z,-73.8803,40.7794,63.86,53.96,70.17,190,9,NA,30.09,1019,7,NA,BKN,BKN,OVC,   ,7000,10000,18000,NA,NA,NA,NA,NA,NA,NA,NA,63.86,METAR KLGA 022300Z 19009KT 7SM BKN070 BKN100 OVC180 18/12 A3009 RMK VA SLP190 T01770122,NA
LGA,1973-05-03T00:00:00Z,-73.8803,40.7794,62.06,53.96,74.75,160,7,NA,30.08,1018.6,6,NA,BKN,OVC,   ,   ,NA,NA,NA,NA,DZ,NA,NA,NA,NA,NA,NA,62.06,METAR KLGA 030000Z 16007KT 6SM DZ BKN/// OVC/// 17/12 A//// RMK SLP186 T01670122,NA
LGA,1973-05-03T01:00:00Z,-73.8803,40.7794,60.98,52.88,74.65,200,6,NA,30.09,1019,8,NA,BKN,OVC,   ,   ,12000,20000,NA,NA,NA,NA,NA,NA,NA,NA,NA,60.98,METAR KLGA 030100Z 20006KT 8SM BKN120 OVC200 16/12 A3009 RMK VA SLP190 T01610116,NA
LGA,1973-05-03T02:00:00Z,-73.8803,40.7794,61.88,52.88,72.31,130,8,NA,30.09,1019,7,NA,BKN,OVC,   ,   ,9000,17000,NA,NA,NA,NA,NA,NA,NA,NA,NA,61.88,METAR KLGA 030200Z 13008KT 7SM BKN090 OVC170 17/12 A3009 RMK VA SLP190 T01660116,NA
LGA,1973-05-03T03:00:00Z,-73.8803,40.7794,60.98,53.06,75.14,120,5,NA,30.07,1018.3,7,NA,BKN,BKN,OVC,   ,4000,10000,16000,NA,NA,NA,NA,NA,NA,NA,NA,60.98,METAR KLGA 030300Z 12005KT 7SM BKN040 BKN100 OVC160 16/12 A3007 RMK VA/ SLP183 8/57/ T01610117 58003,NA
LGA,1973-05-03T04:00:00Z,-73.8803,40.7794,60.98,52.88,74.65,80,6,NA,30.04,1017.3,7,NA,SCT,OVC,   ,   ,6000,12000,NA,NA,NA,NA,NA,NA,NA,NA,NA,60.98,METAR KLGA 030400Z 08006KT 7SM SCT060 OVC120 16/12 A3004 RMK SLP173 T01610116,NA
LGA,1973-05-03T05:00:00Z,-73.8803,40.7794,59,52.88,80.1,170,9,NA,30.03,1016.9,7,NA,SCT,BKN,OVC,   ,6000,11000,20000,NA,NA,NA,NA,NA,NA,NA,NA,59,METAR KLGA 030500Z 17009KT 7SM SCT060 BKN110 OVC200 15/12 A3003 RMK SLP169 T01500116,NA
LGA,1973-05-03T06:00:00Z,-73.8803,40.7794,57.92,51.98,80.55,170,7,NA,30.01,1016.3,7,NA,BKN,BKN,   ,   ,NA,NA,NA,NA,NA,NA,NA,NA,NA,NA,NA,57.92,METAR KLGA 030600Z 17007KT 7SM BKN/// BKN/// 14/11 A//// RMK SLP163 T01440111,NA
LGA,1973-05-03T07:00:00Z,-73.8803,40.7794,57.92,51.98,80.55,190,5,NA,29.99,1015.6,6,NA,BKN,OVC,   ,   ,10000,20000,NA,NA,DZ,NA,NA,NA,NA,NA,NA,57.92,METAR KLGA 030700Z 19005KT 6SM DZ BKN100 OVC200 14/11 A2999 RMK SLP156 T01440111,NA
LGA,1973-05-03T08:00:00Z,-73.8803,40.7794,59,52.88,80.1,190,5,NA,29.98,1015.2,5,NA,OVC,   ,   ,   ,9000,NA,NA,NA,DZ,NA,NA,NA,NA,NA,NA,59,METAR KLGA 030800Z 19005KT 5SM DZ OVC090 15/12 A2998 RMK SLP152 T01500116,NA
LGA,1973-05-03T09:00:00Z,-73.8803,40.7794,60.08,53.06,77.59,180,7,NA,29.96,1014.6,5,NA,SCT,OVC,   ,   ,7000,10000,NA,NA,DZ,NA,NA,NA,NA,NA,NA,60.08,METAR KLGA 030900Z 18007KT 5SM DZ SCT070 OVC100 16/12 A2996 RMK SLP146 8/07/ T01560117 57019,NA
LGA,1973-05-03T10:00:00Z,-73.8803,40.7794,59,52.88,80.1,170,6,NA,29.96,1014.6,4,NA,SCT,BKN,OVC,   ,7000,10000,15000,NA,DZ,NA,NA,NA,NA,NA,NA,59,METAR KLGA 031000Z 17006KT 4SM DZ SCT070 BKN100 OVC150 15/12 A2996 RMK SLP146 T01500116,NA
LGA,1973-05-03T11:00:00Z,-73.8803,40.7794,60.98,54.86,80.26,100,4,NA,29.95,1014.2,4,NA,SCT,OVC,   ,   ,6000,9000,NA,NA,DZ,NA,NA,NA,NA,NA,NA,60.98,METAR KLGA 031100Z 10004KT 4SM DZ SCT060 OVC090 16/13 A2995 RMK BINOVC SLP142 T01610127,NA
LGA,1973-05-03T12:00:00Z,-73.8803,40.7794,64.04,57.02,77.92,190,7,NA,29.95,1014.2,5,NA,SCT,OVC,   ,   ,NA,NA,NA,NA,-SHRA DZ,NA,NA,NA,NA,NA,NA,64.04,METAR KLGA 031200Z 19007KT 5SM -SHRA DZ SCT/// OVC/// 18/14 A//// RMK SLP142 T01780139,NA
LGA,1973-05-03T13:00:00Z,-73.8803,40.7794,66.9,54.9,65.32,200,8,NA,29.94,NA,4,NA,   ,   ,   ,   ,NA,NA,NA,NA,NA,NA,NA,NA,NA,NA,NA,66.9,METAR KLGA 031300Z 20008KT 4SM FUDZ SCT045 BKN090 19/13 A2994 RMK RE02 VA SLP139 T01940127,NA
LGA,1973-05-03T14:00:00Z,-73.8803,40.7794,70.9,57.9,63.48,210,8,NA,29.92,NA,5,NA,   ,   ,   ,   ,NA,NA,NA,NA,NA,NA,NA,NA,NA,NA,NA,70.9,METAR KLGA 031400Z 21008KT 5SM FUDZ SCT045 BKN070 OVC090 22/14 A2992 RMK BINOVC VA SLP132 T02160144,NA
LGA,1973-05-03T15:00:00Z,-73.8803,40.7794,71.1,59,65.58,220,15.04,NA,29.9,NA,6,NA,   ,   ,   ,   ,NA,NA,NA,NA,NA,NA,NA,NA,NA,NA,NA,71.1,METAR KLGA 031500Z 22015KT 6SM FUDZ SCT070 BKN100 BKN230 22/15 A2990 RMK VA SLP125 8/071 T02170150 57017,NA
LGA,1973-05-03T16:00:00Z,-73.8803,40.7794,73.94,59,59.58,160,13,NA,29.87,1011.5,7,NA,SCT,BKN,   ,   ,10000,21000,NA,NA,NA,NA,NA,NA,NA,NA,NA,73.94,METAR KLGA 031600Z 16013KT 7SM SCT100 BKN210 23/15 A2987 RMK VA SLP115 T02330150,NA
LGA,1973-05-03T17:00:00Z,-73.8803,40.7794,68,56.8,67.37,160,12,NA,29.85,NA,6,NA,   ,   ,   ,   ,NA,NA,NA,NA,NA,NA,NA,NA,NA,NA,NA,68,METAR KLGA 031700Z 16012KT 6SM FUDZ SCT040 BKN080 BKN210 20/14 A2985 RMK RB46 E51 VA SLP108 T02000138,NA
LGA,1973-05-03T18:00:00Z,-73.8803,40.7794,69.1,57,65.35,150,12,NA,29.82,NA,6,NA,   ,   ,   ,   ,NA,NA,NA,NA,NA,NA,NA,NA,NA,NA,NA,69.1,METAR KLGA 031800Z 15012KT 6SM FUDZ SCT/// BKN/// OVC/// 21/14 A//// RMK SLP098 T02060139,NA
LGA,1973-05-03T19:00:00Z,-73.8803,40.7794,72.9,57.9,59.32,230,13.04,NA,29.79,NA,6,NA,   ,   ,   ,   ,NA,NA,NA,NA,NA,NA,NA,NA,NA,NA,NA,72.9,METAR KLGA 031900Z 23013KT 6SM FUDZ SCT034 BKN070 OVC200 23/14 A2979 RMK VA SLP088 T02270144,NA
LGA,1973-05-03T19:27:00Z,-73.8803,40.7794,NA,NA,NA,190,13,NA,29.78,NA,4,NA,BKN,BKN,OVC,NA,3300,5900,14800,NA,NA,NA,NA,NA,NA,NA,NA,NA,KLGA 031927Z AUTO 19013KT 4SM BKN033 BKN059 OVC148 A2978 RMK IEM_DS3505,NA
LGA,1973-05-03T20:00:00Z,-73.8803,40.7794,65.84,57.92,75.59,160,9,NA,29.78,1008.5,4,NA,BKN,BKN,OVC,   ,2900,5000,10000,NA,-SHRA DZ,NA,NA,NA,NA,NA,NA,65.84,METAR KLGA 032000Z 16009KT 4SM -SHRA DZ BKN029 BKN050 OVC100 19/14 A2978 RMK RB06E34B49 DARK SLP085 T01880144,NA
LGA,1973-05-03T20:04:00Z,-73.8803,40.7794,NA,NA,NA,270,21,NA,29.83,NA,1.5,33,SCT,BKN,OVC,NA,1500,2000,3900,NA,NA,NA,NA,NA,NA,NA,NA,NA,KLGA 032004Z AUTO 27021G33KT 1 1/2SM SCT015 BKN020 OVC039 A2983 RMK IEM_DS3505,NA
LGA,1973-05-03T20:30:00Z,-73.8803,40.7794,NA,NA,NA,290,7,NA,NA,NA,6,NA,SCT,BKN,OVC,NA,2000,3400,9800,NA,NA,NA,NA,NA,NA,NA,NA,NA,KLGA 032030Z AUTO 29007KT 6SM SCT020 BKN034 OVC098 RMK IEM_DS3505,NA
LGA,1973-05-03T21:00:00Z,-73.8803,40.7794,64.94,59,81.07,150,4,0.46,29.78,1008.5,7,NA,SCT,BKN,OVC,   ,2000,4000,8000,NA,-SHRA,NA,NA,NA,NA,NA,NA,64.94,METAR KLGA 032100Z 15004KT 7SM -SHRA SCT020 BKN040 OVC080 18/15 A2978 RMK TB00E29 MOVD E PK 03 SLP085 P0046 77/33 T01830150 5207/,NA
LGA,1973-05-03T22:00:00Z,-73.8803,40.7794,64.94,59.9,83.72,180,10,0.01,29.8,1009.1,6,NA,SCT,BKN,OVC,   ,1500,3500,7000,NA,-SHRA,NA,NA,NA,NA,NA,NA,64.94,METAR KLGA 032200Z 18010KT 6SM -SHRA SCT015 BKN035 OVC070 18/16 A2980 RMK SLP091 P0001 T01830155,NA
LGA,1973-05-03T22:17:00Z,-73.8803,40.7794,NA,NA,NA,210,13,NA,29.81,NA,3,NA,SCT,BKN,OVC,NA,1300,2200,4900,NA,NA,NA,NA,NA,NA,NA,NA,NA,KLGA 032217Z AUTO 21013KT 3SM SCT013 BKN022 OVC049 A2981 RMK IEM_DS3505,NA
LGA,1973-05-03T23:00:00Z,-73.8803,40.7794,63.86,55.94,75.41,220,9,0.03,29.82,1009.8,7,NA,BKN,BKN,OVC,   ,2200,3000,7000,NA,-SHRA,NA,NA,NA,NA,NA,NA,63.86,METAR KLGA 032300Z 22009KT 7SM -SHRA BKN022 BKN030 OVC070 18/13 A2982 RMK SLP098 P0003 T01770133,NA
LGA,1973-05-04T00:00:00Z,-73.8803,40.7794,62.96,57.92,83.6,190,10,0.06,29.82,1009.8,5,NA,SCT,BKN,OVC,   ,NA,NA,NA,NA,-SHRA DZ,NA,NA,NA,NA,NA,NA,62.96,METAR KLGA 040000Z 19010KT 5SM -SHRA DZ SCT/// BKN/// OVC/// 17/14 A//// RMK SLP098 P0006 60051 T01720144,NA
LGA,1973-05-04T00:04:00Z,-73.8803,40.7794,NA,NA,NA,210,11,NA,29.84,NA,3,NA,BKN,BKN,OVC,NA,900,2500,6900,NA,NA,NA,NA,NA,NA,NA,NA,NA,KLGA 040004Z AUTO 21011KT 3SM BKN009 BKN025 OVC069 A2984 RMK IEM_DS3505,NA
LGA,1973-05-04T01:00:00Z,-73.8803,40.7794,57.9,32,37.31,200,10,0.01,29.84,NA,5,NA,   ,   ,   ,   ,NA,NA,NA,NA,NA,NA,NA,NA,NA,NA,NA,57.9,METAR KLGA 040100Z 20010KT 5SM -SHRA DZ SCT013 BKN030 OVC050 14/M A2984 RMK SLPNO P0001 T0144////,NA
LGA,1973-05-04T02:00:00Z,-73.8803,40.7794,61.88,57.92,86.84,210,10,NA,29.84,1010.5,5,NA,SCT,OVC,   ,   ,800,3000,NA,NA,-SHRA DZ,NA,NA,NA,NA,NA,NA,61.88,METAR KLGA 040200Z 21010KT 5SM -SHRA DZ SCT008 OVC030 17/14 A2984 RMK SLP105 T01660144,NA
LGA,1973-05-04T02:04:00Z,-73.8803,40.7794,NA,NA,NA,210,12,NA,29.83,NA,7,NA,BKN,OVC,NA,NA,700,2500,NA,NA,NA,NA,NA,NA,NA,NA,NA,NA,KLGA 040204Z AUTO 21012KT 7SM BKN007 OVC025 A2983 RMK IEM_DS3505,NA
LGA,1973-05-04T03:00:00Z,-73.8803,40.7794,60.98,55.94,83.47,200,11,NA,29.82,1009.8,7,NA,BKN,OVC,   ,   ,900,2000,NA,NA,NA,NA,NA,NA,NA,NA,NA,60.98,METAR KLGA 040300Z 20011KT 7SM BKN009 OVC020 16/13 A2982 RMK / RE02 SLP098 T01610133 50000,NA
LGA,1973-05-04T04:00:00Z,-73.8803,40.7794,60.98,53.96,77.66,270,13,NA,29.83,1010.2,7,NA,BKN,OVC,   ,   ,3300,5000,NA,NA,NA,NA,NA,NA,NA,NA,NA,60.98,METAR KLGA 040400Z 27013KT 7SM BKN033 OVC050 16/12 A2983 RMK SLP102 T01610122,NA
LGA,1973-05-04T05:00:00Z,-73.8803,40.7794,59,46.94,64.22,280,10,NA,29.83,1010.2,8,NA,BKN,   ,   ,   ,4400,NA,NA,NA,NA,NA,NA,NA,NA,NA,NA,59,METAR KLGA 040500Z 28010KT 8SM BKN044 15/08 A2983 RMK LGA5/2 SLP102 T01500083,NA
LGA,1973-05-04T06:00:00Z,-73.8803,40.7794,57.02,48.02,71.81,290,10,NA,29.83,1010.2,8,NA,OVC,   ,   ,   ,NA,NA,NA,NA,NA,NA,NA,NA,NA,NA,NA,57.02,METAR KLGA 040600Z 29010KT 8SM OVC/// 14/09 A//// RMK SLP102 T01390089,NA
LGA,1973-05-04T07:00:00Z,-73.8803,40.7794,54.86,47.84,77.14,300,11,NA,29.83,1010.2,7,NA,OVC,   ,   ,   ,4400,NA,NA,NA,NA,NA,NA,NA,NA,NA,NA,54.86,METAR KLGA 040700Z 30011KT 7SM OVC044 13/09 A2983 RMK LGA5/2 SLP102 T01270088,NA
LGA,1973-05-04T08:00:00Z,-73.8803,40.7794,54.86,45.86,71.59,290,12,NA,29.83,1010.2,7,NA,BKN,OVC,   ,   ,3400,4500,NA,NA,NA,NA,NA,NA,NA,NA,NA,54.86,METAR KLGA 040800Z 29012KT 7SM BKN034 OVC045 13/08 A2983 RMK LGA5/2 SLP102 T01270077,NA
LGA,1973-05-04T09:00:00Z,-73.8803,40.7794,53.96,46.04,74.48,310,9,NA,29.82,1009.8,7,NA,SCT,OVC,   ,   ,1700,3000,NA,NA,NA,NA,NA,NA,NA,NA,NA,53.96,METAR KLGA 040900Z 31009KT 7SM SCT017 OVC030 12/08 A2982 RMK / 15//LGA5/2 SLP098 T01220078 58003,NA
LGA,1973-05-04T10:00:00Z,-73.8803,40.7794,52.88,43.88,71.38,330,10,NA,29.82,1009.8,7,NA,SCT,BKN,OVC,   ,1800,3000,5000,NA,NA,NA,NA,NA,NA,NA,NA,52.88,METAR KLGA 041000Z 33010KT 7SM SCT018 BKN030 OVC050 12/07 A2982 RMK SLP098 T01160066,NA
LGA,1973-05-04T11:00:00Z,-73.8803,40.7794,52.88,41.9,66.15,320,7,NA,29.81,1009.5,10,NA,SCT,BKN,   ,   ,3000,6000,NA,NA,NA,NA,NA,NA,NA,NA,NA,52.88,METAR KLGA 041100Z 32007KT 10SM SCT030 BKN060 12/06 A2981 RMK VA SLP095 T01160055,NA
LGA,1973-05-04T12:00:00Z,-73.8803,40.7794,53.96,42.08,64.03,310,8,NA,29.8,1009.1,15,NA,SCT,   ,   ,   ,NA,NA,NA,NA,NA,NA,NA,NA,NA,NA,NA,53.96,METAR KLGA 041200Z 31008KT 15SM SCT/// 12/06 A//// RMK SLP091 70055 T01220056,NA
LGA,1973-05-04T13:00:00Z,-73.8803,40.7794,54.86,41.9,61.53,290,12,NA,29.8,1009.1,15,NA,SCT,   ,   ,   ,3000,NA,NA,NA,NA,NA,NA,NA,NA,NA,NA,54.86,METAR KLGA 041300Z 29012KT 15SM SCT030 13/06 A2980 RMK SLP091 T01270055,NA
LGA,1973-05-04T14:00:00Z,-73.8803,40.7794,56.84,37.94,49.09,260,13,NA,29.8,1009.1,15,NA,SCT,   ,   ,   ,4000,NA,NA,NA,NA,NA,NA,NA,NA,NA,NA,56.84,METAR KLGA 041400Z 26013KT 15SM SCT040 14/03 A2980 RMK SLP091 T01380033,NA
LGA,1973-05-04T15:00:00Z,-73.8803,40.7794,57.92,37.04,45.58,280,12,NA,29.79,1008.8,15,NA,SCT,   ,   ,   ,4000,NA,NA,NA,NA,NA,NA,NA,NA,NA,NA,57.92,METAR KLGA 041500Z 28012KT 15SM SCT040 14/03 A2979 RMK SLP088 8/100 T01440028 57007,NA
LGA,1973-05-04T16:00:00Z,-73.8803,40.7794,59.9,35.96,40.69,280,15,NA,29.78,1008.5,15,NA,SCT,   ,   ,   ,4000,NA,NA,NA,NA,NA,NA,NA,NA,NA,NA,59.9,METAR KLGA 041600Z 28015KT 15SM SCT040 16/02 A2978 RMK VA SLP085 T01550022,NA
LGA,1973-05-04T17:00:00Z,-73.8803,40.7794,59.9,35.96,40.69,280,12,NA,29.75,1007.5,15,NA,SCT,   ,   ,   ,4000,NA,NA,NA,NA,NA,NA,NA,NA,NA,NA,59.9,METAR KLGA 041700Z 28012KT 15SM SCT040 16/02 A2975 RMK VA SLP075 T01550022,NA
LGA,1973-05-04T18:00:00Z,-73.8803,40.7794,60.08,35.96,40.43,260,15,NA,29.73,1006.8,15,NA,SCT,OVC,   ,   ,NA,NA,NA,NA,NA,NA,NA,NA,NA,NA,NA,60.08,METAR KLGA 041800Z 26015KT 15SM SCT/// OVC/// 16/02 A//// RMK SLP068 T01560022,NA
LGA,1973-05-04T19:00:00Z,-73.8803,40.7794,57.92,37.94,47.22,260,22,NA,29.74,1007.1,15,27,SCT,OVC,   ,   ,5000,6000,NA,NA,NA,NA,NA,NA,NA,NA,NA,57.92,METAR KLGA 041900Z 26022G27KT 15SM SCT050 OVC060 14/03 A2974 RMK RB13 E18 VA SLP071 T01440033,NA
LGA,1973-05-04T20:00:00Z,-73.8803,40.7794,54.86,37.94,52.75,270,18,NA,29.75,1007.5,15,30,SCT,OVC,   ,   ,3500,5000,NA,NA,NA,NA,NA,NA,NA,NA,NA,54.86,METAR KLGA 042000Z 27018G30KT 15SM SCT035 OVC050 13/03 A2975 RMK VA SLP075 T01270033,NA
LGA,1973-05-04T21:00:00Z,-73.8803,40.7794,51.98,37.04,56.58,270,16,NA,29.76,1007.8,15,25,BKN,OVC,   ,   ,3700,6000,NA,NA,NA,NA,NA,NA,NA,NA,NA,51.98,METAR KLGA 042100Z 27016G25KT 15SM BKN037 OVC060 11/03 A2976 RMK RB02E15/ 15// SLP078 71000 T01110028 52010,NA
LGA,1973-05-04T22:00:00Z,-73.8803,40.7794,51.98,34.88,51.94,280,17,NA,29.76,1007.8,15,NA,SCT,BKN,OVC,   ,3500,8000,14000,NA,NA,NA,NA,NA,NA,NA,NA,51.98,METAR KLGA 042200Z 28017KT 15SM SCT035 BKN080 OVC140 11/02 A2976 RMK BINOVC VA SLP078 T01110016,NA
LGA,1973-05-04T23:00:00Z,-73.8803,40.7794,51.98,33.98,50.11,270,17,NA,29.71,1007.8,15,NA,BKN,BKN,   ,   ,4000,6000,NA,NA,NA,NA,NA,NA,NA,NA,NA,51.98,METAR KLGA 042300Z 27017KT 15SM BKN040 BKN060 11/01 A2971 RMK VA SLP078 T01110011,NA
LGA,1973-05-05T00:00:00Z,-73.8803,40.7794,50,35.06,56.3,300,18,NA,29.78,1008.5,15,NA,OVC,   ,   ,   ,NA,NA,NA,NA,-SHRA,NA,NA,NA,NA,NA,NA,43.44,METAR KLGA 050000Z 30018KT 15SM -SHRA OVC/// 10/02 A//// RMK SLP085 T01000017,NA
LGA,1973-05-05T01:00:00Z,-73.8803,40.7794,48.92,34.88,58.19,280,15,NA,29.8,1009.1,15,22,OVC,   ,   ,   ,6000,NA,NA,NA,NA,NA,NA,NA,NA,NA,NA,42.71,METAR KLGA 050100Z 28015G22KT 15SM OVC060 09/02 A2980 RMK SLP091 T00940016,NA
LGA,1973-05-05T02:00:00Z,-73.8803,40.7794,48.92,33.98,56.14,280,15,NA,29.8,1009.1,15,NA,BKN,OVC,   ,   ,7000,10000,NA,NA,NA,NA,NA,NA,NA,NA,NA,42.71,METAR KLGA 050200Z 28015KT 15SM BKN070 OVC100 09/01 A2980 RMK SLP091 T00940011,NA
LGA,1973-05-05T03:00:00Z,-73.8803,40.7794,48.92,33.98,56.14,270,15,NA,29.81,1009.5,15,NA,SCT,SCT,   ,   ,4500,9000,NA,NA,NA,NA,NA,NA,NA,NA,NA,42.71,METAR KLGA 050300Z 27015KT 15SM SCT045 SCT090 09/01 A2981 RMK SLP095 8/570 T00940011 51008,NA
LGA,1973-05-05T04:00:00Z,-73.8803,40.7794,47.84,33.98,58.46,260,15,NA,29.81,1009.5,15,NA,SCT,BKN,   ,   ,4500,9000,NA,NA,NA,NA,NA,NA,NA,NA,NA,41.31,METAR KLGA 050400Z 26015KT 15SM SCT045 BKN090 09/01 A2981 RMK SLP095 T00880011,NA
LGA,1973-05-05T05:00:00Z,-73.8803,40.7794,47.84,32.9,55.98,280,17,NA,29.8,1009.1,15,NA,SCT,OVC,   ,   ,5000,8000,NA,NA,NA,NA,NA,NA,NA,NA,NA,40.83,METAR KLGA 050500Z 28017KT 15SM SCT050 OVC080 09/01 A2980 RMK WND 250V300 SLP091 T00880005,NA
LGA,1973-05-05T06:00:00Z,-73.8803,40.7794,48.02,33.98,58.07,270,14,NA,29.79,1008.8,15,NA,SCT,BKN,OVC,   ,NA,NA,NA,NA,NA,NA,NA,NA,NA,NA,NA,41.81,METAR KLGA 050600Z 27014KT 15SM SCT/// BKN/// OVC/// 09/01 A//// RMK SLP088 T00890011,NA
LGA,1973-05-05T07:00:00Z,-73.8803,40.7794,46.94,33.98,60.47,280,13,NA,29.78,1008.5,15,NA,SCT,BKN,OVC,   ,4000,8000,10000,NA,NA,NA,NA,NA,NA,NA,NA,40.71,METAR KLGA 050700Z 28013KT 15SM SCT040 BKN080 OVC100 08/01 A2978 RMK WND 260V300 SLP085 T00830011,NA
LGA,1973-05-05T08:00:00Z,-73.8803,40.7794,46.94,34.88,62.68,260,14,NA,29.78,1008.5,15,NA,SCT,OVC,   ,   ,4000,9000,NA,NA,NA,NA,NA,NA,NA,NA,NA,40.42,METAR KLGA 050800Z 26014KT 15SM SCT040 OVC090 08/02 A2978 RMK WND 240V280 VA SLP085 T00830016,NA
LGA,1973-05-05T09:00:00Z,-73.8803,40.7794,46.94,33.98,60.47,290,11,NA,29.78,1008.5,15,NA,BKN,BKN,OVC,   ,3600,7000,10000,NA,NA,NA,NA,NA,NA,NA,NA,41.35,METAR KLGA 050900Z 29011KT 15SM BKN036 BKN070 OVC100 08/01 A2978 RMK BINOVC VA SLP085 T00830011,NA
LGA,1973-05-05T10:00:00Z,-73.8803,40.7794,46.94,32.9,57.91,280,15,NA,29.78,1008.5,15,NA,BKN,OVC,   ,   ,3900,7000,NA,NA,NA,NA,NA,NA,NA,NA,NA,40.15,METAR KLGA 051000Z 28015KT 15SM BKN039 OVC070 08/01 A2978 RMK BINOVC WND 260V300 VA SLP085 T00830005,NA
LGA,1973-05-05T11:00:00Z,-73.8803,40.7794,46.94,32,55.85,310,11,NA,29.79,1008.8,15,NA,SCT,OVC,   ,   ,3400,6000,NA,NA,NA,NA,NA,NA,NA,NA,NA,41.35,METAR KLGA 051100Z 31011KT 15SM SCT034 OVC060 08/00 A2979 RMK VA SLP088 T00830000,NA
LGA,1973-05-05T12:00:00Z,-73.8803,40.7794,46.94,33.08,58.33,280,13,NA,29.8,1009.1,15,NA,SCT,OVC,   ,   ,NA,NA,NA,NA,NA,NA,NA,NA,NA,NA,NA,40.71,METAR KLGA 051200Z 28013KT 15SM SCT/// OVC/// 08/01 A//// RMK SLP091 T00830006,NA
LGA,1973-05-05T13:00:00Z,-73.8803,40.7794,46.94,31.1,53.86,290,15,NA,29.8,1009.1,15,NA,SCT,BKN,OVC,   ,3500,4600,6000,NA,NA,NA,NA,NA,NA,NA,NA,40.15,METAR KLGA 051300Z 29015KT 15SM SCT035 BKN046 OVC060 08/M01 A2980 RMK VA SLP091 T00831005,NA
LGA,1973-05-05T14:00:00Z,-73.8803,40.7794,46.94,30.02,51.55,300,15,NA,29.81,1009.5,15,NA,BKN,OVC,   ,   ,3700,6000,NA,NA,NA,NA,NA,NA,NA,NA,NA,40.15,METAR KLGA 051400Z 30015KT 15SM BKN037 OVC060 08/M01 A2981 RMK VA SLP095 T00831011,NA
LGA,1973-05-05T15:00:00Z,-73.8803,40.7794,48.02,30.02,49.5,280,12,NA,29.81,1009.5,15,NA,BKN,OVC,   ,   ,3900,5000,NA,NA,NA,NA,NA,NA,NA,NA,NA,42.39,METAR KLGA 051500Z 28012KT 15SM BKN039 OVC050 09/M01 A2981 RMK / VA SLP095 8/5// T00891011 52003,NA
LGA,1973-05-05T16:00:00Z,-73.8803,40.7794,47.84,31.1,52.07,300,14,NA,29.81,1009.5,15,NA,BKN,OVC,   ,   ,4100,5000,NA,NA,NA,NA,NA,NA,NA,NA,NA,41.58,METAR KLGA 051600Z 30014KT 15SM BKN041 OVC050 09/M01 A2981 RMK VA SLP095 T00881005,NA
LGA,1973-05-05T17:00:00Z,-73.8803,40.7794,48.92,31.1,50,290,14,NA,29.81,1009.5,15,NA,BKN,OVC,   ,   ,3900,5000,NA,NA,NA,NA,NA,NA,NA,NA,NA,42.97,METAR KLGA 051700Z 29014KT 15SM BKN039 OVC050 09/M01 A2981 RMK VA SLP095 T00941005,NA
LGA,1973-05-05T18:00:00Z,-73.8803,40.7794,51.08,33.08,49.97,300,10,NA,29.81,1009.5,15,NA,BKN,OVC,   ,   ,NA,NA,NA,NA,NA,NA,NA,NA,NA,NA,NA,51.08,METAR KLGA 051800Z 30010KT 15SM BKN/// OVC/// 11/01 A//// RMK SLP095 T01060006,NA
LGA,1973-05-05T19:00:00Z,-73.8803,40.7794,52.88,32.9,46.43,300,14,NA,29.8,1009.1,15,NA,SCT,OVC,   ,   ,4000,5000,NA,NA,NA,NA,NA,NA,NA,NA,NA,52.88,METAR KLGA 051900Z 30014KT 15SM SCT040 OVC050 12/01 A2980 RMK VA SLP091 T01160005,NA
LGA,1973-05-05T20:00:00Z,-73.8803,40.7794,53.96,33.98,46.6,300,15,NA,29.8,1009.1,15,22,OVC,   ,   ,   ,5000,NA,NA,NA,NA,NA,NA,NA,NA,NA,NA,53.96,METAR KLGA 052000Z 30015G22KT 15SM OVC050 12/01 A2980 RMK VA SLP091 T01220011,NA
LGA,1973-05-05T21:00:00Z,-73.8803,40.7794,55.04,35.06,46.77,330,13,NA,29.81,1009.5,15,NA,BKN,BKN,   ,   ,5000,15000,NA,NA,NA,NA,NA,NA,NA,NA,NA,55.04,METAR KLGA 052100Z 33013KT 15SM BKN050 BKN150 13/02 A2981 RMK / VA SLP095 8/540 T01280017 55002,NA
LGA,1973-05-05T22:00:00Z,-73.8803,40.7794,53.96,33.98,46.6,310,12,NA,29.83,1010.2,15,NA,BKN,OVC,   ,   ,5000,12000,NA,NA,NA,NA,NA,NA,NA,NA,NA,53.96,METAR KLGA 052200Z 31012KT 15SM BKN050 OVC120 12/01 A2983 RMK VA SLP102 T01220011,NA
LGA,1973-05-05T23:00:00Z,-73.8803,40.7794,53.96,34.88,48.3,300,10,NA,29.84,1010.5,15,NA,BKN,OVC,   ,   ,5000,12000,NA,NA,NA,NA,NA,NA,NA,NA,NA,53.96,METAR KLGA 052300Z 30010KT 15SM BKN050 OVC120 12/02 A2984 RMK VA SLP105 T01220016,NA
LGA,1973-05-06T00:00:00Z,-73.8803,40.7794,53.96,33.98,46.6,320,15,NA,29.87,1011.5,15,NA,BKN,OVC,   ,   ,NA,NA,NA,NA,NA,NA,NA,NA,NA,NA,NA,53.96,METAR KLGA 060000Z 32015KT 15SM BKN/// OVC/// 12/01 A//// RMK SLP115 T01220011,NA
LGA,1973-05-06T01:00:00Z,-73.8803,40.7794,53.96,33.98,46.6,310,13,NA,29.88,1011.9,15,NA,SCT,OVC,   ,   ,4000,6000,NA,NA,NA,NA,NA,NA,NA,NA,NA,53.96,METAR KLGA 060100Z 31013KT 15SM SCT040 OVC060 12/01 A2988 RMK SLP119 T01220011,NA
LGA,1973-05-06T02:00:00Z,-73.8803,40.7794,52.88,33.98,48.48,290,11,NA,29.9,1012.5,15,NA,OVC,   ,   ,   ,6000,NA,NA,NA,NA,NA,NA,NA,NA,NA,NA,52.88,METAR KLGA 060200Z 29011KT 15SM OVC060 12/01 A2990 RMK BINOVC SLP125 T01160011,NA
LGA,1973-05-06T03:00:00Z,-73.8803,40.7794,53.06,33.98,48.16,300,13,NA,29.91,1012.9,15,NA,BKN,OVC,   ,   ,6000,9000,NA,NA,NA,NA,NA,NA,NA,NA,NA,53.06,METAR KLGA 060300Z 30013KT 15SM BKN060 OVC090 12/01 A2991 RMK BINOVC/114 SLP129 8/57/ T01170011,NA
LGA,1973-05-06T04:00:00Z,-73.8803,40.7794,NA,NA,NA,360,NA,NA,NA,NA,15,NA,   ,   ,   ,   ,NA,NA,NA,NA,NA,NA,NA,NA,NA,NA,NA,NA,METAR KLGA 060400Z /////KT 15SM SCT041 OVC050 M/M A//// RMK 5/3113/992/BINOVC VA SLPNO T//////// 5502/,NA
LGA,1973-05-06T05:00:00Z,-73.8803,40.7794,50.9,32.9,49.95,NA,NA,NA,29.92,1013.2,15,NA,SCT,SCT,   ,   ,5000,6000,NA,NA,NA,NA,NA,NA,NA,NA,NA,50.9,METAR KLGA 060500Z /////KT 15SM SCT050 SCT060 11/01 A//// RMK 331-G19/992/ WND 310V350 SLP132 T01050005,NA
LGA,1973-05-06T06:00:00Z,-73.8803,40.7794,50,32,49.81,320,12,NA,29.93,1013.5,15,NA,SCT,   ,   ,   ,NA,NA,NA,NA,NA,NA,NA,NA,NA,NA,NA,44.91,METAR KLGA 060600Z 32012KT 15SM SCT/// 10/00 A//// RMK SLP135 T01000000,NA
LGA,1973-05-06T07:00:00Z,-73.8803,40.7794,48.92,32.9,53.76,340,13,NA,29.94,1013.9,15,NA,SCT,SCT,   ,   ,4600,6000,NA,NA,NA,NA,NA,NA,NA,NA,NA,43.25,METAR KLGA 060700Z 34013KT 15SM SCT046 SCT060 09/01 A2994 RMK WND320V360 SLP139 T00940005,NA
LGA,1973-05-06T08:00:00Z,-73.8803,40.7794,47.84,33.98,58.46,310,11,NA,29.95,1014.2,15,NA,SCT,   ,   ,   ,5000,NA,NA,NA,NA,NA,NA,NA,NA,NA,NA,42.48,METAR KLGA 060800Z 31011KT 15SM SCT050 09/01 A2995 RMK WND 290V330 SLP142 T00880011,NA
LGA,1973-05-06T09:00:00Z,-73.8803,40.7794,46.94,33.08,58.33,300,12,NA,29.96,1014.6,15,NA,SCT,   ,   ,   ,7000,NA,NA,NA,NA,NA,NA,NA,NA,NA,NA,41.02,METAR KLGA 060900Z 30012KT 15SM SCT070 08/01 A2996 RMK SLP146 8/030 T00830006 52012,NA
LGA,1973-05-06T10:00:00Z,-73.8803,40.7794,46.94,34.88,62.68,310,13,NA,29.98,1015.2,15,NA,SCT,   ,   ,   ,7000,NA,NA,NA,NA,NA,NA,NA,NA,NA,NA,40.71,METAR KLGA 061000Z 31013KT 15SM SCT070 08/02 A2998 RMK / SLP152 T00830016,NA
LGA,1973-05-06T11:00:00Z,-73.8803,40.7794,47.84,34.88,60.59,310,13,NA,30,1015.9,15,NA,SCT,   ,   ,   ,9000,NA,NA,NA,NA,NA,NA,NA,NA,NA,NA,41.86,METAR KLGA 061100Z 31013KT 15SM SCT090 09/02 A3000 RMK SLP159 T00880016,NA
LGA,1973-05-06T12:00:00Z,-73.8803,40.7794,48.92,35.06,58.61,320,14,NA,30.02,1016.6,15,NA,SCT,   ,   ,   ,NA,NA,NA,NA,NA,NA,NA,NA,NA,NA,NA,42.97,METAR KLGA 061200Z 32014KT 15SM SCT/// 09/02 A//// RMK SLP166 T00940017,NA
LGA,1973-05-06T13:00:00Z,-73.8803,40.7794,50.9,35.96,56.43,350,14,NA,30.04,1017.3,15,NA,SCT,   ,   ,   ,8000,NA,NA,NA,NA,NA,NA,NA,NA,NA,NA,50.9,METAR KLGA 061300Z 35014KT 15SM SCT080 11/02 A3004 RMK FEW CU VA SLP173 T01050022,NA
LGA,1973-05-06T14:00:00Z,-73.8803,40.7794,52.88,35.96,52.45,360,10,NA,30.06,1018,15,NA,SCT,   ,   ,   ,4000,NA,NA,NA,NA,NA,NA,NA,NA,NA,NA,52.88,METAR KLGA 061400Z 36010KT 15SM SCT040 12/02 A3006 RMK VA SLP180 T01160022,NA
LGA,1973-05-06T15:00:00Z,-73.8803,40.7794,55.04,35.06,46.77,330,12,NA,30.06,1018,15,NA,BKN,   ,   ,   ,4000,NA,NA,NA,NA,NA,NA,NA,NA,NA,NA,55.04,METAR KLGA 061500Z 33012KT 15SM BKN040 13/02 A3006 RMK VA SLP180 8/500 T01280017 51014,NA
LGA,1973-05-06T16:00:00Z,-73.8803,40.7794,55.94,36.86,48.61,330,12,NA,30.07,1018.3,15,NA,SCT,   ,   ,   ,4500,NA,NA,NA,NA,NA,NA,NA,NA,NA,NA,55.94,METAR KLGA 061600Z 33012KT 15SM SCT045 13/03 A3007 RMK VA SLP183 T01330027,NA
LGA,1973-05-06T17:00:00Z,-73.8803,40.7794,59.9,38.84,45.57,350,10,NA,30.07,1018.3,15,NA,SCT,   ,   ,   ,4500,NA,NA,NA,NA,NA,NA,NA,NA,NA,NA,59.9,METAR KLGA 061700Z 35010KT 15SM SCT045 16/04 A3007 RMK VA SLP183 T01550038,NA
LGA,1973-05-06T18:00:00Z,-73.8803,40.7794,62.06,39.02,42.51,350,11,NA,30.07,1018.3,15,NA,SCT,   ,   ,   ,NA,NA,NA,NA,NA,NA,NA,NA,NA,NA,NA,62.06,METAR KLGA 061800Z 35011KT 15SM SCT/// 17/04 A//// RMK SLP183 T01670039,NA
LGA,1973-05-06T19:00:00Z,-73.8803,40.7794,63.86,38.84,39.62,310,10,NA,30.05,1017.6,15,NA,SCT,   ,   ,   ,4500,NA,NA,NA,NA,NA,NA,NA,NA,NA,NA,63.86,METAR KLGA 061900Z 31010KT 15SM SCT045 18/04 A3005 RMK VA SLP176 T01770038,NA
LGA,1973-05-06T20:00:00Z,-73.8803,40.7794,63.86,35.96,35.37,300,10,NA,30.04,1017.3,15,NA,SCT,   ,   ,   ,4500,NA,NA,NA,NA,NA,NA,NA,NA,NA,NA,63.86,METAR KLGA 062000Z 30010KT 15SM SCT045 18/02 A3004 RMK VA SLP173 T01770022,NA
LGA,1973-05-06T21:00:00Z,-73.8803,40.7794,66.02,39.02,37,320,12,NA,30.04,1017.3,15,NA,BKN,   ,   ,   ,6000,NA,NA,NA,NA,NA,NA,NA,NA,NA,NA,66.02,METAR KLGA 062100Z 32012KT 15SM BKN060 19/04 A3004 RMK / 0 SLP173 8/500 T01890039,NA
LGA,1973-05-06T22:00:00Z,-73.8803,40.7794,65.84,38.84,36.97,320,13,NA,30.04,1017.3,15,NA,SCT,   ,   ,   ,5000,NA,NA,NA,NA,NA,NA,NA,NA,NA,NA,65.84,METAR KLGA 062200Z 32013KT 15SM SCT050 19/04 A3004 RMK VA SLP173 T01880038,NA
LGA,1973-05-06T23:00:00Z,-73.8803,40.7794,63.86,36.86,36.66,10,10,NA,30.06,1018,15,NA,SCT,   ,   ,   ,5000,NA,NA,NA,NA,NA,NA,NA,NA,NA,NA,63.86,METAR KLGA 062300Z 01010KT 15SM SCT050 18/03 A3006 RMK VA SLP180 T01770027,NA
LGA,1973-05-07T00:00:00Z,-73.8803,40.7794,62.06,39.02,42.51,40,13,NA,30.08,1018.6,15,NA,SCT,   ,   ,   ,NA,NA,NA,NA,NA,NA,NA,NA,NA,NA,NA,62.06,METAR KLGA 070000Z 04013KT 15SM SCT/// 17/04 A//// RMK SLP186 T01670039,NA
LGA,1973-05-07T01:00:00Z,-73.8803,40.7794,60.98,37.94,42.33,90,11,NA,30.12,1020,15,NA,SCT,   ,   ,   ,5000,NA,NA,NA,NA,NA,NA,NA,NA,NA,NA,60.98,METAR KLGA 070100Z 09011KT 15SM SCT050 16/03 A3012 RMK VA SLP200 T01610033,NA
LGA,1973-05-07T02:00:00Z,-73.8803,40.7794,57.92,41,53.2,140,7,NA,30.17,1021.7,15,NA,SCT,   ,   ,   ,5000,NA,NA,NA,NA,NA,NA,NA,NA,NA,NA,57.92,METAR KLGA 070200Z 14007KT 15SM SCT050 14/05 A3017 RMK SLP217 T01440050,NA
LGA,1973-05-07T03:00:00Z,-73.8803,40.7794,55.94,42.08,59.58,130,6,NA,30.18,1022,15,NA,SCT,   ,   ,   ,6000,NA,NA,NA,NA,NA,NA,NA,NA,NA,NA,55.94,METAR KLGA 070300Z 13006KT 15SM SCT060 13/06 A3018 RMK / SLP220 8/500 T01330056 51034,NA
LGA,1973-05-07T04:00:00Z,-73.8803,40.7794,52.88,42.98,68.96,220,5,NA,30.2,1022.7,15,NA,SCT,   ,   ,   ,6000,NA,NA,NA,NA,NA,NA,NA,NA,NA,NA,52.88,METAR KLGA 070400Z 22005KT 15SM SCT060 12/06 A3020 RMK SLP227 T01160061,NA
LGA,1973-05-07T05:00:00Z,-73.8803,40.7794,52.88,42.98,68.96,200,4,NA,30.2,1022.7,10,NA,SCT,   ,   ,   ,6000,NA,NA,NA,NA,NA,NA,NA,NA,NA,NA,52.88,METAR KLGA 070500Z 20004KT 10SM SCT060 12/06 A3020 RMK SLP227 T01160061,NA
LGA,1973-05-07T06:00:00Z,-73.8803,40.7794,51.98,42.98,71.28,0,0,NA,30.22,1023.4,9,NA,CLR,   ,   ,   ,NA,NA,NA,NA,NA,NA,NA,NA,NA,NA,NA,51.98,METAR KLGA 070600Z 00000KT 9SM CLR 11/06 A//// RMK SLP234 T01110061,NA
LGA,1973-05-07T07:00:00Z,-73.8803,40.7794,50,44.96,82.73,50,7,NA,30.24,1024,9,NA,CLR,   ,   ,   ,NA,NA,NA,NA,NA,NA,NA,NA,NA,NA,NA,46.72,METAR KLGA 070700Z 05007KT 9SM CLR 10/07 A3024 RMK SLP240 T01000072,NA
LGA,1973-05-07T08:00:00Z,-73.8803,40.7794,50,44.96,82.73,20,4,NA,30.24,1024,9,NA,CLR,   ,   ,   ,NA,NA,NA,NA,NA,NA,NA,NA,NA,NA,NA,48.44,METAR KLGA 070800Z 02004KT 9SM CLR 10/07 A3024 RMK LOW SC SE SLP240 T01000072,NA
LGA,1973-05-07T09:00:00Z,-73.8803,40.7794,48.92,44.96,86.13,40,5,NA,30.25,1024.4,10,NA,CLR,   ,   ,   ,NA,NA,NA,NA,NA,NA,NA,NA,NA,NA,NA,46.49,METAR KLGA 070900Z 04005KT 10SM CLR 09/07 A3025 RMK / SLP244 T00940072 51012,NA
LGA,1973-05-07T10:00:00Z,-73.8803,40.7794,47.84,41,77.04,40,5,NA,30.28,1025.4,10,NA,CLR,   ,   ,   ,NA,NA,NA,NA,NA,NA,NA,NA,NA,NA,NA,45.21,METAR KLGA 071000Z 04005KT 10SM CLR 09/05 A3028 RMK KOCTY SLP254 T00880050,NA
LGA,1973-05-07T11:00:00Z,-73.8803,40.7794,50,39.92,68.15,50,7,NA,30.31,1026.4,15,NA,CLR,   ,   ,   ,NA,NA,NA,NA,NA,NA,NA,NA,NA,NA,NA,46.72,METAR KLGA 071100Z 05007KT 15SM CLR 10/04 A3031 RMK VA SLP264 T01000044,NA
LGA,1973-05-07T12:00:00Z,-73.8803,40.7794,53.06,39.92,60.87,70,9,NA,30.32,1026.8,15,NA,CLR,   ,   ,   ,NA,NA,NA,NA,NA,NA,NA,NA,NA,NA,NA,53.06,METAR KLGA 071200Z 07009KT 15SM CLR 12/04 A//// RMK SLP268 T01170044,NA
LGA,1973-05-07T13:00:00Z,-73.8803,40.7794,54.86,38.84,54.64,50,16,NA,30.33,1027.1,15,NA,CLR,   ,   ,   ,NA,NA,NA,NA,NA,NA,NA,NA,NA,NA,NA,54.86,METAR KLGA 071300Z 05016KT 15SM CLR 13/04 A3033 RMK VA SLP271 T01270038,NA
LGA,1973-05-07T14:00:00Z,-73.8803,40.7794,56.84,37.94,49.09,50,10,NA,30.34,1027.4,15,NA,CLR,   ,   ,   ,NA,NA,NA,NA,NA,NA,NA,NA,NA,NA,NA,56.84,METAR KLGA 071400Z 05010KT 15SM CLR 14/03 A3034 RMK VALGA OM 04 OTS SLP274 T01380033 550/6,NA
LGA,1973-05-07T15:00:00Z,-73.8803,40.7794,60.08,41,49.25,60,6,NA,30.35,1027.8,15,NA,CLR,   ,   ,   ,NA,NA,NA,NA,NA,NA,NA,NA,NA,NA,NA,60.08,METAR KLGA 071500Z 06006KT 15SM CLR 16/05 A3035 RMK VALGA 5/7 LOM 04 OTS5/6 SLP278 T01560050 52010,NA
LGA,1973-05-07T16:00:00Z,-73.8803,40.7794,60.98,39.92,45.74,50,8,NA,30.35,1027.8,15,NA,CLR,   ,   ,   ,NA,NA,NA,NA,NA,NA,NA,NA,NA,NA,NA,60.98,METAR KLGA 071600Z 05008KT 15SM CLR 16/04 A3035 RMK VA/FEW CI SLGA C5/6C5/7 SLP278 T01610044,NA
LGA,1973-05-07T17:00:00Z,-73.8803,40.7794,62.96,41,44.47,50,7,NA,30.32,1026.8,15,NA,CLR,   ,   ,   ,NA,NA,NA,NA,NA,NA,NA,NA,NA,NA,NA,62.96,METAR KLGA 071700Z 05007KT 15SM CLR 17/05 A3032 RMK FEW CU CI VA SLP268 T01720050,NA
LGA,1973-05-07T18:00:00Z,-73.8803,40.7794,64.94,41,41.49,90,9,NA,30.3,1026.1,15,NA,SCT,FEW,   ,   ,NA,NA,NA,NA,NA,NA,NA,NA,NA,NA,NA,64.94,METAR KLGA 071800Z 09009KT 15SM SCT/// FEW/// 18/05 A//// RMK SLP261 T01830050,NA
LGA,1973-05-07T19:00:00Z,-73.8803,40.7794,61.88,43.88,51.61,150,11,NA,30.31,1026.4,15,NA,BKN,   ,   ,   ,30000,NA,NA,NA,NA,NA,NA,NA,NA,NA,NA,61.88,METAR KLGA 071900Z 15011KT 15SM BKN300 17/07 A3031 RMK - SLP264 T01660066,NA
LGA,1973-05-07T20:00:00Z,-73.8803,40.7794,60.98,42.98,51.48,160,12,NA,30.31,1026.4,15,NA,SCT,   ,   ,   ,30000,NA,NA,NA,NA,NA,NA,NA,NA,NA,NA,60.98,METAR KLGA 072000Z 16012KT 15SM SCT300 16/06 A3031 RMK VA SLP264 T01610061,NA
LGA,1973-05-07T21:00:00Z,-73.8803,40.7794,60.08,42.08,51.34,170,12,NA,30.31,1026.4,15,NA,SCT,   ,   ,   ,25000,NA,NA,NA,NA,NA,NA,NA,NA,NA,NA,60.08,METAR KLGA 072100Z 17012KT 15SM SCT250 16/06 A3031 RMK 1001VA SLP264 T01560056 51003,NA
LGA,1973-05-07T22:00:00Z,-73.8803,40.7794,59,42.98,55.24,130,13,NA,30.31,1026.4,15,NA,SCT,   ,   ,   ,30000,NA,NA,NA,NA,NA,NA,NA,NA,NA,NA,59,METAR KLGA 072200Z 13013KT 15SM SCT300 15/06 A3031 RMK VA SLP264 T01500061,NA
LGA,1973-05-07T23:00:00Z,-73.8803,40.7794,56.84,41.9,57.27,120,12,NA,30.31,1026.4,15,NA,SCT,   ,   ,   ,30000,NA,NA,NA,NA,NA,NA,NA,NA,NA,NA,56.84,METAR KLGA 072300Z 12012KT 15SM SCT300 14/06 A3031 RMK VA SLP264 T01380055,NA
LGA,1973-05-08T00:00:00Z,-73.8803,40.7794,53.96,42.08,64.03,150,12,NA,30.34,1027.4,15,NA,FEW,   ,   ,   ,NA,NA,NA,NA,NA,NA,NA,NA,NA,NA,NA,53.96,METAR KLGA 080000Z 15012KT 15SM FEW/// 12/06 A//// RMK SLP274 T01220056,NA
LGA,1973-05-08T01:00:00Z,-73.8803,40.7794,52.88,42.98,68.96,160,10,NA,30.34,1027.4,15,NA,CLR,   ,   ,   ,NA,NA,NA,NA,NA,NA,NA,NA,NA,NA,NA,52.88,METAR KLGA 080100Z 16010KT 15SM CLR 12/06 A3034 RMK SLP274 T01160061,NA
LGA,1973-05-08T02:00:00Z,-73.8803,40.7794,52.88,44.96,74.38,180,8,NA,30.34,1027.4,15,NA,CLR,   ,   ,   ,NA,NA,NA,NA,NA,NA,NA,NA,NA,NA,NA,52.88,METAR KLGA 080200Z 18008KT 15SM CLR 12/07 A3034 RMK SLP274 T01160072,NA
LGA,1973-05-08T03:00:00Z,-73.8803,40.7794,51.98,44.96,76.88,180,7,NA,30.35,1027.8,15,NA,SCT,   ,   ,   ,25000,NA,NA,NA,NA,NA,NA,NA,NA,NA,NA,51.98,METAR KLGA 080300Z 18007KT 15SM SCT250 11/07 A3035 RMK / SLP278 8/001 T01110072 53003,NA
LGA,1973-05-08T04:00:00Z,-73.8803,40.7794,51.98,44.96,76.88,190,9,NA,30.35,1027.8,15,NA,BKN,   ,   ,   ,25000,NA,NA,NA,NA,NA,NA,NA,NA,NA,NA,51.98,METAR KLGA 080400Z 19009KT 15SM BKN250 11/07 A3035 RMK SLP278 T01110072,NA
LGA,1973-05-08T05:00:00Z,-73.8803,40.7794,50.9,44.96,80.01,180,7,NA,30.34,1027.4,10,NA,SCT,   ,   ,   ,25000,NA,NA,NA,NA,NA,NA,NA,NA,NA,NA,50.9,METAR KLGA 080500Z 18007KT 10SM SCT250 11/07 A3034 RMK SLP274 T01050072,NA
LGA,1973-05-08T06:00:00Z,-73.8803,40.7794,51.08,44.96,79.48,180,6,NA,30.34,1027.4,10,NA,SCT,   ,   ,   ,NA,NA,NA,NA,NA,NA,NA,NA,NA,NA,NA,51.08,METAR KLGA 080600Z 18006KT 10SM SCT/// 11/07 A//// RMK SLP274 T01060072,NA
LGA,1973-05-08T07:00:00Z,-73.8803,40.7794,50.9,44.96,80.01,190,4,NA,30.33,1027.1,9,NA,SCT,   ,   ,   ,25000,NA,NA,NA,NA,NA,NA,NA,NA,NA,NA,50.9,METAR KLGA 080700Z 19004KT 9SM SCT250 11/07 A3033 RMK LGA DME OTS SLP271 T01050072 550/9,NA
LGA,1973-05-08T08:00:00Z,-73.8803,40.7794,50,44.96,82.73,160,6,NA,30.32,1026.8,9,NA,CLR,   ,   ,   ,NA,NA,NA,NA,NA,NA,NA,NA,NA,NA,NA,47.21,METAR KLGA 080800Z 16006KT 9SM CLR 10/07 A3032 RMK LGA C5/9 SLP268 T01000072,NA
LGA,1973-05-08T09:00:00Z,-73.8803,40.7794,48.02,44.96,89.08,70,5,NA,30.32,1026.8,9,NA,FEW,   ,   ,   ,25000,NA,NA,NA,NA,NA,NA,NA,NA,NA,NA,45.42,METAR KLGA 080900Z 07005KT 9SM FEW250 09/07 A3032 RMK / SLP268 8/001 T00890072 57007,NA
LGA,1973-05-08T10:00:00Z,-73.8803,40.7794,48.92,45.86,89.12,80,8,NA,30.32,1026.8,8,NA,SCT,OVC,   ,   ,15000,25000,NA,NA,NA,NA,NA,NA,NA,NA,NA,44.96,METAR KLGA 081000Z 08008KT 8SM SCT150 OVC250 09/08 A3032 RMK BINOVC VA SLP268 T00940077,NA
LGA,1973-05-08T11:00:00Z,-73.8803,40.7794,50,45.86,85.61,60,7,NA,30.33,1027.1,8,NA,SCT,OVC,   ,   ,15000,20000,NA,NA,NA,NA,NA,NA,NA,NA,NA,46.72,METAR KLGA 081100Z 06007KT 8SM SCT150 OVC200 10/08 A3033 RMK VA SLP271 T01000077,NA
LGA,1973-05-08T12:00:00Z,-73.8803,40.7794,53.06,46.94,79.64,120,10,NA,30.31,1026.4,8,NA,SCT,OVC,   ,   ,NA,NA,NA,NA,NA,NA,NA,NA,NA,NA,NA,53.06,METAR KLGA 081200Z 12010KT 8SM SCT/// OVC/// 12/08 A//// RMK SLP264 T01170083,NA
LGA,1973-05-08T13:00:00Z,-73.8803,40.7794,55.94,42.98,61.67,130,12,NA,30.3,1026.1,9,NA,SCT,BKN,OVC,   ,3000,7000,14000,NA,NA,NA,NA,NA,NA,NA,NA,55.94,METAR KLGA 081300Z 13012KT 9SM SCT030 BKN070 OVC140 13/06 A3030 RMK VA SLP261 T01330061,NA
LGA,1973-05-08T14:00:00Z,-73.8803,40.7794,56.84,42.98,59.7,170,15,NA,30.3,1026.1,15,NA,BKN,BKN,OVC,   ,5000,7000,13000,NA,NA,NA,NA,NA,NA,NA,NA,56.84,METAR KLGA 081400Z 17015KT 15SM BKN050 BKN070 OVC130 14/06 A3030 RMK VA SLP261 T01380061,NA
LGA,1973-05-08T15:00:00Z,-73.8803,40.7794,57.92,42.08,55.47,160,14,NA,30.29,1025.7,15,NA,BKN,OVC,   ,   ,4600,12000,NA,NA,NA,NA,NA,NA,NA,NA,NA,57.92,METAR KLGA 081500Z 16014KT 15SM BKN046 OVC120 14/06 A3029 RMK VA SLP257 8/52/ T01440056 57007,NA
LGA,1973-05-08T16:00:00Z,-73.8803,40.7794,56.84,42.98,59.7,160,14,NA,30.29,1025.7,15,NA,BKN,BKN,OVC,   ,4600,7000,12000,NA,NA,NA,NA,NA,NA,NA,NA,56.84,METAR KLGA 081600Z 16014KT 15SM BKN046 BKN070 OVC120 14/06 A3029 RMK VA SLP257 T01380061,NA
LGA,1973-05-08T17:00:00Z,-73.8803,40.7794,56.84,42.98,59.7,160,12,NA,30.28,1025.4,15,NA,BKN,OVC,   ,   ,4600,10000,NA,NA,NA,NA,NA,NA,NA,NA,NA,56.84,METAR KLGA 081700Z 16012KT 15SM BKN046 OVC100 14/06 A3028 RMK VA SLP254 T01380061,NA
LGA,1973-05-08T18:00:00Z,-73.8803,40.7794,55.94,42.98,61.67,160,13,NA,30.27,1025.1,15,NA,OVC,   ,   ,   ,NA,NA,NA,NA,-SHRA,NA,NA,NA,NA,NA,NA,55.94,METAR KLGA 081800Z 16013KT 15SM -SHRA OVC/// 13/06 A//// RMK SLP251 T01330061,NA
LGA,1973-05-08T19:00:00Z,-73.8803,40.7794,54.86,46.94,74.57,150,11,NA,30.26,1024.7,10,NA,SCT,OVC,   ,   ,2000,4100,NA,NA,-SHRA,NA,NA,NA,NA,NA,NA,54.86,METAR KLGA 081900Z 15011KT 10SM -SHRA SCT020 OVC041 13/08 A3026 RMK VA SLP247 T01270083,NA
LGA,1973-05-08T20:00:00Z,-73.8803,40.7794,55.94,46.94,71.7,160,10,NA,30.23,1023.7,10,NA,SCT,OVC,   ,   ,2000,3700,NA,NA,-SHRA,NA,NA,NA,NA,NA,NA,55.94,METAR KLGA 082000Z 16010KT 10SM -SHRA SCT020 OVC037 13/08 A3023 RMK SLP237 T01330083,NA
LGA,1973-05-08T21:00:00Z,-73.8803,40.7794,53.96,48.02,80.25,170,9,NA,30.22,1023.4,10,NA,BKN,OVC,   ,   ,3700,5000,NA,NA,-SHRA,NA,NA,NA,NA,NA,NA,53.96,METAR KLGA 082100Z 17009KT 10SM -SHRA BKN037 OVC050 12/09 A3022 RMK / SLP234 8/5// T01220089 57017,NA
LGA,1973-05-08T22:00:00Z,-73.8803,40.7794,54.86,45.86,71.59,140,11,NA,30.18,1022,15,NA,BKN,OVC,   ,   ,3400,5000,NA,NA,-SHRA,NA,NA,NA,NA,NA,NA,54.86,METAR KLGA 082200Z 14011KT 15SM -SHRA BKN034 OVC050 13/08 A3018 RMK SLP220 T01270077,NA
LGA,1973-05-08T23:00:00Z,-73.8803,40.7794,54.86,45.86,71.59,160,12,0.01,30.15,1021,10,NA,SCT,BKN,OVC,   ,2800,5000,9000,NA,NA,NA,NA,NA,NA,NA,NA,54.86,METAR KLGA 082300Z 16012KT 10SM SCT028 BKN050 OVC090 13/08 A3015 RMK RE20 SLP210 P0001 T01270077,NA
LGA,1973-05-09T00:00:00Z,-73.8803,40.7794,53.96,46.94,77.06,160,10,NA,30.14,1020.7,10,NA,SCT,BKN,OVC,   ,NA,NA,NA,NA,NA,NA,NA,NA,NA,NA,NA,53.96,METAR KLGA 090000Z 16010KT 10SM SCT/// BKN/// OVC/// 12/08 A//// RMK SLP207 T01220083,NA
LGA,1973-05-09T01:00:00Z,-73.8803,40.7794,54.86,46.94,74.57,160,10,NA,30.14,1020.7,10,NA,BKN,OVC,   ,   ,3700,5000,NA,NA,-SHRA,NA,NA,NA,NA,NA,NA,54.86,METAR KLGA 090100Z 16010KT 10SM -SHRA BKN037 OVC050 13/08 A3014 RMK RB30 VA SLP207 T01270083,NA
LGA,1973-05-09T02:00:00Z,-73.8803,40.7794,54.86,47.84,77.14,150,10,NA,30.13,1020.3,10,NA,SCT,BKN,OVC,   ,2400,3900,7000,NA,-SHRA,NA,NA,NA,NA,NA,NA,54.86,METAR KLGA 090200Z 15010KT 10SM -SHRA SCT024 BKN039 OVC070 13/09 A3013 RMK VA SLP203 T01270088,NA
LGA,1973-05-09T03:00:00Z,-73.8803,40.7794,53.96,48.92,83,170,12,0.03,30.11,1019.6,10,NA,SCT,BKN,OVC,   ,2000,5000,7000,NA,-SHRA,NA,NA,NA,NA,NA,NA,53.96,METAR KLGA 090300Z 17012KT 10SM -SHRA SCT020 BKN050 OVC070 12/09 A3011 RMK / VA SLP196 P0003 8/57/ T01220094 58010,NA
LGA,1973-05-09T04:00:00Z,-73.8803,40.7794,53.96,50,86.41,170,11,0.07,30.09,1019,6,NA,BKN,BKN,OVC,   ,1500,3600,7000,NA,-SHRA,NA,NA,NA,NA,NA,NA,53.96,METAR KLGA 090400Z 17011KT 6SM -SHRA BKN015 BKN036 OVC070 12/10 A3009 RMK SLP190 P0007 T01220100,NA
LGA,1973-05-09T05:00:00Z,-73.8803,40.7794,54.86,50.9,86.46,160,11,0.03,30.06,1018,5,NA,SCT,BKN,OVC,   ,800,1100,3700,NA,-DZRA FG,NA,NA,NA,NA,NA,NA,54.86,METAR KLGA 090500Z 16011KT 5SM -DZRA FG SCT008 BKN011 OVC037 13/11 A3006 RMK / WND 140V18 SLP180 P0003 T01270105,NA
LGA,1973-05-09T05:06:00Z,-73.8803,40.7794,NA,NA,NA,170,12,NA,30.04,NA,2.5,NA,BKN,OVC,NA,NA,900,1300,NA,NA,NA,NA,NA,NA,NA,NA,NA,NA,KLGA 090506Z AUTO 17012KT 2 1/2SM BKN009 OVC013 A3004 RMK IEM_DS3505,NA
LGA,1973-05-09T06:00:00Z,-73.8803,40.7794,55.94,51.98,86.52,150,12,0.04,30.02,1016.6,7,NA,BKN,OVC,   ,   ,NA,NA,NA,NA,-RA,NA,NA,NA,NA,NA,NA,55.94,METAR KLGA 090600Z 15012KT 7SM -RA BKN/// OVC/// 13/11 A//// RMK SLP166 P0004 60016 T01330111,NA
LGA,1973-05-09T07:00:00Z,-73.8803,40.7794,55.94,52.88,89.44,150,18,NA,29.98,1015.2,7,NA,BKN,OVC,   ,   ,700,900,NA,NA,-RA,NA,NA,NA,NA,NA,NA,55.94,METAR KLGA 090700Z 15018KT 7SM -RA BKN007 OVC009 13/12 A2998 RMK WND 130V170LGA 5/10 OM4 OTS SLP152 T01330116,NA
LGA,1973-05-09T08:00:00Z,-73.8803,40.7794,54.86,52.88,93.01,170,15,0.01,29.98,1015.2,5,20,BKN,OVC,   ,   ,500,700,NA,NA,-RA FG,NA,NA,NA,NA,NA,NA,54.86,METAR KLGA 090800Z 17015G20KT 5SM -RA FG BKN005 OVC007 13/12 A2998 RMK WND 150V190LGA5/10 5/11 5/12 SLP152 P0001 T01270116,NA
LGA,1973-05-09T09:00:00Z,-73.8803,40.7794,55.94,53.06,90.03,170,16,0.12,29.96,1014.6,4,NA,BKN,OVC,   ,   ,600,800,NA,NA,-RA FG,NA,NA,NA,NA,NA,NA,55.94,METAR KLGA 090900Z 17016KT 4SM -RA FG BKN006 OVC008 13/12 A2996 RMK WND 140V200/ 172/LGA 5/ 10 5/11 5/12 SLP146 P0012 T01330117 56019,NA
LGA,1973-05-09T10:00:00Z,-73.8803,40.7794,55.94,52.88,89.44,180,15,0.08,29.95,1014.2,5,21,BKN,BKN,OVC,   ,500,700,1100,NA,-RA FG,NA,NA,NA,NA,NA,NA,55.94,METAR KLGA 091000Z 18015G21KT 5SM -RA FG BKN005 BKN007 OVC011 13/12 A2995 RMK WND150V210LGA5/10 5/11 5/12 SLP142 P0008 T01330116,NA
LGA,1973-05-09T11:00:00Z,-73.8803,40.7794,56.84,53.96,90.07,170,19,0.04,29.94,1013.9,4,26,SCT,BKN,OVC,   ,400,500,700,NA,-RA FG,NA,NA,NA,NA,NA,NA,56.84,METAR KLGA 091100Z 17019G26KT 4SM -RA FG SCT004 BKN005 OVC007 14/12 A2994 RMK LGA5/10 5/11 SLP139 P0004 T01380122,NA
LGA,1973-05-09T12:00:00Z,-73.8803,40.7794,57.02,53.96,89.48,160,17,0.1,29.92,1013.2,2.5,NA,SCT,BKN,OVC,   ,NA,NA,NA,NA,-RA FG,NA,NA,NA,NA,NA,NA,57.02,METAR KLGA 091200Z 16017KT 21/2SM -RA FG SCT/// BKN/// OVC/// 14/12 A//// RMK SLP132 P0010 60031 70051 T01390122,NA
LGA,1973-05-09T12:27:00Z,-73.8803,40.7794,NA,NA,NA,130,21,NA,29.9,NA,1.5,29,SCT,BKN,OVC,NA,500,700,1500,NA,NA,NA,NA,NA,NA,NA,NA,NA,KLGA 091227Z AUTO 13021G29KT 1 1/2SM SCT005 BKN007 OVC015 A2990 RMK IEM_DS3505,NA
LGA,1973-05-09T13:00:00Z,-73.8803,40.7794,59,54.86,86.12,160,16,0.18,29.9,1012.5,2.5,22,SCT,BKN,OVC,   ,500,700,1700,NA,-RA FG,NA,NA,NA,NA,NA,NA,59,METAR KLGA 091300Z 16016G22KT 21/2SM -RA FG SCT005 BKN007 OVC017 15/13 A2990 RMK CIG 6V8 SFC VSBY 3 SLP125 P0018 T01500127,NA
LGA,1973-05-09T13:09:00Z,-73.8803,40.7794,NA,NA,NA,150,17,NA,29.89,NA,2.5,24,BKN,BKN,OVC,NA,500,900,1700,NA,NA,NA,NA,NA,NA,NA,NA,NA,KLGA 091309Z AUTO 15017G24KT 2 1/2SM BKN005 BKN009 OVC017 A2989 RMK IEM_DS3505,NA
LGA,1973-05-09T14:00:00Z,-73.8803,40.7794,57.92,53.96,86.63,160,14,0.04,29.88,1011.9,2.5,21,SCT,BKN,OVC,   ,400,600,1000,NA,-RA FG,NA,NA,NA,NA,NA,NA,57.92,METAR KLGA 091400Z 16014G21KT 21/2SM -RA FG SCT004 BKN006 OVC010 14/12 A2988 RMK CIG5V7LGA 5/13 RVR OTS SLP119 P0004 72/13 T01440122 5202/,NA
LGA,1973-05-09T15:00:00Z,-73.8803,40.7794,57.02,53.96,89.48,170,18,0.02,29.87,1011.5,2,24,OVC,   ,   ,   ,400,NA,NA,NA,-DZRA FG,NA,NA,NA,NA,NA,NA,57.02,METAR KLGA 091500Z 17018G24KT 2SM -DZRA FG OVC004 14/12 A2987 RMK / 102/LGA5/13 SLP115 P0002 T01390122 57025,NA
LGA,1973-05-09T15:12:00Z,-73.8803,40.7794,NA,NA,NA,150,16,NA,29.87,NA,2,21,BKN,OVC,NA,NA,300,500,NA,NA,NA,NA,NA,NA,NA,NA,NA,NA,KLGA 091512Z AUTO 15016G21KT 2SM BKN003 OVC005 A2987 RMK 60001 57014 IEM_DS3505,NA
LGA,1973-05-09T16:00:00Z,-73.8803,40.7794,56.84,54.86,93.07,160,12,NA,29.86,1011.2,1.5,NA,BKN,OVC,   ,   ,200,300,NA,NA,-SHRA FG,NA,NA,NA,NA,NA,NA,56.84,METAR KLGA 091600Z 16012KT 11/2SM -SHRA FG BKN002 OVC003 14/13 A2986 RMK LGA C5/13 SLP112 T01380127,NA
LGA,1973-05-09T16:21:00Z,-73.8803,40.7794,NA,NA,NA,190,14,NA,29.86,NA,0.5,NA,BKN,OVC,NA,NA,100,200,NA,NA,NA,NA,NA,NA,NA,NA,NA,NA,KLGA 091621Z AUTO 19014KT 1/2SM POB000 BKN001 OVC002 A2986 RMK IEM_DS3505,NA
LGA,1973-05-09T17:00:00Z,-73.8803,40.7794,56.84,54.86,93.07,180,11,NA,29.85,1010.8,0.25,NA,OVC,   ,   ,   ,200,NA,NA,NA,-DZ FG,NA,NA,NA,NA,NA,NA,56.84,METAR KLGA 091700Z 18011KT 1/4SM -DZ FG OVC002 14/13 A2985 RMK R22VRMNO SFC VSBY SLP108 T01380127 530/8,NA
LGA,1973-05-09T17:07:00Z,-73.8803,40.7794,NA,NA,NA,160,9,NA,29.84,NA,0.25,NA,BKN,OVC,NA,NA,100,200,NA,NA,NA,NA,NA,NA,NA,NA,NA,NA,KLGA 091707Z AUTO 16009KT 1/4SM POB000 BKN001 OVC002 A2984 RMK IEM_DS3505,NA
LGA,1973-05-09T18:00:00Z,-73.8803,40.7794,57.92,55.94,93.1,170,6,NA,29.84,1010.5,0.75,NA,OVC,BKN,OVC,   ,NA,NA,NA,NA,FG,NA,NA,NA,NA,NA,NA,57.92,METAR KLGA 091800Z 17006KT 3/4SM FG OVC/// BKN/// OVC/// 14/13 A//// RMK SLP105 60024 T01440133,NA
LGA,1973-05-09T18:29:00Z,-73.8803,40.7794,NA,NA,NA,170,6,NA,29.83,NA,1.5,NA,BKN,OVC,NA,NA,200,400,NA,NA,NA,NA,NA,NA,NA,NA,NA,NA,KLGA 091829Z AUTO 17006KT 1 1/2SM BKN002 OVC004 A2983 RMK IEM_DS3505,NA
LGA,1973-05-09T19:00:00Z,-73.8803,40.7794,59.9,56.84,89.6,90,4,NA,29.83,1010.2,1.5,NA,OVC,   ,   ,   ,300,NA,NA,NA,FG,NA,NA,NA,NA,NA,NA,59.9,METAR KLGA 091900Z 09004KT 11/2SM FG OVC003 16/14 A2983 RMK SLP102 T01550138,NA
LGA,1973-05-09T19:20:00Z,-73.8803,40.7794,NA,NA,NA,130,6,NA,29.83,NA,2,NA,BKN,OVC,NA,NA,300,500,NA,NA,NA,NA,NA,NA,NA,NA,NA,NA,KLGA 091920Z AUTO 13006KT 2SM BKN003 OVC005 A2983 RMK IEM_DS3505,NA
LGA,1973-05-09T20:00:00Z,-73.8803,40.7794,61,56.8,86.04,110,6,NA,29.82,NA,2,NA,   ,   ,   ,   ,NA,NA,NA,NA,NA,NA,NA,NA,NA,NA,NA,61,METAR KLGA 092000Z 11006KT 2SM FGDZ SCT003 BKN005 OVC015 16/14 A2982 RMK SLP098 T01610138,NA
LGA,1973-05-09T20:28:00Z,-73.8803,40.7794,NA,NA,NA,150,6,NA,29.82,NA,2,NA,BKN,OVC,NA,NA,600,1500,NA,NA,NA,NA,NA,NA,NA,NA,NA,NA,KLGA 092028Z AUTO 15006KT 2SM BKN006 OVC015 A2982 RMK IEM_DS3505,NA
LGA,1973-05-09T21:00:00Z,-73.8803,40.7794,60.1,57,89.48,130,9.04,0.03,29.82,NA,5.5,NA,   ,   ,   ,   ,NA,NA,NA,NA,NA,NA,NA,NA,NA,NA,NA,60.1,METAR KLGA 092100Z 13009KT 11/2SM -SHRA FGDZ OVC006 16/14 A2982 RMK / SLP098 P0003 8/7// T01560139 56007,NA
LGA,1973-05-09T21:30:00Z,-73.8803,40.7794,NA,NA,NA,130,14,NA,29.81,NA,2,NA,BKN,BKN,OVC,NA,500,2000,7900,NA,NA,NA,NA,NA,NA,NA,NA,NA,KLGA 092130Z AUTO 13014KT 2SM BKN005 BKN020 OVC079 A2981 RMK IEM_DS3505,NA
LGA,1973-05-09T22:00:00Z,-73.8803,40.7794,59,55.9,89.44,130,10,0.03,29.8,NA,3,NA,   ,   ,   ,   ,NA,NA,NA,NA,NA,NA,NA,NA,NA,NA,NA,59,METAR KLGA 092200Z 13010KT 3SM FGDZ SCT005 BKN030 BKN080 15/13 A2980 RMK RE20 SLP091 P0003 T01500133,NA
LGA,1973-05-09T23:00:00Z,-73.8803,40.7794,59.9,56.8,89.48,90,5.04,NA,29.81,NA,3,NA,   ,   ,   ,   ,NA,NA,NA,NA,NA,NA,NA,NA,NA,NA,NA,59.9,METAR KLGA 092300Z 09005KT 3SM FGDZ SCT005 BKN050 BKN080 16/14 A2981 RMK VA SLP095 T01550138,NA
LGA,1973-05-10T00:00:00Z,-73.8803,40.7794,57.9,55,90.04,160,7.04,NA,29.83,NA,4,NA,   ,   ,   ,   ,NA,NA,NA,NA,NA,NA,NA,NA,NA,NA,NA,57.9,METAR KLGA 100000Z 16007KT 4SM FGDZ OVC007 14/13 A2983 RMK LGB %3KH 135/75/53/3108/993/ SLP102 60008 T01440128 56008,NA
LGA,1973-05-10T01:00:00Z,-73.8803,40.7794,56.8,54,90.33,150,7.04,NA,29.84,NA,3,NA,   ,   ,   ,   ,NA,NA,NA,NA,NA,NA,NA,NA,NA,NA,NA,56.8,METAR KLGA 100100Z 15007KT 3SM FGDZ OVC006 14/12 A2984 RMK CIG 5V7 SLP105 T01380122,NA
LGA,1973-05-10T01:04:00Z,-73.8803,40.7794,NA,NA,NA,140,8,NA,29.85,NA,2,NA,OVC,NA,NA,NA,300,NA,NA,NA,NA,NA,NA,NA,NA,NA,NA,NA,KLGA 100104Z AUTO 14008KT 2SM OVC003 A2985 RMK IEM_DS3505,NA
LGA,1973-05-10T02:00:00Z,-73.8803,40.7794,56.8,54,90.33,90,6,NA,29.86,NA,2,NA,   ,   ,   ,   ,NA,NA,NA,NA,NA,NA,NA,NA,NA,NA,NA,56.8,METAR KLGA 100200Z 09006KT 2SM FGDZ BKN003 14/12 A2986 RMK SLP112 T01380122,NA
LGA,1973-05-10T02:12:00Z,-73.8803,40.7794,NA,NA,NA,60,6,NA,29.85,NA,1,NA,BKN,NA,NA,NA,300,NA,NA,NA,NA,NA,NA,NA,NA,NA,NA,NA,KLGA 100212Z AUTO 06006KT 1SM BKN003 A2985 RMK IEM_DS3505,NA
LGA,1973-05-10T02:31:00Z,-73.8803,40.7794,NA,NA,NA,50,5,NA,29.86,NA,0.5,NA,NA,NA,NA,NA,NA,NA,NA,NA,NA,NA,NA,NA,NA,NA,NA,NA,KLGA 100231Z AUTO 05005KT 1/2SM OBS003 A2986 RMK IEM_DS3505,NA
LGA,1973-05-10T03:00:00Z,-73.8803,40.7794,55.94,55.04,96.78,30,4,NA,29.85,1010.8,0.5,NA,OVC,   ,   ,   ,300,NA,NA,NA,FG,NA,NA,NA,NA,NA,NA,55.94,METAR KLGA 100300Z 03004KT 1/2SM FG OVC003 13/13 A2985 RMK / R22VRMNO SLP108 T01330128 50007,NA
LGA,1973-05-10T03:07:00Z,-73.8803,40.7794,NA,NA,NA,20,8,NA,29.85,NA,0.25,NA,NA,NA,NA,NA,NA,NA,NA,NA,NA,NA,NA,NA,NA,NA,NA,NA,KLGA 100307Z AUTO 02008KT 1/4SM OBS003 A2985 RMK IEM_DS3505,NA
LGA,1973-05-10T04:00:00Z,-73.8803,40.7794,55.94,54.86,96.15,60,5,NA,29.85,1010.8,0.19,NA,OVC,   ,   ,   ,300,NA,NA,NA,FG,NA,NA,NA,NA,NA,NA,55.94,METAR KLGA 100400Z 06005KT 3/16SM FG OVC003 13/13 A2985 RMK R22VRMNO SLP108 T01330127,NA
LGA,1973-05-10T05:00:00Z,-73.8803,40.7794,56.84,55.94,96.8,90,5,NA,29.86,1011.2,0.19,NA,OVC,   ,   ,   ,200,NA,NA,NA,FG,NA,NA,NA,NA,NA,NA,56.84,METAR KLGA 100500Z 09005KT 3/16SM FG OVC002 14/13 A2986 RMK SLP112 T01380133,NA
LGA,1973-05-10T05:10:00Z,-73.8803,40.7794,NA,NA,NA,100,5,NA,29.86,NA,0.38,NA,NA,NA,NA,NA,NA,NA,NA,NA,NA,NA,NA,NA,NA,NA,NA,NA,KLGA 100510Z AUTO 10005KT 3/8SM OBS002 A2986 RMK IEM_DS3505,NA
LGA,1973-05-10T06:00:00Z,-73.8803,40.7794,57.92,57.02,96.81,90,5,NA,29.86,1011.2,0.31,NA,OVC,   ,   ,   ,NA,NA,NA,NA,FG,NA,NA,NA,NA,NA,NA,57.92,METAR KLGA 100600Z 09005KT 5/16SM FG OVC/// 14/14 A//// RMK SLP112 T01440139,NA
LGA,1973-05-10T07:00:00Z,-73.8803,40.7794,57.92,56.84,96.18,80,6,NA,29.86,1011.2,0.5,NA,OVC,   ,   ,   ,300,NA,NA,NA,FG,NA,NA,NA,NA,NA,NA,57.92,METAR KLGA 100700Z 08006KT 1/2SM FG OVC003 14/14 A2986 RMK R22VR16V18 SLP112 T01440138,NA
LGA,1973-05-10T08:00:00Z,-73.8803,40.7794,57.92,56.84,96.18,70,4,NA,29.86,1011.2,0.5,NA,OVC,   ,   ,   ,500,NA,NA,NA,FG,NA,NA,NA,NA,NA,NA,57.92,METAR KLGA 100800Z 07004KT 1/2SM FG OVC005 14/14 A2986 RMK R22VR16 SLP112 T01440138,NA
LGA,1973-05-10T08:15:00Z,-73.8803,40.7794,NA,NA,NA,70,3,NA,29.87,NA,0.25,NA,NA,NA,NA,NA,NA,NA,NA,NA,NA,NA,NA,NA,NA,NA,NA,NA,KLGA 100815Z AUTO 07003KT 1/4SM OBS003 A2987 RMK IEM_DS3505,NA
LGA,1973-05-10T09:00:00Z,-73.8803,40.7794,57.92,57.02,96.81,0,0,NA,29.87,1011.5,0.25,NA,OVC,   ,   ,   ,500,NA,NA,NA,FG,NA,NA,NA,NA,NA,NA,57.92,METAR KLGA 100900Z 00000KT 1/4SM FG OVC005 14/14 A2987 RMK R22VR16 /302 Z SLP115 T01440139,NA
LGA,1973-05-10T10:00:00Z,-73.8803,40.7794,57.92,56.84,96.18,50,3,NA,29.89,1012.2,0.25,NA,OVC,   ,   ,   ,400,NA,NA,NA,FG,NA,NA,NA,NA,NA,NA,57.92,METAR KLGA 101000Z 05003KT 1/4SM FG OVC004 14/14 A2989 RMK R22VR14V16 SLP122 T01440138,NA
LGA,1973-05-10T11:00:00Z,-73.8803,40.7794,57.92,57.92,100,0,0,NA,29.9,1012.5,0.5,NA,OVC,   ,   ,   ,400,NA,NA,NA,FG,NA,NA,NA,NA,NA,NA,57.92,METAR KLGA 101100Z 00000KT 1/2SM FG OVC004 14/14 A2990 RMK R22VR10V14 VSBY N1/4 SLP125 T01440144,NA
LGA,1973-05-10T12:00:00Z,-73.8803,40.7794,59,57.92,96.2,170,6,NA,29.91,1012.9,0.5,NA,OVC,   ,   ,   ,NA,NA,NA,NA,FG,NA,NA,NA,NA,NA,NA,59,METAR KLGA 101200Z 17006KT 1/2SM FG OVC/// 15/14 A//// RMK SLP129 70028 T01500144,NA
LGA,1973-05-10T12:10:00Z,-73.8803,40.7794,NA,NA,NA,190,7,NA,29.91,NA,0.5,NA,OVC,NA,NA,NA,300,NA,NA,NA,NA,NA,NA,NA,NA,NA,NA,NA,KLGA 101210Z AUTO 19007KT 1/2SM OVC003 A2991 RMK IEM_DS3505,NA
LGA,1973-05-10T13:00:00Z,-73.8803,40.7794,59.9,57.92,93.16,190,6,NA,29.93,1013.5,0.5,NA,OVC,   ,   ,   ,400,NA,NA,NA,FG,NA,NA,NA,NA,NA,NA,59.9,METAR KLGA 101300Z 19006KT 1/2SM FG OVC004 16/14 A2993 RMK R22VR26V34 SFC VSBY SLP135 T01550144 550/8,NA
LGA,1973-05-10T13:07:00Z,-73.8803,40.7794,NA,NA,NA,200,5,NA,29.93,NA,0.5,NA,OVC,NA,NA,NA,500,NA,NA,NA,NA,NA,NA,NA,NA,NA,NA,NA,KLGA 101307Z AUTO 20005KT 1/2SM POB000 OVC005 A2993 RMK IEM_DS3505,NA
LGA,1973-05-10T14:00:00Z,-73.8803,40.7794,61.9,59,90.2,150,7.04,NA,29.92,NA,0.5,NA,   ,   ,   ,   ,NA,NA,NA,NA,NA,NA,NA,NA,NA,NA,NA,61.9,METAR KLGA 101400Z 15007KT 1/2SM FGDZ OVC/// BKN005 OVC015 17/15 A2992 RMK R22VR32V34 FH2 SLP132 T01660150,NA
LGA,1973-05-10T14:07:00Z,-73.8803,40.7794,NA,NA,NA,150,7,NA,29.92,NA,1,NA,SCT,OVC,NA,NA,500,900,NA,NA,NA,NA,NA,NA,NA,NA,NA,NA,KLGA 101407Z AUTO 15007KT 1SM SCT005 OVC009 A2992 RMK IEM_DS3505,NA
LGA,1973-05-10T15:00:00Z,-73.8803,40.7794,63,57.9,83.42,180,9.04,NA,29.92,NA,1,NA,   ,   ,   ,   ,NA,NA,NA,NA,NA,NA,NA,NA,NA,NA,NA,63,METAR KLGA 101500Z 17009KT 1SM FGDZ SCT005 OVC010 17/14 A2992 RMK R22VR36 SLP132 8/5// T01720144 50003,NA
LGA,1973-05-10T16:00:00Z,-73.8803,40.7794,62.96,55.94,77.83,140,10,NA,29.9,1012.5,1,NA,OVC,   ,   ,   ,NA,NA,NA,NA,DZ,NA,NA,NA,NA,NA,NA,62.96,METAR KLGA 101600Z 14010KT 1SM DZ OVC/// 17/13 A2990 RMK R22VR40V45/H2/VNA SLP125 T01720133,NA
LGA,1973-05-10T16:28:00Z,-73.8803,40.7794,NA,NA,NA,190,10,NA,29.9,NA,3,NA,NA,NA,NA,NA,NA,NA,NA,NA,NA,NA,NA,NA,NA,NA,NA,NA,KLGA 101628Z AUTO 19010KT 3SM POB000 A2990 RMK IEM_DS3505,NA
LGA,1973-05-10T17:00:00Z,-73.8803,40.7794,63.86,55.94,75.41,130,8,NA,29.9,1012.5,3,NA,OVC,   ,   ,   ,NA,NA,NA,NA,DZ,NA,NA,NA,NA,NA,NA,63.86,METAR KLGA 101700Z 13008KT 3SM DZ OVC/// 18/13 A2990 RMK H1/VA SLP125 T01770133,NA
LGA,1973-05-10T18:00:00Z,-73.8803,40.7794,66.02,57.02,72.72,180,10,NA,29.89,1012.2,3,NA,CLR,   ,   ,   ,NA,NA,NA,NA,DZ,NA,NA,NA,NA,NA,NA,66.02,METAR KLGA 101800Z 18010KT 3SM DZ CLR 19/14 A//// RMK SLP122 T01890139,NA
LGA,1973-05-10T19:00:00Z,-73.8803,40.7794,68,56.84,67.47,170,10,NA,29.86,1011.2,4,NA,CLR,   ,   ,   ,NA,NA,NA,NA,DZ,NA,NA,NA,NA,NA,NA,68,METAR KLGA 101900Z 17010KT 4SM DZ CLR 20/14 A2986 RMK VA SLP112 T02000138,NA
LGA,1973-05-10T20:00:00Z,-73.8803,40.7794,68,56.84,67.47,160,11,NA,29.84,1010.5,5,NA,CLR,   ,   ,   ,NA,NA,NA,NA,DZ,NA,NA,NA,NA,NA,NA,68,METAR KLGA 102000Z 16011KT 5SM DZ CLR 20/14 A2984 RMK VA SLP105 T02000138,NA
LGA,1973-05-10T21:00:00Z,-73.8803,40.7794,68,53.06,58.8,170,13,NA,29.82,1009.8,6,NA,CLR,   ,   ,   ,NA,NA,NA,NA,DZ,NA,NA,NA,NA,NA,NA,68,METAR KLGA 102100Z 17013KT 6SM DZ CLR 20/12 A2982 RMK / 4 VA UA 20SSW- ALB-5NW SWF LINE BLDUPS OF CU RW- FV3-7 SLP098 8/030 T02000117,NA
LGA,1973-05-10T22:00:00Z,-73.8803,40.7794,68,52.88,58.41,150,13,NA,29.81,1009.5,6,NA,BKN,   ,   ,   ,30000,NA,NA,NA,DZ,NA,NA,NA,NA,NA,NA,68,METAR KLGA 102200Z 15013KT 6SM DZ BKN300 20/12 A2981 RMK VA SLP095 T02000116,NA
LGA,1973-05-10T23:00:00Z,-73.8803,40.7794,65.84,52.88,62.94,180,13,NA,29.8,1009.1,7,NA,BKN,   ,   ,   ,30000,NA,NA,NA,NA,NA,NA,NA,NA,NA,NA,65.84,METAR KLGA 102300Z 18013KT 7SM BKN300 19/12 A2980 RMK VA SLP091 T01880116,NA
LGA,1973-05-11T00:00:00Z,-73.8803,40.7794,64.94,51.98,62.83,180,14,NA,29.79,1008.8,7,NA,SCT,BKN,   ,   ,NA,NA,NA,NA,NA,NA,NA,NA,NA,NA,NA,64.94,METAR KLGA 110000Z 18014KT 7SM SCT/// BKN/// 18/11 A//// RMK SLP088 T01830111,NA
LGA,1973-05-11T01:00:00Z,-73.8803,40.7794,61.88,52.88,72.31,190,8,NA,29.8,1009.1,7,NA,SCT,BKN,   ,   ,8000,25000,NA,NA,NA,NA,NA,NA,NA,NA,NA,61.88,METAR KLGA 110100Z 19008KT 7SM SCT080 BKN250 17/12 A2980 RMK VA SLP091 T01660116,NA
LGA,1973-05-11T02:00:00Z,-73.8803,40.7794,62.96,52.88,69.61,190,10,NA,29.8,1009.1,7,NA,BKN,   ,   ,   ,8000,NA,NA,NA,NA,NA,NA,NA,NA,NA,NA,62.96,METAR KLGA 110200Z 19010KT 7SM BKN080 17/12 A2980 RMK VA SLP091 T01720116,NA
LGA,1973-05-11T03:00:00Z,-73.8803,40.7794,64.04,53.06,67.46,160,6,NA,29.79,1008.8,7,NA,OVC,   ,   ,   ,8000,NA,NA,NA,NA,NA,NA,NA,NA,NA,NA,64.04,METAR KLGA 110300Z 16006KT 7SM OVC080 18/12 A2979 RMK / VA SLP088 8/07/ T01780117 50000,NA
LGA,1973-05-11T04:00:00Z,-73.8803,40.7794,61.88,54.86,77.74,50,6,NA,29.83,1010.2,7,NA,BKN,OVC,   ,   ,4600,10000,NA,NA,-RA,NA,NA,NA,NA,NA,NA,61.88,METAR KLGA 110400Z 05006KT 7SM -RA BKN046 OVC100 17/13 A2983 RMK RB15LGA 5/14 13-31 CLSD SLP102 T01660127,NA
LGA,1973-05-11T05:00:00Z,-73.8803,40.7794,59.9,55.94,86.73,60,10,0.01,29.78,1008.5,5,NA,SCT,BKN,OVC,   ,4500,6000,7000,NA,-SHRA MIBCFG,NA,NA,NA,NA,NA,NA,59.9,METAR KLGA 110500Z 06010KT 5SM -SHRA MIBCFG SCT045 BKN060 OVC070 16/13 A2978 RMK LGA5/14 SLP085 P0001 T01550133,NA
LGA,1973-05-11T06:00:00Z,-73.8803,40.7794,60.08,55.04,83.41,120,12,NA,29.76,1007.8,7,NA,BKN,OVC,   ,   ,NA,NA,NA,NA,NA,NA,NA,NA,NA,NA,NA,60.08,METAR KLGA 110600Z 12012KT 7SM BKN/// OVC/// 16/13 A//// RMK SLP078 T01560128,NA
LGA,1973-05-11T07:00:00Z,-73.8803,40.7794,56.84,52.88,86.57,40,10,NA,29.75,1007.5,3,NA,SCT,SCT,OVC,   ,1100,2300,7000,NA,FG,NA,NA,NA,NA,NA,NA,56.84,METAR KLGA 110700Z 04010KT 3SM FG SCT011 SCT023 OVC070 14/12 A2975 RMK LGA5/14 SLP075 T01380116,NA
LGA,1973-05-11T07:30:00Z,-73.8803,40.7794,NA,NA,NA,50,12,NA,29.74,NA,2.5,NA,SCT,BKN,OVC,NA,400,1400,5900,NA,NA,NA,NA,NA,NA,NA,NA,NA,KLGA 110730Z AUTO 05012KT 2 1/2SM SCT004 BKN014 OVC059 A2974 RMK IEM_DS3505,NA
LGA,1973-05-11T08:00:00Z,-73.8803,40.7794,NA,NA,NA,50,8,NA,29.75,NA,6,NA,   ,   ,   ,   ,NA,NA,NA,NA,NA,NA,NA,NA,NA,NA,NA,NA,METAR KLGA 110800Z 05008KT 6SM SCT004 M/M A2975 RMK SLPNO T////////,NA
LGA,1973-05-11T08:05:00Z,-73.8803,40.7794,NA,NA,NA,50,9,NA,29.74,NA,2.5,NA,SCT,BKN,OVC,NA,400,1300,5900,NA,NA,NA,NA,NA,NA,NA,NA,NA,KLGA 110805Z AUTO 05009KT 2 1/2SM SCT004 BKN013 OVC059 A2974 RMK IEM_DS3505,NA
LGA,1973-05-11T08:28:00Z,-73.8803,40.7794,NA,NA,NA,70,8,NA,29.71,NA,2.5,NA,SCT,SCT,OVC,NA,400,1300,4900,NA,NA,NA,NA,NA,NA,NA,NA,NA,KLGA 110828Z AUTO 07008KT 2 1/2SM SCT004 SCT013 OVC049 A2971 RMK IEM_DS3505,NA
LGA,1973-05-11T09:00:00Z,-73.8803,40.7794,55.04,53.06,93.02,50,8,NA,29.71,1006.1,2.5,NA,SCT,BKN,   ,   ,1300,7000,NA,NA,FG,NA,NA,NA,NA,NA,NA,55.04,METAR KLGA 110900Z 05008KT 21/2SM FG SCT013 BKN070 13/12 A2971 RMK TB03 E26 MOVD NE RB01 E18 PK WND 08/ 81700 1770 SLP061 T01280117 5005/,NA
LGA,1973-05-11T10:00:00Z,-73.8803,40.7794,54.86,52.88,93.01,70,5,NA,29.7,1005.8,2,NA,OVC,SCT,SCT,BKN,NA,7000,12000,18000,MIBCFG,NA,NA,NA,NA,NA,NA,54.86,METAR KLGA 111000Z 07005KT 2SM MIBCFG OVC/// SCT070 SCT120 BKN180 13/12 A2970 RMK F2LGA5/14 SLP058 T01270116,NA
LGA,1973-05-11T10:15:00Z,-73.8803,40.7794,NA,NA,NA,130,9,NA,29.69,NA,3,NA,SCT,BKN,OVC,NA,5900,11800,17700,NA,NA,NA,NA,NA,NA,NA,NA,NA,KLGA 111015Z AUTO 13009KT 3SM POB000 SCT059 BKN118 OVC177 A2969 RMK IEM_DS3505,NA
LGA,1973-05-11T11:00:00Z,-73.8803,40.7794,57.92,53.96,86.63,110,5,NA,29.68,1005.1,3,NA,BKN,OVC,   ,   ,6000,10000,NA,NA,MIBCFG,NA,NA,NA,NA,NA,NA,57.92,METAR KLGA 111100Z 11005KT 3SM MIBCFG BKN060 OVC100 14/12 A2968 RMK VALGA C5/14 SLP051 T01440122,NA
LGA,1973-05-11T12:00:00Z,-73.8803,40.7794,57.02,53.96,89.48,40,5,NA,29.67,1004.7,2.5,NA,BKN,OVC,   ,   ,NA,NA,NA,NA,FG,NA,NA,NA,NA,NA,NA,57.02,METAR KLGA 111200Z 04005KT 21/2SM FG BKN/// OVC/// 14/12 A//// RMK SLP047 T01390122,NA
LGA,1973-05-11T13:00:00Z,-73.8803,40.7794,55.94,53.96,93.05,50,8,0.03,29.67,1004.7,2,NA,BKN,OVC,   ,   ,6000,10000,NA,NA,MIBCFG,NA,NA,NA,NA,NA,NA,55.94,METAR KLGA 111300Z 05008KT 2SM MIBCFG BKN060 OVC100 13/12 A2967 RMK SLP047 P0003 T01330122,NA
LGA,1973-05-11T13:01:00Z,-73.8803,40.7794,NA,NA,NA,40,9,NA,29.69,NA,2,NA,SCT,BKN,OVC,NA,3400,5900,9800,NA,NA,NA,NA,NA,NA,NA,NA,NA,KLGA 111301Z AUTO 04009KT 2SM SCT034 BKN059 OVC098 A2969 RMK IEM_DS3505,NA
LGA,1973-05-11T13:13:00Z,-73.8803,40.7794,NA,NA,NA,70,7,NA,29.67,NA,2,NA,SCT,SCT,BKN,OVC,900,3400,5900,9800,NA,NA,NA,NA,NA,NA,NA,NA,KLGA 111313Z AUTO 07007KT 2SM SCT009 SCT034 BKN059 OVC098 A2967 RMK IEM_DS3505,NA
LGA,1973-05-11T15:00:00Z,-73.8803,40.7794,57.9,55,90.04,70,7.04,NA,29.67,NA,10.5,NA,   ,   ,   ,   ,NA,NA,NA,NA,NA,NA,NA,NA,NA,NA,NA,57.9,METAR KLGA 111500Z 07007KT 21/2SM FGDZ SCT035 OVC060 14/13 A2967 RMK / SFC VSBY 21/2 BINOVC RE05/ 0004 SLP047 8/5// T01440128,NA
LGA,1973-05-11T16:00:00Z,-73.8803,40.7794,61.9,56.8,83.35,70,8,NA,29.66,NA,10.5,NA,   ,   ,   ,   ,NA,NA,NA,NA,NA,NA,NA,NA,NA,NA,NA,61.9,METAR KLGA 111600Z 06008KT 21/2SM MIBCFGDZ SCT035 BKN080 17/14 A2966 RMK SLP044 T01660138,NA
LGA,1973-05-11T16:27:00Z,-73.8803,40.7794,NA,NA,NA,340,5,NA,29.65,NA,3,NA,SCT,SCT,BKN,NA,3400,7900,19700,NA,NA,NA,NA,NA,NA,NA,NA,NA,KLGA 111627Z AUTO 34005KT 3SM SCT034 SCT079 BKN197 A2965 RMK IEM_DS3505,NA
LGA,1973-05-11T17:00:00Z,-73.8803,40.7794,68.9,55.94,63.32,260,10,NA,29.64,1003.7,3,NA,SCT,SCT,   ,   ,3500,20000,NA,NA,DZ,NA,NA,NA,NA,NA,NA,68.9,METAR KLGA 111700Z 26010KT 3SM DZ SCT035 SCT200 20/13 A2964 RMK / CB NW SLP037 T02050133,NA
LGA,1973-05-11T18:00:00Z,-73.8803,40.7794,68,55.04,63.21,300,7,NA,29.62,1003.1,7,NA,SCT,BKN,   ,   ,NA,NA,NA,NA,NA,NA,NA,NA,NA,NA,NA,68,METAR KLGA 111800Z 30007KT 7SM SCT/// BKN/// 20/13 A//// RMK SLP031 60004 T02000128,NA
LGA,1973-05-11T19:00:00Z,-73.8803,40.7794,71.96,44.96,37.95,240,20,NA,29.62,1003.1,15,NA,SCT,SCT,   ,   ,3500,6000,NA,NA,NA,NA,NA,NA,NA,NA,NA,70.64,METAR KLGA 111900Z 24020KT 15SM SCT035 SCT060 22/07 A2962 RMK CB NE-E-S VA SLP031 T02220072,NA
LGA,1973-05-11T20:00:00Z,-73.8803,40.7794,73.94,43.88,34.07,270,18,NA,29.63,1002.7,15,26,SCT,BKN,   ,   ,3500,6000,NA,NA,NA,NA,NA,NA,NA,NA,NA,72.64,METAR KLGA 112000Z 27018G26KT 15SM SCT035 BKN060 23/07 A2963 RMK VA SLP027 T02330066,NA
LGA,1973-05-11T21:00:00Z,-73.8803,40.7794,73.04,42.08,32.77,270,18,NA,29.63,1003.4,15,25,SCT,BKN,   ,   ,3500,6000,NA,NA,NA,NA,NA,NA,NA,NA,NA,71.58,METAR KLGA 112100Z 27018G25KT 15SM SCT035 BKN060 23/06 A2963 RMK DARK NW VA SLP034 8/200 T02280056 53003,NA
LGA,1973-05-11T22:00:00Z,-73.8803,40.7794,69.98,41,34.87,260,19,NA,29.65,1004.1,15,31,BKN,BKN,   ,   ,3500,7000,NA,NA,-RA,NA,NA,NA,NA,NA,NA,69.98,METAR KLGA 112200Z 26019G31KT 15SM -RA BKN035 BKN070 21/05 A2965 RMK RB48 VA SLP041 T02110050,NA
LGA,1973-05-11T23:00:00Z,-73.8803,40.7794,69.98,41,34.87,270,19,NA,29.67,1004.7,15,NA,BKN,   ,   ,   ,4000,NA,NA,NA,NA,NA,NA,NA,NA,NA,NA,69.98,METAR KLGA 112300Z 27019KT 15SM BKN040 21/05 A2967 RMK RE2153 VA SLP047 T02110050,NA
LGA,1973-05-12T00:00:00Z,-73.8803,40.7794,64.94,46.04,50.32,300,11,NA,29.71,1006.1,15,NA,SCT,BKN,   ,   ,NA,NA,NA,NA,NA,NA,NA,NA,NA,NA,NA,64.94,METAR KLGA 120000Z 30011KT 15SM SCT/// BKN/// 18/08 A//// RMK SLP061 T01830078,NA
LGA,1973-05-12T01:00:00Z,-73.8803,40.7794,63.86,43.88,48.14,290,10,NA,29.73,1006.8,15,NA,SCT,SCT,   ,   ,4000,7000,NA,NA,NA,NA,NA,NA,NA,NA,NA,63.86,METAR KLGA 120100Z 29010KT 15SM SCT040 SCT070 18/07 A2973 RMK VA SLP068 T01770066,NA
LGA,1973-05-12T02:00:00Z,-73.8803,40.7794,62.96,43.88,49.68,300,10,NA,29.76,1007.8,15,NA,SCT,   ,   ,   ,4000,NA,NA,NA,NA,NA,NA,NA,NA,NA,NA,62.96,METAR KLGA 120200Z 30010KT 15SM SCT040 17/07 A2976 RMK VA SLP078 T01720066,NA
LGA,1973-05-12T03:00:00Z,-73.8803,40.7794,60.98,41,47.7,300,15,NA,29.79,1008.8,15,NA,CLR,   ,   ,   ,NA,NA,NA,NA,NA,NA,NA,NA,NA,NA,NA,60.98,METAR KLGA 120300Z 30015KT 15SM CLR 16/05 A2979 RMK / VA SLP088 T01610050 52027,NA
LGA,1973-05-12T04:00:00Z,-73.8803,40.7794,59.9,41,49.56,280,12,NA,29.81,1009.5,15,NA,CLR,   ,   ,   ,NA,NA,NA,NA,NA,NA,NA,NA,NA,NA,NA,59.9,METAR KLGA 120400Z 28012KT 15SM CLR 16/05 A2981 RMK LGA5/15 VA SLP095 T01550050,NA
LGA,1973-05-12T05:00:00Z,-73.8803,40.7794,57.92,39.92,51.02,290,12,NA,29.82,1009.8,15,NA,CLR,   ,   ,   ,NA,NA,NA,NA,NA,NA,NA,NA,NA,NA,NA,57.92,METAR KLGA 120500Z 29012KT 15SM CLR 14/04 A2982 RMK VALGA5/15 SLP098 T01440044,NA
LGA,1973-05-12T06:00:00Z,-73.8803,40.7794,57.02,39.92,52.7,280,10,NA,29.83,1010.2,15,NA,CLR,   ,   ,   ,NA,NA,NA,NA,NA,NA,NA,NA,NA,NA,NA,57.02,METAR KLGA 120600Z 28010KT 15SM CLR 14/04 A//// RMK SLP102 T01390044,NA
LGA,1973-05-12T07:00:00Z,-73.8803,40.7794,55.94,39.92,54.8,280,9,NA,29.82,1009.8,15,NA,CLR,   ,   ,   ,NA,NA,NA,NA,NA,NA,NA,NA,NA,NA,NA,55.94,METAR KLGA 120700Z 28009KT 15SM CLR 13/04 A2982 RMK VALGA5/15 SLP098 T01330044,NA
LGA,1973-05-12T08:00:00Z,-73.8803,40.7794,54.86,39.92,56.99,270,5,NA,29.82,1009.8,15,NA,SCT,   ,   ,   ,20000,NA,NA,NA,NA,NA,NA,NA,NA,NA,NA,54.86,METAR KLGA 120800Z 27005KT 15SM SCT200 13/04 A2982 RMK VALGA5/15 SLP098 T01270044,NA
LGA,1973-05-12T09:00:00Z,-73.8803,40.7794,55.04,41,59.04,340,4,NA,29.79,1008.8,15,NA,SCT,SCT,   ,   ,5000,20000,NA,NA,NA,NA,NA,NA,NA,NA,NA,55.04,METAR KLGA 120900Z 34004KT 15SM SCT050 SCT200 13/05 A2979 RMK 1501/LGA5/15 SLP088 T01280050 58014,NA
LGA,1973-05-12T10:00:00Z,-73.8803,40.7794,54.86,38.84,54.64,0,0,NA,29.78,1008.5,10,NA,SCT,SCT,SCT,   ,5000,7000,25000,NA,NA,NA,NA,NA,NA,NA,NA,54.86,METAR KLGA 121000Z 00000KT 10SM SCT050 SCT070 SCT250 13/04 A2978 RMK VALGA5/15 SLP085 T01270038,NA
LGA,1973-05-12T11:00:00Z,-73.8803,40.7794,56.84,41.9,57.27,0,0,NA,29.78,1008.5,10,NA,BKN,BKN,BKN,   ,5000,7000,25000,NA,NA,NA,NA,NA,NA,NA,NA,56.84,METAR KLGA 121100Z 00000KT 10SM BKN050 BKN070 BKN250 14/06 A2978 RMK LGA C5/15 SLP085 T01380055,NA
LGA,1973-05-12T12:00:00Z,-73.8803,40.7794,57.02,42.98,59.31,330,6,NA,29.81,1009.5,9,NA,SCT,BKN,BKN,   ,NA,NA,NA,NA,NA,NA,NA,NA,NA,NA,NA,57.02,METAR KLGA 121200Z 33006KT 9SM SCT/// BKN/// BKN/// 14/06 A//// RMK SLP095 70004 T01390061,NA
LGA,1973-05-12T13:00:00Z,-73.8803,40.7794,59,41.9,52.99,210,4,NA,29.82,1009.8,8,NA,BKN,BKN,   ,   ,6000,25000,NA,NA,NA,NA,NA,NA,NA,NA,NA,59,METAR KLGA 121300Z 21004KT 8SM BKN060 BKN250 15/06 A2982 RMK VA SLP098 T01500055,NA
LGA,1973-05-12T14:00:00Z,-73.8803,40.7794,61.88,43.88,51.61,190,9,NA,29.82,1009.8,8,NA,SCT,BKN,BKN,   ,4500,6000,25000,NA,NA,NA,NA,NA,NA,NA,NA,61.88,METAR KLGA 121400Z 19009KT 8SM SCT045 BKN060 BKN250 17/07 A2982 RMK VA SLP098 T01660066,NA
LGA,1973-05-12T15:00:00Z,-73.8803,40.7794,64.94,44.06,46.67,200,11,NA,29.81,1009.5,10,NA,SCT,BKN,   ,   ,8000,25000,NA,NA,NA,NA,NA,NA,NA,NA,NA,64.94,METAR KLGA 121500Z 20011KT 10SM SCT080 BKN250 18/07 A2981 RMK VA SLP095 8/036 T01830067 50000,NA
LGA,1973-05-12T16:00:00Z,-73.8803,40.7794,66.92,44.96,45.09,220,15,NA,29.8,1009.1,10,NA,SCT,SCT,   ,   ,4500,8000,NA,NA,NA,NA,NA,NA,NA,NA,NA,66.92,METAR KLGA 121600Z 22015KT 10SM SCT045 SCT080 19/07 A2980 RMK UA RW FM SAX-LHY VA SLP091 T01940072,NA
LGA,1973-05-12T17:00:00Z,-73.8803,40.7794,68.9,46.94,45.4,170,16,NA,29.77,1008.1,10,NA,SCT,   ,   ,   ,5000,NA,NA,NA,NA,NA,NA,NA,NA,NA,NA,68.9,METAR KLGA 121700Z 17016KT 10SM SCT050 20/08 A2977 RMK LN DSNT BLDUPS N-SW VA SLP081 T02050083,NA
LGA,1973-05-12T18:00:00Z,-73.8803,40.7794,69.08,46.04,43.61,170,16,NA,29.74,1007.1,10,NA,SCT,BKN,   ,   ,NA,NA,NA,NA,NA,NA,NA,NA,NA,NA,NA,69.08,METAR KLGA 121800Z 17016KT 10SM SCT/// BKN/// 21/08 A//// RMK SLP071 T02060078,NA
LGA,1973-05-12T18:12:00Z,-73.8803,40.7794,NA,NA,NA,160,17,NA,29.74,NA,12,22,SCT,BKN,BKN,NA,3000,5900,7900,NA,NA,NA,NA,NA,NA,NA,NA,NA,KLGA 121812Z AUTO 16017G22KT 12SM SCT030 BKN059 BKN079 A2974 RMK IEM_DS3505,NA
LGA,1973-05-12T19:00:00Z,-73.8803,40.7794,59,51.98,77.49,310,15,0.06,29.8,1009.1,10,NA,SCT,BKN,BKN,   ,2500,5000,8000,NA,NA,NA,NA,NA,NA,NA,NA,59,METAR KLGA 121900Z 31015KT 10SM SCT025 BKN050 BKN080 15/11 A2980 RMK TB10E45 LN MOVD E PK WND 20 RB14E47LGA 5/16 LOM 22 OTS SLP091 P0006 79/34 T01500111 5209/,NA
LGA,1973-05-12T19:25:00Z,-73.8803,40.7794,NA,NA,NA,330,12,NA,29.8,NA,15,NA,BKN,BKN,OVC,NA,2300,4400,7900,NA,NA,NA,NA,NA,NA,NA,NA,NA,KLGA 121925Z AUTO 33012KT 15SM BKN023 BKN044 OVC079 A2980 RMK IEM_DS3505,NA
LGA,1973-05-12T20:00:00Z,-73.8803,40.7794,59,47.84,66.43,300,11,NA,29.81,1009.5,15,NA,BKN,OVC,   ,   ,2300,4500,NA,NA,-SHRA,NA,NA,NA,NA,NA,NA,59,METAR KLGA 122000Z 30011KT 15SM -SHRA BKN023 OVC045 15/09 A2981 RMK RB44 DARK E SLP095 T01500088,NA
LGA,1973-05-12T21:00:00Z,-73.8803,40.7794,62.06,46.04,55.68,340,6,NA,29.77,1008.1,15,NA,BKN,BKN,   ,   ,6000,10000,NA,NA,NA,NA,NA,NA,NA,NA,NA,62.06,METAR KLGA 122100Z 34006KT 15SM BKN060 BKN100 17/08 A2977 RMK RE15 SLP081 8/250 T01670078 50010,NA
LGA,1973-05-12T22:00:00Z,-73.8803,40.7794,62.96,44.96,51.77,260,8,NA,29.78,1008.5,15,NA,SCT,SCT,BKN,   ,3500,6000,10000,NA,NA,NA,NA,NA,NA,NA,NA,62.96,METAR KLGA 122200Z 26008KT 15SM SCT035 SCT060 BKN100 17/07 A2978 RMK VA SLP085 T01720072,NA
LGA,1973-05-12T23:00:00Z,-73.8803,40.7794,62.96,39.92,42.65,260,10,NA,29.79,1008.8,15,NA,SCT,BKN,   ,   ,4000,10000,NA,NA,NA,NA,NA,NA,NA,NA,NA,62.96,METAR KLGA 122300Z 26010KT 15SM SCT040 BKN100 17/04 A2979 RMK SLP088 T01720044,NA
LGA,1973-05-13T00:00:00Z,-73.8803,40.7794,62.06,42.98,49.55,300,14,NA,29.83,1010.2,10,NA,BKN,BKN,   ,   ,NA,NA,NA,NA,-SHRA,NA,NA,NA,NA,NA,NA,62.06,METAR KLGA 130000Z 30014KT 10SM -SHRA BKN/// BKN/// 17/06 A//// RMK SLP102 60004 T01670061,NA
LGA,1973-05-13T01:00:00Z,-73.8803,40.7794,57.92,46.94,66.75,270,10,NA,29.84,1010.5,10,NA,SCT,BKN,   ,   ,4000,10000,NA,NA,NA,NA,NA,NA,NA,NA,NA,57.92,METAR KLGA 130100Z 27010KT 10SM SCT040 BKN100 14/08 A2984 RMK VA SLP105 T01440083,NA
LGA,1973-05-13T02:00:00Z,-73.8803,40.7794,57.92,41.9,55.08,260,8,NA,29.87,1011.5,15,NA,SCT,SCT,   ,   ,4500,10000,NA,NA,NA,NA,NA,NA,NA,NA,NA,57.92,METAR KLGA 130200Z 26008KT 15SM SCT045 SCT100 14/06 A2987 RMK VA SLP115 T01440055,NA
LGA,1973-05-13T03:00:00Z,-73.8803,40.7794,57.02,42.98,59.31,260,6,NA,29.88,1011.9,15,NA,CLR,   ,   ,   ,NA,NA,NA,NA,NA,NA,NA,NA,NA,NA,NA,57.02,METAR KLGA 130300Z 26006KT 15SM CLR 14/06 A2988 RMK / SLP119 T01390061 52017,NA
LGA,1973-05-13T04:00:00Z,-73.8803,40.7794,56.84,43.88,61.79,250,12,NA,29.88,1011.9,15,NA,CLR,   ,   ,   ,NA,NA,NA,NA,NA,NA,NA,NA,NA,NA,NA,56.84,METAR KLGA 130400Z 25012KT 15SM CLR 14/07 A2988 RMK VA SLP119 T01380066,NA
LGA,1973-05-13T05:00:00Z,-73.8803,40.7794,55.94,43.88,63.84,250,9,NA,29.88,1011.9,15,NA,CLR,   ,   ,   ,NA,NA,NA,NA,NA,NA,NA,NA,NA,NA,NA,55.94,METAR KLGA 130500Z 25009KT 15SM CLR 13/07 A2988 RMK WND 230V270/VA SLP119 T01330066,NA
LGA,1973-05-13T06:00:00Z,-73.8803,40.7794,55.04,44.06,66.41,220,7,NA,29.88,1011.9,15,NA,CLR,   ,   ,   ,NA,NA,NA,NA,NA,NA,NA,NA,NA,NA,NA,55.04,METAR KLGA 130600Z 22007KT 15SM CLR 13/07 A//// RMK SLP119 T01280067,NA
LGA,1973-05-13T07:00:00Z,-73.8803,40.7794,53.96,43.88,68.61,250,8,NA,29.88,1011.9,15,NA,CLR,   ,   ,   ,NA,NA,NA,NA,NA,NA,NA,NA,NA,NA,NA,53.96,METAR KLGA 130700Z 25008KT 15SM CLR 12/07 A2988 RMK VA SLP119 T01220066,NA
LGA,1973-05-13T08:00:00Z,-73.8803,40.7794,52.88,43.88,71.38,280,7,NA,29.88,1011.9,15,NA,CLR,   ,   ,   ,NA,NA,NA,NA,NA,NA,NA,NA,NA,NA,NA,52.88,METAR KLGA 130800Z 28007KT 15SM CLR 12/07 A2988 RMK SLP119 T01160066,NA
LGA,1973-05-13T09:00:00Z,-73.8803,40.7794,53.06,42.98,68.5,260,11,NA,29.9,1012.5,15,NA,CLR,   ,   ,   ,NA,NA,NA,NA,NA,NA,NA,NA,NA,NA,NA,53.06,METAR KLGA 130900Z 26011KT 15SM CLR 12/06 A2990 RMK WND 240V280/ VA SLP125 T01170061 53007,NA
LGA,1973-05-13T10:00:00Z,-73.8803,40.7794,51.98,42.98,71.28,260,13,NA,29.93,1013.5,15,NA,SCT,   ,   ,   ,8000,NA,NA,NA,NA,NA,NA,NA,NA,NA,NA,51.98,METAR KLGA 131000Z 26013KT 15SM SCT080 11/06 A2993 RMK VA SLP135 T01110061,NA
LGA,1973-05-13T11:00:00Z,-73.8803,40.7794,52.88,42.98,68.96,250,8,NA,29.95,1014.2,15,NA,CLR,   ,   ,   ,NA,NA,NA,NA,NA,NA,NA,NA,NA,NA,NA,52.88,METAR KLGA 131100Z 25008KT 15SM CLR 12/06 A2995 RMK VA SLP142 T01160061,NA
LGA,1973-05-13T12:00:00Z,-73.8803,40.7794,53.96,44.06,69.08,270,8,NA,29.97,1014.9,15,NA,CLR,   ,   ,   ,NA,NA,NA,NA,NA,NA,NA,NA,NA,NA,NA,53.96,METAR KLGA 131200Z 27008KT 15SM CLR/// 12/07 A//// RMK SLP149 70004 T01220067,NA
LGA,1973-05-13T13:00:00Z,-73.8803,40.7794,56.84,44.96,64.39,270,11,NA,29.99,1015.6,15,NA,CLR,   ,   ,   ,NA,NA,NA,NA,NA,NA,NA,NA,NA,NA,NA,56.84,METAR KLGA 131300Z 27011KT 15SM CLR 14/07 A2999 RMK VA SLP156 T01380072,NA
LGA,1973-05-13T14:00:00Z,-73.8803,40.7794,59,44.96,59.58,280,10,NA,29.99,1015.6,15,NA,SCT,   ,   ,   ,3500,NA,NA,NA,NA,NA,NA,NA,NA,NA,NA,59,METAR KLGA 131400Z 28010KT 15SM SCT035 15/07 A2999 RMK VA SLP156 T01500072,NA
LGA,1973-05-13T15:00:00Z,-73.8803,40.7794,62.06,44.06,51.64,280,8,NA,30,1015.9,15,NA,BKN,   ,   ,   ,3800,NA,NA,NA,NA,NA,NA,NA,NA,NA,NA,62.06,METAR KLGA 131500Z 28008KT 15SM BKN038 17/07 A3000 RMK / VA SLP159 8/200 T01670067 52010,NA
LGA,1973-05-13T16:00:00Z,-73.8803,40.7794,62.96,42.98,48,280,13,NA,30.01,1016.3,15,NA,BKN,   ,   ,   ,4400,NA,NA,NA,NA,NA,NA,NA,NA,NA,NA,62.96,METAR KLGA 131600Z 28013KT 15SM BKN044 17/06 A3001 RMK SLP163 T01720061,NA
LGA,1973-05-13T17:00:00Z,-73.8803,40.7794,64.94,41,41.49,250,9,NA,30.01,1016.3,15,NA,BKN,   ,   ,   ,3900,NA,NA,NA,NA,NA,NA,NA,NA,NA,NA,64.94,METAR KLGA 131700Z 25009KT 15SM BKN039 18/05 A3001 RMK VA SLP163 T01830050,NA
LGA,1973-05-13T18:00:00Z,-73.8803,40.7794,66.02,42.08,41.67,280,14,NA,30.01,1016.3,15,NA,BKN,   ,   ,   ,NA,NA,NA,NA,NA,NA,NA,NA,NA,NA,NA,66.02,METAR KLGA 131800Z 28014KT 15SM BKN/// 19/06 A//// RMK SLP163 T01890056,NA
LGA,1973-05-13T19:00:00Z,-73.8803,40.7794,63.86,41,43.09,270,11,NA,30.01,1016.3,15,NA,BKN,   ,   ,   ,3900,NA,NA,NA,NA,NA,NA,NA,NA,NA,NA,63.86,METAR KLGA 131900Z 27011KT 15SM BKN039 18/05 A3001 RMK SLP163 T01770050,NA
LGA,1973-05-13T20:00:00Z,-73.8803,40.7794,63.86,39.92,41.32,270,13,NA,30.02,1016.6,15,NA,SCT,OVC,   ,   ,4000,7000,NA,NA,NA,NA,NA,NA,NA,NA,NA,63.86,METAR KLGA 132000Z 27013KT 15SM SCT040 OVC070 18/04 A3002 RMK VA SLP166 T01770044,NA
LGA,1973-05-13T21:00:00Z,-73.8803,40.7794,64.04,41,42.82,270,12,NA,30.03,1016.9,15,NA,SCT,BKN,   ,   ,NA,NA,NA,NA,NA,NA,NA,NA,NA,NA,NA,64.04,METAR KLGA 132100Z 27012KT 15SM SCT/// BKN/// 18/05 A//// RMK SLP169 T01780050,NA
LGA,1973-05-13T22:00:00Z,-73.8803,40.7794,63.86,41.9,44.62,290,11,NA,30.04,1017.3,15,NA,SCT,BKN,   ,   ,3500,7000,NA,NA,NA,NA,NA,NA,NA,NA,NA,63.86,METAR KLGA 132200Z 29011KT 15SM SCT035 BKN070 18/06 A3004 RMK VA SLP173 T01770055,NA
LGA,1973-05-13T23:00:00Z,-73.8803,40.7794,62.96,41,44.47,290,12,NA,30.07,1018.3,15,NA,SCT,SCT,   ,   ,3500,7000,NA,NA,NA,NA,NA,NA,NA,NA,NA,62.96,METAR KLGA 132300Z 29012KT 15SM SCT035 SCT070 17/05 A3007 RMK VALGA C5/17 SLP183 T01720050,NA
LGA,1973-05-14T00:00:00Z,-73.8803,40.7794,60.98,39.02,44.16,270,12,NA,30.09,1019,15,NA,SCT,   ,   ,   ,NA,NA,NA,NA,NA,NA,NA,NA,NA,NA,NA,60.98,METAR KLGA 140000Z 27012KT 15SM SCT/// 16/04 A//// RMK SLP190 T01610039,NA
LGA,1973-05-14T01:00:00Z,-73.8803,40.7794,59.9,39.92,47.53,290,12,NA,30.11,1019.6,15,NA,SCT,   ,   ,   ,7000,NA,NA,NA,NA,NA,NA,NA,NA,NA,NA,59.9,METAR KLGA 140100Z 29012KT 15SM SCT070 16/04 A3011 RMK VA SLP196 T01550044,NA
LGA,1973-05-14T02:00:00Z,-73.8803,40.7794,59,41,51.18,280,10,NA,30.14,1020.7,15,NA,SCT,   ,   ,   ,7000,NA,NA,NA,NA,NA,NA,NA,NA,NA,NA,59,METAR KLGA 140200Z 28010KT 15SM SCT070 15/05 A3014 RMK VA SLP207 T01500050,NA
LGA,1973-05-14T03:00:00Z,-73.8803,40.7794,57.92,41,53.2,270,14,NA,30.15,1021,15,NA,CLR,   ,   ,   ,NA,NA,NA,NA,NA,NA,NA,NA,NA,NA,NA,57.92,METAR KLGA 140300Z 27014KT 15SM CLR 14/05 A3015 RMK / VA SLP210 T01440050 52020,NA
LGA,1973-05-14T04:00:00Z,-73.8803,40.7794,56.84,39.92,53.04,270,11,NA,30.16,1021.3,15,NA,CLR,   ,   ,   ,NA,NA,NA,NA,NA,NA,NA,NA,NA,NA,NA,56.84,METAR KLGA 140400Z 27011KT 15SM CLR 14/04 A3016 RMK SLP213 T01380044,NA
LGA,1973-05-14T05:00:00Z,-73.8803,40.7794,55.94,41,57.14,280,8,NA,30.16,1021.3,15,NA,CLR,   ,   ,   ,NA,NA,NA,NA,NA,NA,NA,NA,NA,NA,NA,55.94,METAR KLGA 140500Z 28008KT 15SM CLR 13/05 A3016 RMK / WND 260V300LGA5/18 SLP213 T01330050,NA
LGA,1973-05-14T06:00:00Z,-73.8803,40.7794,53.96,41,61.41,270,7,NA,30.16,1021.3,15,NA,CLR,   ,   ,   ,NA,NA,NA,NA,NA,NA,NA,NA,NA,NA,NA,53.96,METAR KLGA 140600Z 27007KT 15SM CLR 12/05 A//// RMK SLP213 T01220050,NA
LGA,1973-05-14T07:00:00Z,-73.8803,40.7794,53.96,41,61.41,260,8,NA,30.17,1021.7,10,NA,BKN,   ,   ,   ,11000,NA,NA,NA,NA,NA,NA,NA,NA,NA,NA,53.96,METAR KLGA 140700Z 26008KT 10SM BKN110 12/05 A3017 RMK LGA5/18 SLP217 T01220050,NA
LGA,1973-05-14T08:00:00Z,-73.8803,40.7794,52.88,41.9,66.15,260,4,NA,30.18,1022,10,NA,BKN,   ,   ,   ,10000,NA,NA,NA,NA,NA,NA,NA,NA,NA,NA,52.88,METAR KLGA 140800Z 26004KT 10SM BKN100 12/06 A3018 RMK LGA5/18 SLP220 T01160055,NA
LGA,1973-05-14T09:00:00Z,-73.8803,40.7794,53.06,42.08,66.17,280,7,NA,30.2,1022.7,10,NA,BKN,   ,   ,   ,11000,NA,NA,NA,NA,NA,NA,NA,NA,NA,NA,53.06,METAR KLGA 140900Z 28007KT 10SM BKN110 12/06 A3020 RMK / VALGA5/18 SLP227 8/030 T01170056 53012,NA
LGA,1973-05-14T10:00:00Z,-73.8803,40.7794,51.98,41.9,68.38,270,7,NA,30.22,1023.4,10,NA,SCT,BKN,   ,   ,9000,11000,NA,NA,NA,NA,NA,NA,NA,NA,NA,51.98,METAR KLGA 141000Z 27007KT 10SM SCT090 BKN110 11/06 A3022 RMK VALGA5/18 SLP234 T01110055,NA
LGA,1973-05-14T11:00:00Z,-73.8803,40.7794,52.88,41.9,66.15,270,7,NA,30.23,1023.7,10,NA,SCT,   ,   ,   ,11000,NA,NA,NA,NA,NA,NA,NA,NA,NA,NA,52.88,METAR KLGA 141100Z 27007KT 10SM SCT110 12/06 A3023 RMK LGA C5/18 SLP237 T01160055,NA
LGA,1973-05-14T12:00:00Z,-73.8803,40.7794,55.04,42.98,63.72,300,8,NA,30.24,1024,9,NA,BKN,   ,   ,   ,NA,NA,NA,NA,NA,NA,NA,NA,NA,NA,NA,55.04,METAR KLGA 141200Z 30008KT 9SM BKN/// 13/06 A//// RMK SLP240 T01280061,NA
LGA,1973-05-14T13:00:00Z,-73.8803,40.7794,57.92,42.98,57.42,310,6,NA,30.24,1024,10,NA,SCT,   ,   ,   ,10000,NA,NA,NA,NA,NA,NA,NA,NA,NA,NA,57.92,METAR KLGA 141300Z 31006KT 10SM SCT100 14/06 A3024 RMK VA SLP240 T01440061,NA
LGA,1973-05-14T14:00:00Z,-73.8803,40.7794,59.9,41,49.56,310,5,NA,30.24,1024,10,NA,CLR,   ,   ,   ,NA,NA,NA,NA,NA,NA,NA,NA,NA,NA,NA,59.9,METAR KLGA 141400Z 31005KT 10SM CLR 16/05 A3024 RMK VALGA 5/19 OM 4 OTS SLP240 T01550050,NA
LGA,1973-05-14T15:00:00Z,-73.8803,40.7794,62.96,42.08,46.37,290,11,NA,30.24,1024,9,NA,FEW,   ,   ,   ,25000,NA,NA,NA,NA,NA,NA,NA,NA,NA,NA,62.96,METAR KLGA 141500Z 29011KT 9SM FEW250 17/06 A3024 RMK / VALGA5/19 SLP240 8/001 T01720056 54000,NA
LGA,1973-05-14T16:00:00Z,-73.8803,40.7794,62.96,39.92,42.65,290,8,NA,30.23,1023.7,10,NA,SCT,BKN,BKN,   ,5000,10000,25000,NA,NA,NA,NA,NA,NA,NA,NA,62.96,METAR KLGA 141600Z 29008KT 10SM SCT050 BKN100 BKN250 17/04 A3023 RMK VALGA5/19 5/20 5/21 SLP237 T01720044,NA
LGA,1973-05-14T17:00:00Z,-73.8803,40.7794,66.92,43.88,43.27,260,8,NA,30.21,1023,10,NA,SCT,BKN,BKN,   ,4000,9000,25000,NA,NA,NA,NA,NA,NA,NA,NA,66.92,METAR KLGA 141700Z 26008KT 10SM SCT040 BKN090 BKN250 19/07 A3021 RMK VALGA5/19 5/20 5/21 SLP230 T01940066,NA
LGA,1973-05-14T18:00:00Z,-73.8803,40.7794,66.92,42.08,40.39,250,12,NA,30.2,1022.7,10,NA,SCT,BKN,BKN,   ,NA,NA,NA,NA,NA,NA,NA,NA,NA,NA,NA,66.92,METAR KLGA 141800Z 25012KT 10SM SCT/// BKN/// BKN/// 19/06 A//// RMK SLP227 T01940056,NA
LGA,1973-05-14T20:00:00Z,-73.8803,40.7794,65.84,42.98,43.4,190,12,NA,30.18,1022,7,NA,BKN,BKN,   ,   ,5000,10000,NA,NA,NA,NA,NA,NA,NA,NA,NA,65.84,METAR KLGA 142000Z 19012KT 7SM BKN050 BKN100 19/06 A3018 RMK VA SLP220 T01880061,NA
LGA,1973-05-14T21:00:00Z,-73.8803,40.7794,64.94,42.08,43.26,180,10,NA,30.18,1022,7,NA,SCT,BKN,   ,   ,5000,7000,NA,NA,NA,NA,NA,NA,NA,NA,NA,64.94,METAR KLGA 142100Z 18010KT 7SM SCT050 BKN070 18/06 A3018 RMK VA/ SLP220 8/460 T01830056 56007,NA
LGA,1973-05-14T22:00:00Z,-73.8803,40.7794,62.96,41,44.47,170,11,NA,30.18,1022,7,NA,SCT,BKN,   ,   ,5000,7000,NA,NA,NA,NA,NA,NA,NA,NA,NA,62.96,METAR KLGA 142200Z 17011KT 7SM SCT050 BKN070 17/05 A3018 RMK VA SLP220 T01720050,NA
LGA,1973-05-14T23:00:00Z,-73.8803,40.7794,61.88,41.9,47.83,180,8,NA,30.18,1022,7,NA,BKN,   ,   ,   ,7000,NA,NA,NA,NA,NA,NA,NA,NA,NA,NA,61.88,METAR KLGA 142300Z 18008KT 7SM BKN070 17/06 A3018 RMK VA SLP220 T01660055,NA
LGA,1973-05-15T00:00:00Z,-73.8803,40.7794,62.06,42.98,49.55,170,9,NA,30.18,1022,7,NA,BKN,BKN,   ,   ,NA,NA,NA,NA,NA,NA,NA,NA,NA,NA,NA,62.06,METAR KLGA 150000Z 17009KT 7SM BKN/// BKN/// 17/06 A//// RMK SLP220 T01670061,NA
LGA,1973-05-15T01:00:00Z,-73.8803,40.7794,59.9,41,49.56,170,9,NA,30.18,1022,7,NA,SCT,BKN,   ,   ,6000,12000,NA,NA,NA,NA,NA,NA,NA,NA,NA,59.9,METAR KLGA 150100Z 17009KT 7SM SCT060 BKN120 16/05 A3018 RMK VA SLP220 T01550050,NA
LGA,1973-05-15T02:00:00Z,-73.8803,40.7794,59,41.9,52.99,170,9,NA,30.19,1022.4,7,NA,BKN,   ,   ,   ,9000,NA,NA,NA,NA,NA,NA,NA,NA,NA,NA,59,METAR KLGA 150200Z 17009KT 7SM BKN090 15/06 A3019 RMK VA SLP224 T01500055,NA
LGA,1973-05-15T03:00:00Z,-73.8803,40.7794,59,42.08,53.36,190,6,NA,30.19,1022.4,7,NA,BKN,   ,   ,   ,9000,NA,NA,NA,NA,NA,NA,NA,NA,NA,NA,59,METAR KLGA 150300Z 19006KT 7SM BKN090 15/06 A3019 RMK / VA SLP224 8/050 T01500056 51003,NA
LGA,1973-05-15T04:00:00Z,-73.8803,40.7794,59,41.9,52.99,180,9,NA,30.19,1022.4,7,NA,OVC,   ,   ,   ,7000,NA,NA,NA,NA,NA,NA,NA,NA,NA,NA,59,METAR KLGA 150400Z 18009KT 7SM OVC070 15/06 A3019 RMK SLP224 T01500055,NA
LGA,1973-05-15T05:00:00Z,-73.8803,40.7794,57.92,43.88,59.43,200,5,NA,30.18,1022,10,NA,BKN,OVC,   ,   ,7000,10000,NA,NA,NA,NA,NA,NA,NA,NA,NA,57.92,METAR KLGA 150500Z 20005KT 10SM BKN070 OVC100 14/07 A3018 RMK RB0357E30 VALGA5/22 SLP220 T01440066,NA
LGA,1973-05-15T06:00:00Z,-73.8803,40.7794,57.92,44.06,59.84,140,6,NA,30.16,1021.3,9,NA,BKN,OVC,   ,   ,NA,NA,NA,NA,NA,NA,NA,NA,NA,NA,NA,57.92,METAR KLGA 150600Z 14006KT 9SM BKN/// OVC/// 14/07 A//// RMK SLP213 T01440067,NA
LGA,1973-05-15T07:00:00Z,-73.8803,40.7794,56.84,45.86,66.63,10,6,NA,30.14,1020.7,8,NA,BKN,BKN,OVC,   ,7000,9000,11000,NA,-RA,NA,NA,NA,NA,NA,NA,56.84,METAR KLGA 150700Z 01006KT 8SM -RA BKN070 BKN090 OVC110 14/08 A3014 RMK LGA5/22 SLP207 T01380077,NA
LGA,1973-05-15T08:00:00Z,-73.8803,40.7794,54.86,48.92,80.32,30,7,NA,30.12,1020,8,NA,OVC,   ,   ,   ,7000,NA,NA,NA,NA,NA,NA,NA,NA,NA,NA,54.86,METAR KLGA 150800Z 03007KT 8SM OVC070 13/09 A3012 RMK RE04LGA5/22 SLP200 T01270094,NA
LGA,1973-05-15T09:00:00Z,-73.8803,40.7794,55.04,48.02,77.15,60,6,NA,30.11,1019.6,7,NA,OVC,   ,   ,   ,6000,NA,NA,NA,-SHRA,NA,NA,NA,NA,NA,NA,55.04,METAR KLGA 150900Z 06006KT 7SM -SHRA OVC060 13/09 A3011 RMK / RB00/ 5 15//LGA5/22 SLP196 T01280089,NA
LGA,1973-05-15T10:00:00Z,-73.8803,40.7794,53.96,48.92,83,40,7,0.02,30.12,1020,6,NA,BKN,OVC,   ,   ,5000,7000,NA,NA,-SHRA DZ,NA,NA,NA,NA,NA,NA,53.96,METAR KLGA 151000Z 04007KT 6SM -SHRA DZ BKN050 OVC070 12/09 A3012 RMK / VSBY LWR E VALGA5/22 SLP200 P0002 T01220094,NA
LGA,1973-05-15T11:00:00Z,-73.8803,40.7794,53.96,50,86.41,70,7,NA,30.12,1020,5,NA,BKN,OVC,   ,   ,5000,7000,NA,NA,DZ,NA,NA,NA,NA,NA,NA,53.96,METAR KLGA 151100Z 07007KT 5SM DZ BKN050 OVC070 12/10 A3012 RMK RE20 VALGA C5/22 SLP200 T01220100,NA
LGA,1973-05-15T12:00:00Z,-73.8803,40.7794,55.04,50,83.08,40,7,NA,30.13,1020.3,5,NA,SCT,OVC,   ,   ,NA,NA,NA,NA,-SHRA DZ,NA,NA,NA,NA,NA,NA,55.04,METAR KLGA 151200Z 04007KT 5SM -SHRA DZ SCT/// OVC/// 13/10 A//// RMK SLP203 T01280100,NA
LGA,1973-05-15T13:00:00Z,-73.8803,40.7794,54.86,50,83.62,40,8,0.01,30.11,1019.6,3,NA,SCT,BKN,OVC,   ,5000,6000,8000,NA,DZ,NA,NA,NA,NA,NA,NA,54.86,METAR KLGA 151300Z 04008KT 3SM DZ SCT050 BKN060 OVC080 13/10 A3011 RMK RE48 VALGA5/23 SLP196 P0001 T01270100,NA
LGA,1973-05-15T14:00:00Z,-73.8803,40.7794,54.86,50.9,86.46,30,12,NA,30.1,1019.3,3,NA,SCT,BKN,OVC,   ,4000,6000,8000,NA,-SHRA DZ,NA,NA,NA,NA,NA,NA,54.86,METAR KLGA 151400Z 03012KT 3SM -SHRA DZ SCT040 BKN060 OVC080 13/11 A3010 RMK RB14 VALGA5/23 SLP193 T01270105,NA
LGA,1973-05-15T15:00:00Z,-73.8803,40.7794,55.04,51.08,86.47,50,16,NA,30.09,1019,3,NA,SCT,BKN,OVC,   ,4000,6000,8000,NA,-SHRA DZ,NA,NA,NA,NA,NA,NA,55.04,METAR KLGA 151500Z 05016KT 3SM -SHRA DZ SCT040 BKN060 OVC080 13/11 A3009 RMK / VALGA5/23 SLP190 8/57/ T01280106 54001,NA
LGA,1973-05-15T16:00:00Z,-73.8803,40.7794,54.86,50.9,86.46,30,11,NA,30.09,1019,3,NA,BKN,OVC,   ,   ,5000,7000,NA,NA,-SHRA DZ,NA,NA,NA,NA,NA,NA,54.86,METAR KLGA 151600Z 03011KT 3SM -SHRA DZ BKN050 OVC070 13/11 A3009 RMK VA UA LGA 25W LGT CLR ICG 70-90 B727LGA5/23 SLP190 8/530 T01270105,NA
LGA,1973-05-15T17:00:00Z,-73.8803,40.7794,56.84,47.84,71.79,50,11,NA,30.06,1018,5,NA,SCT,BKN,OVC,   ,1500,4400,7000,NA,DZ,NA,NA,NA,NA,NA,NA,56.84,METAR KLGA 151700Z 05011KT 5SM DZ SCT015 BKN044 OVC070 14/09 A3006 RMK TWR VSBY 3LGA5/23 SLP180 T01380088,NA
LGA,1973-05-15T18:00:00Z,-73.8803,40.7794,55.94,48.92,77.23,30,10,NA,30.05,1017.6,5,NA,SCT,BKN,OVC,   ,NA,NA,NA,NA,-SHRA DZ,NA,NA,NA,NA,NA,NA,55.94,METAR KLGA 151800Z 03010KT 5SM -SHRA DZ SCT/// BKN/// OVC/// 13/09 A//// RMK SLP176 T01330094,NA
LGA,1973-05-15T19:00:00Z,-73.8803,40.7794,54.86,50,83.62,40,10,NA,30.02,1016.6,4,NA,SCT,BKN,OVC,   ,1500,4500,7000,NA,-SHRA DZ,NA,NA,NA,NA,NA,NA,54.86,METAR KLGA 151900Z 04010KT 4SM -SHRA DZ SCT015 BKN045 OVC070 13/10 A3002 RMK VALGA5/23 SLP166 T01270100,NA
LGA,1973-05-15T20:00:00Z,-73.8803,40.7794,53.96,48.92,83,40,10,0.01,30,1015.9,4,NA,SCT,SCT,OVC,   ,1500,4000,6000,NA,-SHRA DZ,NA,NA,NA,NA,NA,NA,53.96,METAR KLGA 152000Z 04010KT 4SM -SHRA DZ SCT015 SCT040 OVC060 12/09 A3000 RMK VALGA5/23 SLP159 P0001 T01220094,NA
LGA,1973-05-15T20:12:00Z,-73.8803,40.7794,NA,NA,NA,20,8,NA,30,NA,4,NA,BKN,OVC,NA,NA,2300,5900,NA,NA,NA,NA,NA,NA,NA,NA,NA,NA,KLGA 152012Z AUTO 02008KT 4SM BKN023 OVC059 A3000 RMK IEM_DS3505,NA
LGA,1973-05-15T21:00:00Z,-73.8803,40.7794,53.96,50,86.41,20,6,NA,30,1015.9,4,NA,BKN,OVC,   ,   ,2300,6000,NA,NA,-SHRA DZ,NA,NA,NA,NA,NA,NA,53.96,METAR KLGA 152100Z 02006KT 4SM -SHRA DZ BKN023 OVC060 12/10 A3000 RMK / SLP159 8/1// T01220100 57001,NA
LGA,1973-05-15T21:30:00Z,-73.8803,40.7794,NA,NA,NA,30,9,NA,29.97,NA,2.5,NA,SCT,BKN,OVC,NA,1500,2800,5900,NA,NA,NA,NA,NA,NA,NA,NA,NA,KLGA 152130Z AUTO 03009KT 2 1/2SM SCT015 BKN028 OVC059 A2997 RMK IEM_DS3505,NA
LGA,1973-05-15T22:00:00Z,-73.8803,40.7794,52.88,50,89.9,40,8,0.03,29.97,1014.9,2.5,NA,SCT,OVC,   ,   ,1200,2800,NA,NA,-SHRA DZ,NA,NA,NA,NA,NA,NA,52.88,METAR KLGA 152200Z 04008KT 21/2SM -SHRA DZ SCT012 OVC028 12/10 A2997 RMK SLP149 P0003 T01160100,NA
LGA,1973-05-15T23:00:00Z,-73.8803,40.7794,53.96,50,86.41,40,9,NA,29.97,1014.9,3,NA,SCT,BKN,OVC,   ,1200,2800,4600,NA,DZ,NA,NA,NA,NA,NA,NA,53.96,METAR KLGA 152300Z 04009KT 3SM DZ SCT012 BKN028 OVC046 12/10 A2997 RMK RE30 SLP149 T01220100,NA
LGA,1973-05-16T00:00:00Z,-73.8803,40.7794,53.06,50,89.31,60,6,0.01,29.97,1014.9,2.5,NA,BKN,OVC,   ,   ,NA,NA,NA,NA,-SHRA FG,NA,NA,NA,NA,NA,NA,53.06,METAR KLGA 160000Z 06006KT 21/2SM -SHRA FG BKN/// OVC/// 12/10 A//// RMK SLP149 P0001 60004 T01170100,NA
LGA,1973-05-16T00:24:00Z,-73.8803,40.7794,NA,NA,NA,60,5,NA,29.96,NA,2.5,NA,SCT,BKN,OVC,NA,800,2600,4300,NA,NA,NA,NA,NA,NA,NA,NA,NA,KLGA 160024Z AUTO 06005KT 2 1/2SM SCT008 BKN026 OVC043 A2996 RMK IEM_DS3505,NA
LGA,1973-05-16T01:00:00Z,-73.8803,40.7794,53.96,50,86.41,60,5,NA,29.96,1014.6,2.5,NA,SCT,BKN,OVC,   ,800,2800,4000,NA,-SHRA FG,NA,NA,NA,NA,NA,NA,53.96,METAR KLGA 160100Z 06005KT 21/2SM -SHRA FG SCT008 BKN028 OVC040 12/10 A2996 RMK SLP146 T01220100,NA
LGA,1973-05-16T02:00:00Z,-73.8803,40.7794,53.96,50.9,89.35,330,4,NA,29.96,1014.6,4,NA,OVC,   ,   ,   ,2300,NA,NA,NA,-SHRA FG,NA,NA,NA,NA,NA,NA,53.96,METAR KLGA 160200Z 33004KT 4SM -SHRA FG OVC023 12/11 A2996 RMK SLP146 T01220105,NA
LGA,1973-05-16T02:20:00Z,-73.8803,40.7794,NA,NA,NA,290,16,NA,29.98,NA,3,NA,BKN,OVC,NA,NA,1300,2000,NA,NA,NA,NA,NA,NA,NA,NA,NA,NA,KLGA 160220Z AUTO 29016KT 3SM BKN013 OVC020 A2998 RMK IEM_DS3505,NA
LGA,1973-05-16T03:00:00Z,-73.8803,40.7794,51.08,46.04,82.81,340,10,0.2,29.97,1014.9,6,NA,SCT,OVC,   ,   ,1500,3400,NA,NA,-SHRA DZ,NA,NA,NA,NA,NA,NA,51.08,METAR KLGA 160300Z 34010KT 6SM -SHRA DZ SCT015 OVC034 11/08 A2997 RMK 15//LGA 5/26 GP 13 OTS SLP149 P0020 T01060078 55000,NA
LGA,1973-05-16T04:00:00Z,-73.8803,40.7794,50.9,45.86,82.79,310,8,0.01,29.96,1014.6,7,NA,OVC,   ,   ,   ,4400,NA,NA,NA,NA,NA,NA,NA,NA,NA,NA,50.9,METAR KLGA 160400Z 31008KT 7SM OVC044 11/08 A2996 RMK SLP146 P0001 T01050077,NA
LGA,1973-05-16T05:00:00Z,-73.8803,40.7794,50.9,45.86,82.79,310,8,NA,29.95,1014.2,10,NA,BKN,BKN,OVC,   ,6000,7000,9000,NA,NA,NA,NA,NA,NA,NA,NA,50.9,METAR KLGA 160500Z 31008KT 10SM BKN060 BKN070 OVC090 11/08 A2995 RMK / OCNL BINOVCLGA5/27 SLP142 T01050077,NA
LGA,1973-05-16T06:00:00Z,-73.8803,40.7794,50,46.04,86.19,290,10,NA,29.95,1014.2,10,NA,BKN,BKN,   ,   ,NA,NA,NA,NA,NA,NA,NA,NA,NA,NA,NA,45.54,METAR KLGA 160600Z 29010KT 10SM BKN/// BKN/// 10/08 A//// RMK SLP142 60020 T01000078,NA
LGA,1973-05-16T07:00:00Z,-73.8803,40.7794,50,42.98,76.71,320,13,NA,29.95,1014.2,10,NA,BKN,BKN,OVC,   ,3300,4600,5000,NA,NA,NA,NA,NA,NA,NA,NA,44.63,METAR KLGA 160700Z 32013KT 10SM BKN033 BKN046 OVC050 10/06 A2995 RMK / BINOVCLGA5/27 SLP142 T01000061,NA
LGA,1973-05-16T08:00:00Z,-73.8803,40.7794,50,41.9,73.58,310,8,NA,29.95,1014.2,10,NA,SCT,BKN,OVC,   ,4400,6000,8000,NA,NA,NA,NA,NA,NA,NA,NA,46.29,METAR KLGA 160800Z 31008KT 10SM SCT044 BKN060 OVC080 10/06 A2995 RMK BINOVCLGA5/27 SLP142 T01000055,NA
LGA,1973-05-16T09:00:00Z,-73.8803,40.7794,48.02,39.02,70.86,300,12,NA,29.97,1014.9,10,NA,SCT,SCT,   ,   ,6000,8000,NA,NA,NA,NA,NA,NA,NA,NA,NA,42.39,METAR KLGA 160900Z 30012KT 10SM SCT060 SCT080 09/04 A2997 RMK 1530LGA5/27 SLP149 T00890039 53005,NA
LGA,1973-05-16T10:00:00Z,-73.8803,40.7794,46.94,37.94,70.74,300,10,NA,29.98,1015.2,15,NA,CLR,   ,   ,   ,NA,NA,NA,NA,NA,NA,NA,NA,NA,NA,NA,41.7,METAR KLGA 161000Z 30010KT 15SM CLR 08/03 A2998 RMK VALGA5/27 SLP152 T00830033,NA
LGA,1973-05-16T11:00:00Z,-73.8803,40.7794,47.84,37.94,68.38,260,9,NA,30,1015.9,15,NA,CLR,   ,   ,   ,NA,NA,NA,NA,NA,NA,NA,NA,NA,NA,NA,43.21,METAR KLGA 161100Z 26009KT 15SM CLR 09/03 A3000 RMK VALGA C5/27 SLP159 T00880033,NA
LGA,1973-05-16T12:00:00Z,-73.8803,40.7794,48.92,39.02,68.51,310,10,NA,29.99,1015.6,10,NA,CLR,   ,   ,   ,NA,NA,NA,NA,NA,NA,NA,NA,NA,NA,NA,44.19,METAR KLGA 161200Z 31010KT 10SM CLR 09/04 A//// RMK SLP156 70024 T00940039,NA
LGA,1973-05-16T13:00:00Z,-73.8803,40.7794,51.98,37.94,58.62,310,11,NA,29.99,1015.6,15,NA,CLR,   ,   ,   ,NA,NA,NA,NA,NA,NA,NA,NA,NA,NA,NA,51.98,METAR KLGA 161300Z 31011KT 15SM CLR 11/03 A2999 RMK VALGA5/28 SLP156 T01110033,NA
LGA,1973-05-16T14:00:00Z,-73.8803,40.7794,54.86,37.94,52.75,310,10,NA,29.99,1015.6,15,NA,CLR,   ,   ,   ,NA,NA,NA,NA,NA,NA,NA,NA,NA,NA,NA,54.86,METAR KLGA 161400Z 31010KT 15SM CLR 13/03 A2999 RMK VALGA5/28 SLP156 T01270033,NA
LGA,1973-05-16T15:00:00Z,-73.8803,40.7794,57.02,35.06,43.53,270,10,NA,29.98,1015.2,15,NA,CLR,   ,   ,   ,NA,NA,NA,NA,NA,NA,NA,NA,NA,NA,NA,57.02,METAR KLGA 161500Z 27010KT 15SM CLR 14/02 A2998 RMK / FEW CU VALGA5/28 SLP152 8/100 T01390017 50002,NA
LGA,1973-05-16T16:00:00Z,-73.8803,40.7794,59,34.88,40.25,270,11,NA,29.97,1014.9,15,NA,CLR,   ,   ,   ,NA,NA,NA,NA,NA,NA,NA,NA,NA,NA,NA,59,METAR KLGA 161600Z 27011KT 15SM CLR 15/02 A2997 RMK LGA5/28 VA SLP149 T01500016,NA
LGA,1973-05-16T17:00:00Z,-73.8803,40.7794,60.98,35.96,39.15,310,9,NA,29.95,1014.2,15,NA,CLR,   ,   ,   ,NA,NA,NA,NA,NA,NA,NA,NA,NA,NA,NA,60.98,METAR KLGA 161700Z 31009KT 15SM CLR 16/02 A2995 RMK FEW CU W VALGA5/28 SLP142 T01610022,NA
LGA,1973-05-16T18:00:00Z,-73.8803,40.7794,62.06,35.06,36.36,230,6,NA,29.93,1013.5,15,NA,CLR,   ,   ,   ,NA,NA,NA,NA,NA,NA,NA,NA,NA,NA,NA,62.06,METAR KLGA 161800Z 23006KT 15SM CLR/// 17/02 A//// RMK SLP135 T01670017,NA
LGA,1973-05-16T19:00:00Z,-73.8803,40.7794,62.96,35.96,36.51,200,11,NA,29.92,1013.2,15,NA,SCT,   ,   ,   ,5000,NA,NA,NA,NA,NA,NA,NA,NA,NA,NA,62.96,METAR KLGA 161900Z 20011KT 15SM SCT050 17/02 A2992 RMK VALGA5/28 SLP132 T01720022,NA
LGA,1973-05-16T20:00:00Z,-73.8803,40.7794,62.96,36.86,37.83,200,12,NA,29.89,1012.2,15,NA,CLR,   ,   ,   ,NA,NA,NA,NA,NA,NA,NA,NA,NA,NA,NA,62.96,METAR KLGA 162000Z 20012KT 15SM CLR 17/03 A2989 RMK FEW CU VALGA C5/28 SLP122 T01720027,NA
LGA,1973-05-16T21:00:00Z,-73.8803,40.7794,62.06,42.08,47.86,160,17,NA,29.88,1011.9,15,NA,CLR,   ,   ,   ,NA,NA,NA,NA,NA,NA,NA,NA,NA,NA,NA,62.06,METAR KLGA 162100Z 16017KT 15SM CLR 17/06 A2988 RMK 7 VA SLP119 8/101 T01670056,NA
LGA,1973-05-16T22:00:00Z,-73.8803,40.7794,60.98,41,47.7,170,13,NA,29.88,1011.9,15,NA,CLR,   ,   ,   ,NA,NA,NA,NA,NA,NA,NA,NA,NA,NA,NA,60.98,METAR KLGA 162200Z 17013KT 15SM CLR 16/05 A2988 RMK VA SLP119 T01610050,NA
LGA,1973-05-16T23:00:00Z,-73.8803,40.7794,59.9,41.9,51.32,160,12,NA,29.88,1011.9,15,NA,SCT,   ,   ,   ,22000,NA,NA,NA,NA,NA,NA,NA,NA,NA,NA,59.9,METAR KLGA 162300Z 16012KT 15SM SCT220 16/06 A2988 RMK VA SLP119 T01550055,NA
LGA,1973-05-17T00:00:00Z,-73.8803,40.7794,57.92,46.04,64.52,170,13,NA,29.88,1011.9,15,NA,SCT,   ,   ,   ,NA,NA,NA,NA,NA,NA,NA,NA,NA,NA,NA,57.92,METAR KLGA 170000Z 17013KT 15SM SCT/// 14/08 A//// RMK SLP119 T01440078,NA
LGA,1973-05-17T01:00:00Z,-73.8803,40.7794,55.94,46.94,71.7,180,10,NA,29.89,1012.2,10,NA,SCT,   ,   ,   ,22000,NA,NA,NA,NA,NA,NA,NA,NA,NA,NA,55.94,METAR KLGA 170100Z 18010KT 10SM SCT220 13/08 A2989 RMK VA SLP122 T01330083,NA
LGA,1973-05-17T02:00:00Z,-73.8803,40.7794,56.84,46.94,69.4,170,9,NA,29.9,1012.5,10,NA,SCT,   ,   ,   ,22000,NA,NA,NA,NA,NA,NA,NA,NA,NA,NA,56.84,METAR KLGA 170200Z 17009KT 10SM SCT220 14/08 A2990 RMK VA SLP125 T01380083,NA
LGA,1973-05-17T03:00:00Z,-73.8803,40.7794,57.02,42.08,57.29,210,12,NA,29.92,1013.2,10,NA,FEW,   ,   ,   ,25000,NA,NA,NA,NA,NA,NA,NA,NA,NA,NA,57.02,METAR KLGA 170300Z 21012KT 10SM FEW250 14/06 A2992 RMK / VA SLP132 8/008 T01390056 53014,NA
LGA,1973-05-17T04:00:00Z,-73.8803,40.7794,54.86,41.9,61.53,210,15,NA,29.91,1012.9,10,NA,BKN,   ,   ,   ,25000,NA,NA,NA,NA,NA,NA,NA,NA,NA,NA,54.86,METAR KLGA 170400Z 21015KT 10SM BKN250 13/06 A2991 RMK SLP129 T01270055,NA
LGA,1973-05-17T05:00:00Z,-73.8803,40.7794,53.96,41.9,63.59,210,13,NA,29.91,1012.9,10,NA,BKN,   ,   ,   ,25000,NA,NA,NA,NA,NA,NA,NA,NA,NA,NA,53.96,METAR KLGA 170500Z 21013KT 10SM BKN250 12/06 A2991 RMK LGA5/29 SLP129 T01220055,NA
LGA,1973-05-17T06:00:00Z,-73.8803,40.7794,53.06,42.08,66.17,210,13,NA,29.9,1012.5,10,NA,SCT,OVC,   ,   ,NA,NA,NA,NA,NA,NA,NA,NA,NA,NA,NA,53.06,METAR KLGA 170600Z 21013KT 10SM SCT/// OVC/// 12/06 A//// RMK SLP125 T01170056,NA
LGA,1973-05-17T07:00:00Z,-73.8803,40.7794,52.88,42.98,68.96,210,7,NA,29.88,1011.9,10,NA,OVC,   ,   ,   ,20000,NA,NA,NA,NA,NA,NA,NA,NA,NA,NA,52.88,METAR KLGA 170700Z 21007KT 10SM OVC200 12/06 A2988 RMK LGA5/29 SLP119 T01160061,NA
LGA,1973-05-17T08:00:00Z,-73.8803,40.7794,52.88,43.88,71.38,200,7,NA,29.88,1011.9,10,NA,BKN,   ,   ,   ,20000,NA,NA,NA,NA,NA,NA,NA,NA,NA,NA,52.88,METAR KLGA 170800Z 20007KT 10SM BKN200 12/07 A2988 RMK LGA5/29 SLP119 T01160066,NA
LGA,1973-05-17T09:00:00Z,-73.8803,40.7794,51.98,44.06,74.29,160,6,NA,29.85,1010.8,10,NA,SCT,   ,   ,   ,20000,NA,NA,NA,NA,NA,NA,NA,NA,NA,NA,51.98,METAR KLGA 170900Z 16006KT 10SM SCT200 11/07 A2985 RMK / 1001LGA5/29 SLP108 T01110067 58017,NA
LGA,1973-05-17T10:00:00Z,-73.8803,40.7794,51.98,42.98,71.28,150,6,NA,29.84,1010.5,9,NA,SCT,   ,   ,   ,20000,NA,NA,NA,NA,NA,NA,NA,NA,NA,NA,51.98,METAR KLGA 171000Z 15006KT 9SM SCT200 11/06 A2984 RMK LGA5/29 SLP105 T01110061,NA
LGA,1973-05-17T11:00:00Z,-73.8803,40.7794,53.96,45.86,73.98,130,6,NA,29.84,1010.5,7,NA,CLR,   ,   ,   ,NA,NA,NA,NA,NA,NA,NA,NA,NA,NA,NA,53.96,METAR KLGA 171100Z 13006KT 7SM CLR 12/08 A2984 RMK LGA5/29 SLP105 T01220077,NA
LGA,1973-05-17T12:00:00Z,-73.8803,40.7794,55.94,46.04,69.3,170,7,NA,29.84,1010.5,7,NA,CLR,   ,   ,   ,NA,NA,NA,NA,NA,NA,NA,NA,NA,NA,NA,55.94,METAR KLGA 171200Z 17007KT 7SM CLR 13/08 A//// RMK SLP105 T01330078,NA
LGA,1973-05-17T13:00:00Z,-73.8803,40.7794,59,48.92,69.17,160,10,NA,29.84,1010.5,7,NA,SCT,   ,   ,   ,2500,NA,NA,NA,NA,NA,NA,NA,NA,NA,NA,59,METAR KLGA 171300Z 16010KT 7SM SCT025 15/09 A2984 RMK VALGA 5/31 LOC/GP OTS5/30 SLP105 T01500094,NA
LGA,1973-05-17T14:00:00Z,-73.8803,40.7794,59.9,46.94,62.19,150,13,NA,29.84,1010.5,10,NA,CLR,   ,   ,   ,NA,NA,NA,NA,NA,NA,NA,NA,NA,NA,NA,59.9,METAR KLGA 171400Z 15013KT 10SM CLR 16/08 A2984 RMK FEW CU VALGA5/30 5/31 SLP105 T01550083,NA
LGA,1973-05-17T15:00:00Z,-73.8803,40.7794,62.06,42.08,47.86,180,14,NA,29.83,1010.2,15,NA,CLR,   ,   ,   ,NA,NA,NA,NA,NA,NA,NA,NA,NA,NA,NA,62.06,METAR KLGA 171500Z 18014KT 15SM CLR 17/06 A2983 RMK / VALGA5/30 5/31 SLP102 T01670056 58003,NA
LGA,1973-05-17T16:00:00Z,-73.8803,40.7794,63.86,39.92,41.32,150,17,NA,29.82,1009.8,15,22,CLR,   ,   ,   ,NA,NA,NA,NA,NA,NA,NA,NA,NA,NA,NA,63.86,METAR KLGA 171600Z 15017G22KT 15SM CLR 18/04 A2982 RMK VALGA5/30 5/31 SLP098 T01770044,NA
LGA,1973-05-17T17:00:00Z,-73.8803,40.7794,64.94,41,41.49,160,14,NA,29.8,1009.1,15,23,SCT,SCT,   ,   ,15000,25000,NA,NA,NA,NA,NA,NA,NA,NA,NA,64.94,METAR KLGA 171700Z 16014G23KT 15SM SCT150 SCT250 18/05 A2980 RMK VALGA5/30 5/31 SLP091 T01830050,NA
LGA,1973-05-17T18:00:00Z,-73.8803,40.7794,64.94,42.08,43.26,160,16,NA,29.79,1008.8,15,NA,SCT,BKN,   ,   ,NA,NA,NA,NA,NA,NA,NA,NA,NA,NA,NA,64.94,METAR KLGA 171800Z 16016KT 15SM SCT/// BKN/// 18/06 A//// RMK SLP088 T01830056,NA
LGA,1973-05-17T19:00:00Z,-73.8803,40.7794,65.84,41.9,41.64,130,18,NA,29.77,1008.1,15,22,SCT,BKN,   ,   ,15000,25000,NA,NA,NA,NA,NA,NA,NA,NA,NA,65.84,METAR KLGA 171900Z 13018G22KT 15SM SCT150 BKN250 19/06 A2977 RMK VALGA5/30 5/31 SLP081 T01880055,NA
LGA,1973-05-17T20:00:00Z,-73.8803,40.7794,64.94,41,41.49,150,17,NA,29.75,1007.5,15,26,SCT,   ,   ,   ,25000,NA,NA,NA,NA,NA,NA,NA,NA,NA,NA,64.94,METAR KLGA 172000Z 15017G26KT 15SM SCT250 18/05 A2975 RMK VALGA5/30 SLP075 T01830050,NA
LGA,1973-05-17T21:00:00Z,-73.8803,40.7794,64.04,41,42.82,160,16,NA,29.73,1006.8,15,25,SCT,FEW,   ,   ,15000,25000,NA,NA,NA,NA,NA,NA,NA,NA,NA,64.04,METAR KLGA 172100Z 16016G25KT 15SM SCT150 FEW250 18/05 A2973 RMK / VALGA C5/30 SLP068 8/041 T01780050 57020,NA
LGA,1973-05-17T22:00:00Z,-73.8803,40.7794,61.88,41.9,47.83,150,15,NA,29.73,1006.8,15,25,SCT,BKN,BKN,   ,5000,13000,25000,NA,NA,NA,NA,NA,NA,NA,NA,61.88,METAR KLGA 172200Z 15015G25KT 15SM SCT050 BKN130 BKN250 17/06 A2973 RMK VA SLP068 T01660055,NA
LGA,1973-05-17T23:00:00Z,-73.8803,40.7794,59.9,44.96,57.7,120,16,NA,29.73,1006.8,15,26,SCT,BKN,OVC,   ,5000,13000,25000,NA,NA,NA,NA,NA,NA,NA,NA,59.9,METAR KLGA 172300Z 12016G26KT 15SM SCT050 BKN130 OVC250 16/07 A2973 RMK VA SLP068 T01550072,NA
LGA,1973-05-18T00:00:00Z,-73.8803,40.7794,59,46.04,62.07,110,14,NA,29.72,1006.4,10,NA,BKN,OVC,   ,   ,NA,NA,NA,NA,NA,NA,NA,NA,NA,NA,NA,59,METAR KLGA 180000Z 11014KT 10SM BKN/// OVC/// 15/08 A//// RMK SLP064 T01500078,NA
LGA,1973-05-18T01:00:00Z,-73.8803,40.7794,59,46.94,64.22,140,16,NA,29.72,1006.4,15,25,BKN,OVC,   ,   ,3600,8000,NA,NA,NA,NA,NA,NA,NA,NA,NA,59,METAR KLGA 180100Z 14016G25KT 15SM BKN036 OVC080 15/08 A2972 RMK VA SLP064 T01500083,NA
LGA,1973-05-18T02:00:00Z,-73.8803,40.7794,59.9,46.94,62.19,140,13,NA,29.72,1006.4,15,22,SCT,BKN,OVC,   ,2000,4400,8000,NA,NA,NA,NA,NA,NA,NA,NA,59.9,METAR KLGA 180200Z 14013G22KT 15SM SCT020 BKN044 OVC080 16/08 A2972 RMK VA SLP064 T01550083,NA
LGA,1973-05-18T03:00:00Z,-73.8803,40.7794,59,50,72.01,150,12,NA,29.71,1006.1,8,19,BKN,OVC,   ,   ,2500,4000,NA,NA,-SHRA,NA,NA,NA,NA,NA,NA,59,METAR KLGA 180300Z 15012G19KT 8SM -SHRA BKN025 OVC040 15/10 A2971 RMK RB15/VA/ SLP061 8/5// T01500100 58005,NA
LGA,1973-05-18T04:00:00Z,-73.8803,40.7794,56.84,52.88,86.57,160,13,0.06,29.69,1005.4,6,20,BKN,OVC,   ,   ,900,3000,NA,NA,-SHRA,NA,NA,NA,NA,NA,NA,56.84,METAR KLGA 180400Z 16013G20KT 6SM -SHRA BKN009 OVC030 14/12 A2969 RMK SLP054 P0006 T01380116,NA
LGA,1973-05-18T05:00:00Z,-73.8803,40.7794,54.86,51.98,89.98,180,12,0.11,29.69,1005.4,4,NA,BKN,OVC,   ,   ,900,2500,NA,NA,-SHRA,NA,NA,NA,NA,NA,NA,54.86,METAR KLGA 180500Z 18012KT 4SM -SHRA BKN009 OVC025 13/11 A2969 RMK SLP054 P0011 T01270111,NA
LGA,1973-05-18T06:00:00Z,-73.8803,40.7794,51.98,48.92,89.26,250,10,0.07,29.67,1004.7,4,NA,OVC,   ,   ,   ,NA,NA,NA,NA,-SHRA,NA,NA,NA,NA,NA,NA,51.98,METAR KLGA 180600Z 25010KT 4SM -SHRA OVC/// 11/09 A//// RMK SLP047 P0007 60024 T01110094,NA
LGA,1973-05-18T07:00:00Z,-73.8803,40.7794,50.9,47.84,89.21,240,6,0.01,29.64,1003.7,4,NA,SCT,BKN,OVC,   ,600,800,1400,NA,FG,NA,NA,NA,NA,NA,NA,50.9,METAR KLGA 180700Z 24006KT 4SM FG SCT006 BKN008 OVC014 11/09 A2964 RMK RE45 SLP037 P0001 T01050088,NA
LGA,1973-05-18T08:00:00Z,-73.8803,40.7794,50,46.94,89.17,280,10,NA,29.65,1004.1,7,NA,OVC,   ,   ,   ,900,NA,NA,NA,NA,NA,NA,NA,NA,NA,NA,45.54,METAR KLGA 180800Z 28010KT 7SM OVC009 10/08 A2965 RMK SLP041 T01000083,NA
LGA,1973-05-18T09:00:00Z,-73.8803,40.7794,46.94,42.08,83.09,280,13,NA,29.65,1004.1,7,NA,BKN,OVC,   ,   ,2200,4500,NA,NA,NA,NA,NA,NA,NA,NA,NA,40.71,METAR KLGA 180900Z 28013KT 7SM BKN022 OVC045 08/06 A2965 RMK SLP041 8/5// T00830056 55007,NA
LGA,1973-05-18T10:00:00Z,-73.8803,40.7794,44.96,39.92,82.38,280,10,NA,29.65,1004.1,7,NA,SCT,SCT,BKN,   ,1200,2500,7000,NA,NA,NA,NA,NA,NA,NA,NA,39.22,METAR KLGA 181000Z 28010KT 7SM SCT012 SCT025 BKN070 07/04 A2965 RMK VA SLP041 T00720044,NA
LGA,1973-05-18T11:00:00Z,-73.8803,40.7794,43.88,37.94,79.45,270,14,NA,29.67,1004.7,15,NA,BKN,OVC,   ,   ,1400,2500,NA,NA,NA,NA,NA,NA,NA,NA,NA,36.48,METAR KLGA 181100Z 27014KT 15SM BKN014 OVC025 07/03 A2967 RMK / BINOVC VA SLP047 T00660033,NA
LGA,1973-05-18T12:00:00Z,-73.8803,40.7794,44.96,37.04,73.59,280,13,NA,29.68,1005.1,15,NA,BKN,BKN,   ,   ,NA,NA,NA,NA,NA,NA,NA,NA,NA,NA,NA,38.17,METAR KLGA 181200Z 28013KT 15SM BKN/// BKN/// 07/03 A//// RMK SLP051 70024 T00720028,NA
LGA,1973-05-18T13:00:00Z,-73.8803,40.7794,45.86,36.86,70.62,270,15,NA,29.68,1005.1,15,NA,OVC,   ,   ,   ,2300,NA,NA,NA,NA,NA,NA,NA,NA,NA,NA,38.75,METAR KLGA 181300Z 27015KT 15SM OVC023 08/03 A2968 RMK LGA5/32 SLP051 T00770027,NA
LGA,1973-05-18T14:00:00Z,-73.8803,40.7794,47.84,35.96,63.25,290,15,NA,29.69,1005.4,15,NA,OVC,   ,   ,   ,3100,NA,NA,NA,NA,NA,NA,NA,NA,NA,NA,41.31,METAR KLGA 181400Z 29015KT 15SM OVC031 09/02 A2969 RMK 2- SLP054 T00880022,NA
LGA,1973-05-18T15:00:00Z,-73.8803,40.7794,48.92,35.06,58.61,290,19,NA,29.71,1006.1,15,24,BKN,OVC,   ,   ,3100,3700,NA,NA,NA,NA,NA,NA,NA,NA,NA,41.81,METAR KLGA 181500Z 29019G24KT 15SM BKN031 OVC037 09/02 A2971 RMK / 15//LGA5/32 SLP061 T00940017 53010,NA
LGA,1973-05-18T16:00:00Z,-73.8803,40.7794,50,35.96,58.34,270,19,NA,29.73,1006.8,15,25,BKN,OVC,   ,   ,3300,3900,NA,NA,NA,NA,NA,NA,NA,NA,NA,43.24,METAR KLGA 181600Z 27019G25KT 15SM BKN033 OVC039 10/02 A2973 RMK VALGA5/32 SLP068 T01000022,NA
LGA,1973-05-18T17:00:00Z,-73.8803,40.7794,50.9,33.98,52.15,280,17,NA,29.74,1007.1,15,23,SCT,BKN,OVC,   ,3300,4100,6000,NA,NA,NA,NA,NA,NA,NA,NA,50.9,METAR KLGA 181700Z 28017G23KT 15SM SCT033 BKN041 OVC060 11/01 A2974 RMK VALGA5/32 SLP071 T01050011,NA
LGA,1973-05-18T18:00:00Z,-73.8803,40.7794,53.96,33.98,46.6,260,20,NA,29.74,1007.1,15,NA,SCT,BKN,BKN,   ,NA,NA,NA,NA,NA,NA,NA,NA,NA,NA,NA,53.96,METAR KLGA 181800Z 26020KT 15SM SCT/// BKN/// BKN/// 12/01 A//// RMK SLP071 T01220011,NA
LGA,1973-05-18T19:00:00Z,-73.8803,40.7794,55.94,33.98,43.36,280,14,NA,29.74,1007.1,15,23,BKN,BKN,   ,   ,4000,10000,NA,NA,NA,NA,NA,NA,NA,NA,NA,55.94,METAR KLGA 181900Z 28014G23KT 15SM BKN040 BKN100 13/01 A2974 RMK VALGA5/32 SLP071 T01330011,NA
LGA,1973-05-18T20:00:00Z,-73.8803,40.7794,55.94,32,40.05,250,14,NA,29.74,1007.1,15,21,BKN,   ,   ,   ,4500,NA,NA,NA,NA,NA,NA,NA,NA,NA,NA,55.94,METAR KLGA 182000Z 25014G21KT 15SM BKN045 13/00 A2974 RMK VALGA5/32 SLP071 T01330000,NA
LGA,1973-05-18T21:00:00Z,-73.8803,40.7794,55.94,32,40.05,270,13,NA,29.76,1007.8,15,20,BKN,   ,   ,   ,4500,NA,NA,NA,NA,NA,NA,NA,NA,NA,NA,55.94,METAR KLGA 182100Z 27013G20KT 15SM BKN045 13/00 A2976 RMK / 1400LGA C5/32 SLP078 T01330000 53007,NA
LGA,1973-05-18T22:00:00Z,-73.8803,40.7794,54.86,31.1,40.16,270,15,NA,29.77,1008.1,15,23,SCT,BKN,   ,   ,4000,7000,NA,NA,NA,NA,NA,NA,NA,NA,NA,54.86,METAR KLGA 182200Z 27015G23KT 15SM SCT040 BKN070 13/M01 A2977 RMK SLP081 T01271005,NA
LGA,1973-05-18T23:00:00Z,-73.8803,40.7794,54.86,31.1,40.16,280,15,NA,29.79,1008.8,15,22,SCT,BKN,   ,   ,4000,7000,NA,NA,NA,NA,NA,NA,NA,NA,NA,54.86,METAR KLGA 182300Z 28015G22KT 15SM SCT040 BKN070 13/M01 A2979 RMK VA SLP088 T01271005,NA
LGA,1973-05-19T00:00:00Z,-73.8803,40.7794,55.04,30.92,39.61,280,14,NA,29.82,1009.8,15,NA,SCT,BKN,   ,   ,NA,NA,NA,NA,NA,NA,NA,NA,NA,NA,NA,55.04,METAR KLGA 190000Z 28014KT 15SM SCT/// BKN/// 13/M01 A//// RMK SLP098 T01281006,NA
LGA,1973-05-19T01:00:00Z,-73.8803,40.7794,53.96,31.1,41.5,270,13,NA,29.84,1010.5,15,NA,SCT,BKN,   ,   ,4000,7000,NA,NA,NA,NA,NA,NA,NA,NA,NA,53.96,METAR KLGA 190100Z 27013KT 15SM SCT040 BKN070 12/M01 A2984 RMK VA SLP105 T01221005,NA
LGA,1973-05-19T03:00:00Z,-73.8803,40.7794,51.98,30.02,42.72,260,11,NA,29.89,1012.2,15,NA,SCT,   ,   ,   ,4000,NA,NA,NA,NA,NA,NA,NA,NA,NA,NA,51.98,METAR KLGA 190300Z 26011KT 15SM SCT040 11/M01 A2989 RMK / VA SLP122 8/500 T01111011 52024,NA
LGA,1973-05-19T04:00:00Z,-73.8803,40.7794,50.9,30.02,44.46,260,12,NA,29.9,1012.5,15,NA,CLR,   ,   ,   ,NA,NA,NA,NA,NA,NA,NA,NA,NA,NA,NA,50.9,METAR KLGA 190400Z 26012KT 15SM CLR 11/M01 A2990 RMK SLP125 T01051011,NA
LGA,1973-05-19T05:00:00Z,-73.8803,40.7794,50.9,30.02,44.46,240,13,NA,29.91,1012.9,15,NA,CLR,   ,   ,   ,NA,NA,NA,NA,NA,NA,NA,NA,NA,NA,NA,50.9,METAR KLGA 190500Z 24013KT 15SM CLR 11/M01 A2991 RMK SLP129 T01051011,NA
LGA,1973-05-19T06:00:00Z,-73.8803,40.7794,48.92,30.92,49.64,270,10,NA,29.91,1012.9,15,NA,CLR,   ,   ,   ,NA,NA,NA,NA,NA,NA,NA,NA,NA,NA,NA,44.19,METAR KLGA 190600Z 27010KT 15SM CLR 09/M01 A//// RMK SLP129 T00941006,NA
LGA,1973-05-19T07:00:00Z,-73.8803,40.7794,48.92,30.02,47.86,250,11,NA,29.91,1012.9,15,NA,CLR,   ,   ,   ,NA,NA,NA,NA,NA,NA,NA,NA,NA,NA,NA,43.85,METAR KLGA 190700Z 25011KT 15SM CLR 09/M01 A2991 RMK SLP129 T00941011,NA
LGA,1973-05-19T08:00:00Z,-73.8803,40.7794,48.92,31.1,50,250,8,NA,29.92,1013.2,15,NA,CLR,   ,   ,   ,NA,NA,NA,NA,NA,NA,NA,NA,NA,NA,NA,44.96,METAR KLGA 190800Z 25008KT 15SM CLR 09/M01 A2992 RMK SLP132 T00941005,NA
LGA,1973-05-19T09:00:00Z,-73.8803,40.7794,48.92,30.02,47.86,250,6,NA,29.92,1013.2,15,NA,CLR,   ,   ,   ,NA,NA,NA,NA,NA,NA,NA,NA,NA,NA,NA,45.91,METAR KLGA 190900Z 25006KT 15SM CLR 09/M01 A2992 RMK SLP132 T00941011 51003,NA
LGA,1973-05-19T11:00:00Z,-73.8803,40.7794,48.92,32,51.85,220,7,NA,29.95,1014.2,15,NA,SCT,   ,   ,   ,12000,NA,NA,NA,NA,NA,NA,NA,NA,NA,NA,45.4,METAR KLGA 191100Z 22007KT 15SM SCT120 09/00 A2995 RMK VA SLP142 T00940000,NA
LGA,1973-05-19T12:00:00Z,-73.8803,40.7794,51.98,30.02,42.72,260,8,NA,29.96,1014.6,15,NA,SCT,   ,   ,   ,NA,NA,NA,NA,NA,NA,NA,NA,NA,NA,NA,51.98,METAR KLGA 191200Z 26008KT 15SM SCT/// 11/M01 A//// RMK SLP146 T01111011,NA
LGA,1973-05-19T13:00:00Z,-73.8803,40.7794,53.96,32.9,44.63,270,9,NA,29.96,1014.6,15,NA,SCT,   ,   ,   ,25000,NA,NA,NA,NA,NA,NA,NA,NA,NA,NA,53.96,METAR KLGA 191300Z 27009KT 15SM SCT250 12/01 A2996 RMK VA SLP146 T01220005,NA
LGA,1973-05-19T14:00:00Z,-73.8803,40.7794,55.94,32,40.05,280,9,NA,29.95,1014.2,15,NA,BKN,   ,   ,   ,25000,NA,NA,NA,NA,NA,NA,NA,NA,NA,NA,55.94,METAR KLGA 191400Z 28009KT 15SM BKN250 13/00 A2995 RMK VA SLP142 T01330000,NA
LGA,1973-05-19T15:00:00Z,-73.8803,40.7794,60.08,33.08,36.04,260,12,NA,29.94,1013.9,15,NA,SCT,BKN,   ,   ,15000,25000,NA,NA,NA,NA,NA,NA,NA,NA,NA,60.08,METAR KLGA 191500Z 26012KT 15SM SCT150 BKN250 16/01 A2994 RMK / VA SLP139 8/031 T01560006 58007,NA
LGA,1973-05-19T16:00:00Z,-73.8803,40.7794,62.96,36.86,37.83,280,13,NA,29.93,1013.5,15,NA,SCT,   ,   ,   ,25000,NA,NA,NA,NA,NA,NA,NA,NA,NA,NA,62.96,METAR KLGA 191600Z 28013KT 15SM SCT250 17/03 A2993 RMK FEW AC SLP135 T01720027,NA
LGA,1973-05-19T17:00:00Z,-73.8803,40.7794,64.94,36.86,35.3,250,15,NA,29.92,1013.2,15,NA,SCT,   ,   ,   ,25000,NA,NA,NA,NA,NA,NA,NA,NA,NA,NA,64.94,METAR KLGA 191700Z 25015KT 15SM SCT250 18/03 A2992 RMK FEW CU SLP132 T01830027,NA
LGA,1973-05-19T18:00:00Z,-73.8803,40.7794,66.92,37.04,33.19,230,12,NA,29.9,1012.5,15,NA,SCT,   ,   ,   ,NA,NA,NA,NA,NA,NA,NA,NA,NA,NA,NA,66.92,METAR KLGA 191800Z 23012KT 15SM SCT/// 19/03 A//// RMK SLP125 T01940028,NA
LGA,1973-05-19T19:00:00Z,-73.8803,40.7794,65.84,41,40.21,170,16,NA,29.89,1012.2,15,NA,SCT,   ,   ,   ,4500,NA,NA,NA,NA,NA,NA,NA,NA,NA,NA,65.84,METAR KLGA 191900Z 17016KT 15SM SCT045 19/05 A2989 RMK SLP122 T01880050,NA
LGA,1973-05-19T20:00:00Z,-73.8803,40.7794,65.84,41,40.21,170,13,NA,29.88,1011.9,15,NA,SCT,BKN,   ,   ,4500,25000,NA,NA,NA,NA,NA,NA,NA,NA,NA,65.84,METAR KLGA 192000Z 17013KT 15SM SCT045 BKN250 19/05 A2988 RMK VA SLP119 T01880050,NA
LGA,1973-05-19T21:00:00Z,-73.8803,40.7794,64.94,48.02,54.22,170,13,NA,29.88,1011.9,15,NA,SCT,BKN,   ,   ,5000,25000,NA,NA,NA,NA,NA,NA,NA,NA,NA,64.94,METAR KLGA 192100Z 17013KT 15SM SCT050 BKN250 18/09 A2988 RMK / VA SLP119 8/106 T01830089 56008,NA
LGA,1973-05-19T22:00:00Z,-73.8803,40.7794,63.86,46.94,54.07,170,12,NA,29.88,1011.9,15,NA,SCT,SCT,BKN,   ,5000,9000,25000,NA,NA,NA,NA,NA,NA,NA,NA,63.86,METAR KLGA 192200Z 17012KT 15SM SCT050 SCT090 BKN250 18/08 A2988 RMK VA SLP119 T01770083,NA
LGA,1973-05-19T23:00:00Z,-73.8803,40.7794,62.96,48.92,60.11,170,11,NA,29.88,1011.9,15,NA,SCT,BKN,   ,   ,5000,25000,NA,NA,NA,NA,NA,NA,NA,NA,NA,62.96,METAR KLGA 192300Z 17011KT 15SM SCT050 BKN250 17/09 A2988 RMK VA SLP119 T01720094,NA
LGA,1973-05-20T00:00:00Z,-73.8803,40.7794,62.96,46.94,55.8,170,9,NA,29.89,1012.2,10,NA,BKN,   ,   ,   ,NA,NA,NA,NA,NA,NA,NA,NA,NA,NA,NA,62.96,METAR KLGA 200000Z 17009KT 10SM BKN/// 17/08 A//// RMK SLP122 T01720083,NA
LGA,1973-05-20T01:00:00Z,-73.8803,40.7794,61.88,46.94,57.97,170,8,NA,29.89,1012.2,10,NA,BKN,   ,   ,   ,25000,NA,NA,NA,NA,NA,NA,NA,NA,NA,NA,61.88,METAR KLGA 200100Z 17008KT 10SM BKN250 17/08 A2989 RMK VA SLP122 T01660083,NA
LGA,1973-05-20T02:00:00Z,-73.8803,40.7794,61.88,45.86,55.65,180,8,NA,29.9,1012.5,10,NA,BKN,   ,   ,   ,25000,NA,NA,NA,NA,NA,NA,NA,NA,NA,NA,61.88,METAR KLGA 200200Z 18008KT 10SM BKN250 17/08 A2990 RMK VA SLP125 T01660077,NA
LGA,1973-05-20T03:00:00Z,-73.8803,40.7794,60.08,46.94,61.79,180,6,NA,29.9,1012.5,10,NA,FEW,   ,   ,   ,25000,NA,NA,NA,NA,NA,NA,NA,NA,NA,NA,60.08,METAR KLGA 200300Z 18006KT 10SM FEW250 16/08 A2990 RMK VA SLP125 8/001 T01560083 53005,NA
LGA,1973-05-20T04:00:00Z,-73.8803,40.7794,59,50,72.01,170,8,NA,29.9,1012.5,10,NA,SCT,   ,   ,   ,25000,NA,NA,NA,NA,NA,NA,NA,NA,NA,NA,59,METAR KLGA 200400Z 17008KT 10SM SCT250 15/10 A2990 RMK VA SLP125 T01500100,NA
LGA,1973-05-20T05:00:00Z,-73.8803,40.7794,59,48.92,69.17,180,7,NA,29.9,1012.5,9,NA,OVC,   ,   ,   ,8000,NA,NA,NA,NA,NA,NA,NA,NA,NA,NA,59,METAR KLGA 200500Z 18007KT 9SM OVC080 15/09 A2990 RMK SLP125 T01500094,NA
LGA,1973-05-20T06:00:00Z,-73.8803,40.7794,60.08,44.96,57.33,190,7,NA,29.89,1012.2,10,NA,BKN,BKN,   ,   ,NA,NA,NA,NA,NA,NA,NA,NA,NA,NA,NA,60.08,METAR KLGA 200600Z 19007KT 10SM BKN/// BKN/// 16/07 A//// RMK SLP122 T01560072,NA
LGA,1973-05-20T07:00:00Z,-73.8803,40.7794,59.9,44.96,57.7,200,8,NA,29.89,1012.2,10,NA,BKN,OVC,   ,   ,7000,9000,NA,NA,NA,NA,NA,NA,NA,NA,NA,59.9,METAR KLGA 200700Z 20008KT 10SM BKN070 OVC090 16/07 A2989 RMK SLP122 T01550072,NA
LGA,1973-05-20T08:00:00Z,-73.8803,40.7794,59,47.84,66.43,160,7,NA,29.88,1011.9,10,NA,SCT,BKN,OVC,   ,7000,8000,10000,NA,-SHRA,NA,NA,NA,NA,NA,NA,59,METAR KLGA 200800Z 16007KT 10SM -SHRA SCT070 BKN080 OVC100 15/09 A2988 RMK / RB49 SLP119 T01500088,NA
LGA,1973-05-20T09:00:00Z,-73.8803,40.7794,57.92,48.92,71.9,100,4,NA,29.88,1011.9,9,NA,SCT,OVC,   ,   ,7000,9000,NA,NA,NA,NA,NA,NA,NA,NA,NA,57.92,METAR KLGA 200900Z 10004KT 9SM SCT070 OVC090 14/09 A2988 RMK / RE07/ SLP119 8/07/ T01440094 56003,NA
LGA,1973-05-20T10:00:00Z,-73.8803,40.7794,56.84,50,77.83,100,4,NA,29.88,1011.9,8,NA,BKN,OVC,   ,   ,7000,8000,NA,NA,-SHRA,NA,NA,NA,NA,NA,NA,56.84,METAR KLGA 201000Z 10004KT 8SM -SHRA BKN070 OVC080 14/10 A2988 RMK RB40 SLP119 T01380100,NA
LGA,1973-05-20T11:00:00Z,-73.8803,40.7794,56.84,50.9,80.47,50,7,NA,29.89,1012.2,8,NA,BKN,OVC,   ,   ,7000,12000,NA,NA,NA,NA,NA,NA,NA,NA,NA,56.84,METAR KLGA 201100Z 05007KT 8SM BKN070 OVC120 14/11 A2989 RMK RE15 SLP122 T01380105,NA
LGA,1973-05-20T12:00:00Z,-73.8803,40.7794,57.02,51.08,80.49,50,10,NA,29.89,1012.2,8,NA,SCT,BKN,OVC,   ,NA,NA,NA,NA,NA,NA,NA,NA,NA,NA,NA,57.02,METAR KLGA 201200Z 05010KT 8SM SCT/// BKN/// OVC/// 14/11 A//// RMK SLP122 60709 T01390106,NA
LGA,1973-05-20T13:00:00Z,-73.8803,40.7794,59,51.98,77.49,130,8,NA,29.87,1011.5,8,NA,SCT,BKN,OVC,   ,3000,8000,12000,NA,NA,NA,NA,NA,NA,NA,NA,59,METAR KLGA 201300Z 13008KT 8SM SCT030 BKN080 OVC120 15/11 A2987 RMK VALGA5/33 SLP115 T01500111,NA
LGA,1973-05-20T14:00:00Z,-73.8803,40.7794,60.98,51.98,72.22,120,7,NA,29.86,1011.2,10,NA,SCT,BKN,OVC,   ,3000,8000,12000,NA,NA,NA,NA,NA,NA,NA,NA,60.98,METAR KLGA 201400Z 12007KT 10SM SCT030 BKN080 OVC120 16/11 A2986 RMK VALGA5/33 SLP112 T01610111,NA
LGA,1973-05-20T15:00:00Z,-73.8803,40.7794,62.06,53.96,74.75,90,7,NA,29.86,1011.2,10,NA,SCT,BKN,OVC,   ,3000,8000,12000,NA,-SHRA,NA,NA,NA,NA,NA,NA,62.06,METAR KLGA 201500Z 09007KT 10SM -SHRA SCT030 BKN080 OVC120 17/12 A2986 RMK RB15E32B50 VALGA5/33 SLP112 8/57/ T01670122 56008,NA
LGA,1973-05-20T16:00:00Z,-73.8803,40.7794,59,53.96,83.34,140,9,NA,29.85,1010.8,10,NA,BKN,OVC,   ,   ,1600,3500,NA,NA,NA,NA,NA,NA,NA,NA,NA,59,METAR KLGA 201600Z 14009KT 10SM BKN016 OVC035 15/12 A2985 RMK RE03 SLP108 T01500122,NA
LGA,1973-05-20T17:00:00Z,-73.8803,40.7794,61.88,52.88,72.31,120,9,NA,29.82,1009.8,10,NA,BKN,OVC,   ,   ,2900,4000,NA,NA,-SHRA,NA,NA,NA,NA,NA,NA,61.88,METAR KLGA 201700Z 12009KT 10SM -SHRA BKN029 OVC040 17/12 A2982 RMK RB40 SLP098 T01660116,NA
LGA,1973-05-20T18:00:00Z,-73.8803,40.7794,59,53.06,80.64,110,10,0.03,29.79,1008.8,3,NA,BKN,OVC,   ,   ,NA,NA,NA,NA,-SHRA DZ,NA,NA,NA,NA,NA,NA,59,METAR KLGA 201800Z 11010KT 3SM -SHRA DZ BKN/// OVC/// 15/12 A//// RMK SLP088 P0003 T01500117,NA
LGA,1973-05-20T18:25:00Z,-73.8803,40.7794,NA,NA,NA,100,11,NA,29.78,NA,2.5,NA,SCT,BKN,OVC,NA,1300,1800,3000,NA,NA,NA,NA,NA,NA,NA,NA,NA,KLGA 201825Z AUTO 10011KT 2 1/2SM SCT013 BKN018 OVC030 A2978 RMK IEM_DS3505,NA
LGA,1973-05-20T19:00:00Z,-73.8803,40.7794,56.84,53.96,90.07,70,8,0.24,29.77,1008.1,2,NA,BKN,OVC,   ,   ,1300,2500,NA,NA,SHRA FG,NA,NA,NA,NA,NA,NA,56.84,METAR KLGA 201900Z 07008KT 2SM SHRA FG BKN013 OVC025 14/12 A2977 RMK LGA5/34 SLP081 P0024 T01380122,NA
LGA,1973-05-20T20:00:00Z,-73.8803,40.7794,59,55.94,89.57,100,10,0.06,29.75,1007.5,2,NA,BKN,OVC,   ,   ,800,1500,NA,NA,-SHRA FG,NA,NA,NA,NA,NA,NA,59,METAR KLGA 202000Z 10010KT 2SM -SHRA FG BKN008 OVC015 15/13 A2975 RMK LGA5/34 SLP075 P0006 T01500133,NA
LGA,1973-05-20T21:00:00Z,-73.8803,40.7794,59,55.94,89.57,140,10,0.01,29.73,1006.8,2,NA,BKN,OVC,   ,   ,600,900,NA,NA,-SHRA FG,NA,NA,NA,NA,NA,NA,59,METAR KLGA 202100Z 14010KT 2SM -SHRA FG BKN006 OVC009 15/13 A2973 RMK 17//LGA5/34 SLP068 P0001 T01500133 57020,NA
LGA,1973-05-20T22:00:00Z,-73.8803,40.7794,59,55.94,89.57,160,6,0.01,29.71,1006.1,6,NA,SCT,OVC,   ,   ,1500,4600,NA,NA,DZ,NA,NA,NA,NA,NA,NA,59,METAR KLGA 202200Z 16006KT 6SM DZ SCT015 OVC046 15/13 A2971 RMK RE45 VALGA5/34 SLP061 P0001 T01500133,NA
LGA,1973-05-20T23:00:00Z,-73.8803,40.7794,59.9,54.86,83.4,50,9,NA,29.69,1005.4,5,NA,BKN,OVC,   ,   ,1500,4500,NA,NA,-SHRA DZ,NA,NA,NA,NA,NA,NA,59.9,METAR KLGA 202300Z 05009KT 5SM -SHRA DZ BKN015 OVC045 16/13 A2969 RMK RB38 VALGA5/34 SLP054 T01550127,NA
LGA,1973-05-20T23:13:00Z,-73.8803,40.7794,NA,NA,NA,50,10,NA,29.68,NA,2.5,NA,SCT,BKN,OVC,NA,800,1500,3000,NA,NA,NA,NA,NA,NA,NA,NA,NA,KLGA 202313Z AUTO 05010KT 2 1/2SM SCT008 BKN015 OVC030 A2968 RMK IEM_DS3505,NA
LGA,1973-05-21T00:00:00Z,-73.8803,40.7794,55.04,53.06,93.02,50,11,NA,29.67,1004.7,2.5,NA,BKN,OVC,   ,   ,NA,NA,NA,NA,-SHRA DZ,NA,NA,NA,NA,NA,NA,55.04,METAR KLGA 210000Z 05011KT 21/2SM -SHRA DZ BKN/// OVC/// 13/12 A//// RMK SLP047 60031 T01280117,NA
LGA,1973-05-21T02:00:00Z,-73.8803,40.7794,54.86,53.96,96.77,30,9,0.02,29.64,1003.7,0.5,NA,BKN,OVC,   ,   ,300,800,NA,NA,-SHRA FG,NA,NA,NA,NA,NA,NA,54.86,METAR KLGA 210200Z 03009KT 1/2SM -SHRA FG BKN003 OVC008 13/12 A2964 RMK R22VR60& VALGA5/34 SLP037 P0002 T01270122,NA
LGA,1973-05-21T03:00:00Z,-73.8803,40.7794,55.04,53.96,96.14,40,6,0.07,29.63,1003.4,1.5,NA,BKN,OVC,   ,   ,400,1200,NA,NA,-RA FG,NA,NA,NA,NA,NA,NA,55.04,METAR KLGA 210300Z 04006KT 11/2SM -RA FG BKN004 OVC012 13/12 A2963 RMK SLP034 P0007 8/7// T01280122 54007,NA
LGA,1973-05-21T03:06:00Z,-73.8803,40.7794,NA,NA,NA,40,8,NA,29.62,NA,2,NA,BKN,BKN,OVC,NA,800,1500,2800,NA,NA,NA,NA,NA,NA,NA,NA,NA,KLGA 210306Z AUTO 04008KT 2SM BKN008 BKN015 OVC028 A2962 RMK IEM_DS3505,NA
LGA,1973-05-21T04:00:00Z,-73.8803,40.7794,55.94,53.96,93.05,10,5,0.06,29.6,1002.4,3,NA,BKN,BKN,OVC,   ,900,2500,4400,NA,-RA FG,NA,NA,NA,NA,NA,NA,55.94,METAR KLGA 210400Z 01005KT 3SM -RA FG BKN009 BKN025 OVC044 13/12 A2960 RMK SLP024 P0006 T01330122,NA
LGA,1973-05-21T06:00:00Z,-73.8803,40.7794,55.94,53.96,93.05,300,8,NA,29.58,1001.7,4,NA,BKN,BKN,OVC,   ,NA,NA,NA,NA,-DZ FG,NA,NA,NA,NA,NA,NA,55.94,METAR KLGA 210600Z 30008KT 4SM -DZ FG BKN/// BKN/// OVC/// 13/12 A//// RMK SLP017 60012 T01330122,NA
LGA,1973-05-21T07:00:00Z,-73.8803,40.7794,55.94,53.96,93.05,290,8,NA,29.67,1001.4,7,NA,BKN,BKN,OVC,   ,800,1000,2400,NA,NA,NA,NA,NA,NA,NA,NA,55.94,METAR KLGA 210700Z 29008KT 7SM BKN008 BKN010 OVC024 13/12 A2967 RMK LE30 SLP014 T01330122,NA
LGA,1973-05-21T09:00:00Z,-73.8803,40.7794,55.94,53.06,90.03,310,8,NA,29.55,1000.7,8,NA,BKN,BKN,OVC,   ,NA,NA,NA,NA,NA,NA,NA,NA,NA,NA,NA,55.94,METAR KLGA 210900Z 31008KT 8SM BKN/// BKN/// OVC/// 13/12 A//// RMK SLP007 T01330117,NA
LGA,1973-05-21T10:00:00Z,-73.8803,40.7794,54.86,52.88,93.01,300,8,NA,29.56,1001,8,NA,SCT,BKN,OVC,   ,800,1000,1300,NA,NA,NA,NA,NA,NA,NA,NA,54.86,METAR KLGA 211000Z 30008KT 8SM SCT008 BKN010 OVC013 13/12 A2956 RMK / VSBY LWR W SLP010 T01270116,NA
LGA,1973-05-21T12:00:00Z,-73.8803,40.7794,55.94,51.98,86.52,300,7,NA,29.57,1001.4,7,NA,BKN,BKN,OVC,   ,NA,NA,NA,NA,-RA,NA,NA,NA,NA,NA,NA,55.94,METAR KLGA 211200Z 30007KT 7SM -RA BKN/// BKN/// OVC/// 13/11 A//// RMK SLP014 70047 T01330111,NA
LGA,1973-05-21T14:00:00Z,-73.8803,40.7794,55.94,51.98,86.52,310,7,0.02,29.58,1001.7,4,NA,BKN,BKN,OVC,   ,1000,1800,2200,NA,-RA DZ,NA,NA,NA,NA,NA,NA,55.94,METAR KLGA 211400Z 31007KT 4SM -RA DZ BKN010 BKN018 OVC022 13/11 A2958 RMK RE04B30 SLP017 P0002 T01330111,NA
LGA,1973-05-21T14:35:00Z,-73.8803,40.7794,NA,NA,NA,360,7,NA,29.58,NA,4,NA,SCT,BKN,OVC,NA,800,1200,2300,NA,NA,NA,NA,NA,NA,NA,NA,NA,KLGA 211435Z AUTO 36007KT 4SM SCT008 BKN012 OVC023 A2958 RMK IEM_DS3505,NA
LGA,1973-05-21T15:00:00Z,-73.8803,40.7794,53.96,51.98,92.99,360,10,0.01,29.58,1001.7,4,NA,BKN,BKN,OVC,   ,1200,1500,2500,NA,-RA DZ,NA,NA,NA,NA,NA,NA,53.96,METAR KLGA 211500Z 36010KT 4SM -RA DZ BKN012 BKN015 OVC025 12/11 A2958 RMK / VA SLP017 P0001 8/5// T01220111 51003,NA
LGA,1973-05-21T17:00:00Z,-73.8803,40.7794,55.94,50.9,83.14,350,6,0.02,29.58,1001.7,6,NA,SCT,BKN,OVC,   ,800,1400,3000,NA,-RA FG,NA,NA,NA,NA,NA,NA,55.94,METAR KLGA 211700Z 35006KT 6SM -RA FG SCT008 BKN014 OVC030 13/11 A2958 RMK RE15 RB40 SLP017 P0002 T01330105,NA
LGA,1973-05-21T18:00:00Z,-73.8803,40.7794,55.04,51.98,89.4,320,6,0.03,29.59,1002,5,NA,SCT,BKN,OVC,   ,NA,NA,NA,NA,-RA FG,NA,NA,NA,NA,NA,NA,55.04,METAR KLGA 211800Z 32006KT 5SM -RA FG SCT/// BKN/// OVC/// 13/11 A//// RMK SLP020 P0003 60008 T01280111,NA
LGA,1973-05-21T19:00:00Z,-73.8803,40.7794,55.94,51.98,86.52,300,6,0.01,29.59,1002,6,NA,SCT,BKN,OVC,   ,1300,2500,5000,NA,-RA FG,NA,NA,NA,NA,NA,NA,55.94,METAR KLGA 211900Z 30006KT 6SM -RA FG SCT013 BKN025 OVC050 13/11 A2959 RMK SLP020 P0001 T01330111,NA
LGA,1973-05-21T20:00:00Z,-73.8803,40.7794,56.84,52.88,86.57,260,14,0.02,29.58,1001.7,6,NA,SCT,BKN,OVC,   ,1300,2300,5000,NA,-RA,NA,NA,NA,NA,NA,NA,56.84,METAR KLGA 212000Z 26014KT 6SM -RA SCT013 BKN023 OVC050 14/12 A2958 RMK VA SLP017 P0002 T01380116,NA
LGA,1973-05-21T21:00:00Z,-73.8803,40.7794,57.92,51.98,80.55,280,15,0.01,29.58,1001.7,5,NA,SCT,BKN,OVC,   ,1500,2300,5000,NA,-RA,NA,NA,NA,NA,NA,NA,57.92,METAR KLGA 212100Z 28015KT 5SM -RA SCT015 BKN023 OVC050 14/11 A//// RMK / 15//VA SLP017 P0001 T01440111 56003,NA
LGA,1973-05-21T22:00:00Z,-73.8803,40.7794,59,50,72.01,310,15,0.01,29.59,1002,7,NA,SCT,BKN,OVC,   ,1500,2500,5000,NA,NA,NA,NA,NA,NA,NA,NA,59,METAR KLGA 212200Z 31015KT 7SM SCT015 BKN025 OVC050 15/10 A2959 RMK RE29VA SLP020 P0001 T01500100,NA
LGA,1973-05-21T23:00:00Z,-73.8803,40.7794,56.84,50,77.83,310,15,0.01,29.61,1002.7,7,NA,SCT,BKN,OVC,   ,1500,2500,4500,NA,-SHRA,NA,NA,NA,NA,NA,NA,56.84,METAR KLGA 212300Z 31015KT 7SM -SHRA SCT015 BKN025 OVC045 14/10 A2961 RMK RB44VA SLP027 P0001 T01380100,NA
LGA,1973-05-21T23:17:00Z,-73.8803,40.7794,NA,NA,NA,300,14,NA,29.62,NA,7,NA,SCT,OVC,NA,NA,1500,4400,NA,NA,NA,NA,NA,NA,NA,NA,NA,NA,KLGA 212317Z AUTO 30014KT 7SM SCT015 OVC044 A2962 RMK IEM_DS3505,NA
LGA,1973-05-22T00:00:00Z,-73.8803,40.7794,57.02,48.92,74.27,310,13,0.01,29.62,1003.1,7,NA,SCT,SCT,OVC,   ,NA,NA,NA,NA,NA,NA,NA,NA,NA,NA,NA,57.02,METAR KLGA 220000Z 31013KT 7SM SCT/// SCT/// OVC/// 14/09 A//// RMK SLP031 P0001 60008 T01390094,NA
LGA,1973-05-22T01:00:00Z,-73.8803,40.7794,57.92,47.84,69.05,300,14,NA,29.64,1003.7,10,NA,SCT,SCT,OVC,   ,3000,5000,10000,NA,NA,NA,NA,NA,NA,NA,NA,57.92,METAR KLGA 220100Z 30014KT 10SM SCT030 SCT050 OVC100 14/09 A2964 RMK VA SLP037 T01440088,NA
LGA,1973-05-22T02:00:00Z,-73.8803,40.7794,57.92,47.84,69.05,310,17,NA,29.65,1004.1,10,NA,SCT,BKN,OVC,   ,3000,6000,7000,NA,NA,NA,NA,NA,NA,NA,NA,57.92,METAR KLGA 220200Z 31017KT 10SM SCT030 BKN060 OVC070 14/09 A2965 RMK VA SLP041 T01440088,NA
LGA,1973-05-22T03:00:00Z,-73.8803,40.7794,57.92,48.02,69.52,300,9,NA,29.64,1003.7,10,NA,SCT,OVC,   ,   ,6000,9000,NA,NA,NA,NA,NA,NA,NA,NA,NA,57.92,METAR KLGA 220300Z 30009KT 10SM SCT060 OVC090 14/09 A2964 RMK / VA SLP037 8/57/ T01440089 50007,NA
LGA,1973-05-22T04:00:00Z,-73.8803,40.7794,57.92,48.92,71.9,280,13,NA,29.65,1004.1,10,NA,SCT,BKN,   ,   ,3100,9000,NA,NA,NA,NA,NA,NA,NA,NA,NA,57.92,METAR KLGA 220400Z 28013KT 10SM SCT031 BKN090 14/09 A2965 RMK SLP041 T01440094,NA
LGA,1973-05-22T05:00:00Z,-73.8803,40.7794,56.84,47.84,71.79,280,10,NA,29.67,1004.7,15,NA,SCT,BKN,   ,   ,8000,11000,NA,NA,NA,NA,NA,NA,NA,NA,NA,56.84,METAR KLGA 220500Z 28010KT 15SM SCT080 BKN110 14/09 A2967 RMK SLP047 T01380088,NA
LGA,1973-05-22T06:00:00Z,-73.8803,40.7794,57.92,48.02,69.52,280,11,NA,29.68,1005.1,15,NA,BKN,BKN,   ,   ,NA,NA,NA,NA,NA,NA,NA,NA,NA,NA,NA,57.92,METAR KLGA 220600Z 28011KT 15SM BKN/// BKN/// 14/09 A//// RMK SLP051 T01440089,NA
LGA,1973-05-22T07:00:00Z,-73.8803,40.7794,57.92,48.92,71.9,280,11,NA,29.68,1005.1,15,NA,SCT,SCT,   ,   ,6000,8000,NA,NA,NA,NA,NA,NA,NA,NA,NA,57.92,METAR KLGA 220700Z 28011KT 15SM SCT060 SCT080 14/09 A2968 RMK SLP051 T01440094,NA
LGA,1973-05-22T08:00:00Z,-73.8803,40.7794,56.84,48.92,74.76,290,10,NA,29.68,1005.1,15,NA,SCT,   ,   ,   ,7000,NA,NA,NA,NA,NA,NA,NA,NA,NA,NA,56.84,METAR KLGA 220800Z 29010KT 15SM SCT070 14/09 A2968 RMK SLP051 T01380094,NA
LGA,1973-05-22T09:00:00Z,-73.8803,40.7794,55.94,48.92,77.23,300,4,NA,29.69,1005.4,15,NA,SCT,   ,   ,   ,8000,NA,NA,NA,NA,NA,NA,NA,NA,NA,NA,55.94,METAR KLGA 220900Z 30004KT 15SM SCT080 13/09 A2969 RMK / SLP054 8/030 T01330094 53003,NA
LGA,1973-05-22T10:00:00Z,-73.8803,40.7794,55.94,47.84,74.17,310,6,NA,29.7,1005.8,10,NA,CLR,   ,   ,   ,NA,NA,NA,NA,NA,NA,NA,NA,NA,NA,NA,55.94,METAR KLGA 221000Z 31006KT 10SM CLR 13/09 A2970 RMK FEW AC E VA SLP058 T01330088,NA
LGA,1973-05-22T11:00:00Z,-73.8803,40.7794,56.84,47.84,71.79,280,9,NA,29.72,1006.4,9,NA,CLR,   ,   ,   ,NA,NA,NA,NA,NA,NA,NA,NA,NA,NA,NA,56.84,METAR KLGA 221100Z 28009KT 9SM CLR 14/09 A2972 RMK VA SLP064 T01380088,NA
LGA,1973-05-22T12:00:00Z,-73.8803,40.7794,59,48.02,66.88,300,11,NA,29.72,1006.4,8,NA,CLR,   ,   ,   ,NA,NA,NA,NA,NA,NA,NA,NA,NA,NA,NA,59,METAR KLGA 221200Z 30011KT 8SM CLR 15/09 A//// RMK SLP064 70016 T01500089,NA
LGA,1973-05-22T13:00:00Z,-73.8803,40.7794,60.98,47.84,61.91,290,12,NA,29.72,1006.4,8,NA,CLR,   ,   ,   ,NA,NA,NA,NA,NA,NA,NA,NA,NA,NA,NA,60.98,METAR KLGA 221300Z 29012KT 8SM CLR 16/09 A2972 RMK FEW AC/VA SLP064 T01610088,NA
LGA,1973-05-22T14:00:00Z,-73.8803,40.7794,63.86,48.92,58.24,280,12,NA,29.73,1006.8,9,NA,SCT,SCT,   ,   ,4000,15000,NA,NA,NA,NA,NA,NA,NA,NA,NA,63.86,METAR KLGA 221400Z 28012KT 9SM SCT040 SCT150 18/09 A2973 RMK VA SLP068 T01770094,NA
LGA,1973-05-22T15:00:00Z,-73.8803,40.7794,66.02,44.96,46.52,300,18,NA,29.73,1006.8,15,NA,BKN,BKN,   ,   ,4500,15000,NA,NA,NA,NA,NA,NA,NA,NA,NA,66.02,METAR KLGA 221500Z 30018KT 15SM BKN045 BKN150 19/07 A2973 RMK VA/ SLP068 8/130 T01890072 51003,NA
LGA,1973-05-22T16:00:00Z,-73.8803,40.7794,68,41.9,38.64,290,17,NA,29.73,1006.8,15,25,SCT,   ,   ,   ,5000,NA,NA,NA,NA,NA,NA,NA,NA,NA,NA,68,METAR KLGA 221600Z 29017G25KT 15SM SCT050 20/06 A2973 RMK VA SLP068 T02000055,NA
LGA,1973-05-22T17:00:00Z,-73.8803,40.7794,69.98,43.88,38.96,290,16,NA,29.72,1006.4,15,23,SCT,   ,   ,   ,5000,NA,NA,NA,NA,NA,NA,NA,NA,NA,NA,69.98,METAR KLGA 221700Z 29016G23KT 15SM SCT050 21/07 A2972 RMK VA SLP064 T02110066,NA
LGA,1973-05-22T18:00:00Z,-73.8803,40.7794,69.98,42.08,36.36,320,14,NA,29.72,1006.4,15,NA,SCT,   ,   ,   ,5000,NA,NA,NA,NA,NA,NA,NA,NA,NA,NA,69.98,METAR KLGA 221800Z 32014KT 15SM SCT050 21/06 A2972 RMK VA SLP064 T02110056,NA
LGA,1973-05-22T19:00:00Z,-73.8803,40.7794,70.88,41.9,35.01,320,14,NA,29.71,1006.1,15,NA,SCT,   ,   ,   ,5000,NA,NA,NA,NA,NA,NA,NA,NA,NA,NA,69.31,METAR KLGA 221900Z 32014KT 15SM SCT050 22/06 A2971 RMK VALGA5/35 5/36 SLP061 T02160055,NA
LGA,1973-05-22T20:00:00Z,-73.8803,40.7794,71.96,42.98,35.19,300,11,NA,29.71,1006.1,15,NA,SCT,   ,   ,   ,5000,NA,NA,NA,NA,NA,NA,NA,NA,NA,NA,70.51,METAR KLGA 222000Z 30011KT 15SM SCT050 22/06 A2971 RMK LGA5/35 5/36 SLP061 T02220061,NA
LGA,1973-05-22T21:00:00Z,-73.8803,40.7794,71.96,41,32.6,280,14,NA,29.71,1006.1,15,NA,SCT,   ,   ,   ,5000,NA,NA,NA,NA,NA,NA,NA,NA,NA,NA,70.39,METAR KLGA 222100Z 28014KT 15SM SCT050 22/05 A2971 RMK 1100LGA5/36 SLP061 T02220050 56005,NA
LGA,1973-05-22T22:00:00Z,-73.8803,40.7794,71.96,39.92,31.26,300,13,NA,29.72,1006.4,15,NA,CLR,   ,   ,   ,NA,NA,NA,NA,NA,NA,NA,NA,NA,NA,NA,70.33,METAR KLGA 222200Z 30013KT 15SM CLR 22/04 A2972 RMK FEW CULGA C5/355/36 SLP064 T02220044,NA
LGA,1973-05-22T23:00:00Z,-73.8803,40.7794,70.88,41,33.82,310,13,NA,29.74,1007.1,15,NA,CLR,   ,   ,   ,NA,NA,NA,NA,NA,NA,NA,NA,NA,NA,NA,69.26,METAR KLGA 222300Z 31013KT 15SM CLR 22/05 A2974 RMK FEW CULGA5/36 SLP071 T02160050,NA
LGA,1973-05-23T00:00:00Z,-73.8803,40.7794,68,39.92,35.79,310,12,NA,29.76,1007.8,15,NA,CLR,   ,   ,   ,NA,NA,NA,NA,NA,NA,NA,NA,NA,NA,NA,68,METAR KLGA 230000Z 31012KT 15SM CLR 20/04 A//// RMK SLP078 60906 T02000044,NA
LGA,1973-05-23T01:00:00Z,-73.8803,40.7794,66.92,39.92,37.15,340,7,NA,29.78,1008.5,15,NA,CLR,   ,   ,   ,NA,NA,NA,NA,NA,NA,NA,NA,NA,NA,NA,66.92,METAR KLGA 230100Z 34007KT 15SM CLR 19/04 A2978 RMK FEW CI W/VALGA5/36 5/37 SLP085 T01940044,NA
LGA,1973-05-23T02:00:00Z,-73.8803,40.7794,64.94,41,41.49,360,5,NA,29.8,1009.1,15,NA,CLR,   ,   ,   ,NA,NA,NA,NA,NA,NA,NA,NA,NA,NA,NA,64.94,METAR KLGA 230200Z 36005KT 15SM CLR 18/05 A2980 RMK VALGA5/36 5/37 SLP091 T01830050,NA
LGA,1973-05-23T03:00:00Z,-73.8803,40.7794,64.94,39.92,39.79,350,8,NA,29.81,1009.5,15,NA,CLR,   ,   ,   ,NA,NA,NA,NA,NA,NA,NA,NA,NA,NA,NA,64.94,METAR KLGA 230300Z 35008KT 15SM CLR 18/04 A2981 RMK VALGA5/36 SLP095 T01830044 51017,NA
LGA,1973-05-23T04:00:00Z,-73.8803,40.7794,63.86,39.92,41.32,360,4,NA,29.82,1009.8,15,NA,CLR,   ,   ,   ,NA,NA,NA,NA,NA,NA,NA,NA,NA,NA,NA,63.86,METAR KLGA 230400Z 36004KT 15SM CLR 18/04 A2982 RMK LGA5/36 SLP098 T01770044,NA
LGA,1973-05-23T05:00:00Z,-73.8803,40.7794,60.98,41.9,49.38,80,5,NA,29.83,1010.2,15,NA,BKN,   ,   ,   ,8000,NA,NA,NA,NA,NA,NA,NA,NA,NA,NA,60.98,METAR KLGA 230500Z 08005KT 15SM BKN080 16/06 A2983 RMK LGA5/36 SLP102 T01610055,NA
LGA,1973-05-23T06:00:00Z,-73.8803,40.7794,59,42.98,55.24,40,5,NA,29.81,1009.5,15,NA,BKN,   ,   ,   ,NA,NA,NA,NA,NA,NA,NA,NA,NA,NA,NA,59,METAR KLGA 230600Z 04005KT 15SM BKN/// 15/06 A//// RMK SLP095 60906 T01500061,NA
LGA,1973-05-23T07:00:00Z,-73.8803,40.7794,55.94,44.96,66.52,50,5,NA,29.81,1009.5,15,NA,SCT,   ,   ,   ,9000,NA,NA,NA,NA,NA,NA,NA,NA,NA,NA,55.94,METAR KLGA 230700Z 05005KT 15SM SCT090 13/07 A2981 RMK LGA5/36 SLP095 T01330072,NA
LGA,1973-05-23T08:00:00Z,-73.8803,40.7794,55.94,46.94,71.7,60,7,NA,29.81,1009.5,15,NA,OVC,   ,   ,   ,10000,NA,NA,NA,NA,NA,NA,NA,NA,NA,NA,55.94,METAR KLGA 230800Z 06007KT 15SM OVC100 13/08 A2981 RMK BINOVCLGA5/36 SLP095 T01330083,NA
LGA,1973-05-23T09:00:00Z,-73.8803,40.7794,55.04,48.02,77.15,60,6,NA,29.81,1009.5,10,NA,OVC,   ,   ,   ,9000,NA,NA,NA,NA,NA,NA,NA,NA,NA,NA,55.04,METAR KLGA 230900Z 06006KT 10SM OVC090 13/09 A2981 RMK BINOVC 105/LGA5/36 SLP095 T01280089 54000,NA
LGA,1973-05-23T10:00:00Z,-73.8803,40.7794,54.86,48.92,80.32,50,6,NA,29.82,1009.8,10,NA,BKN,OVC,   ,   ,8000,10000,NA,NA,NA,NA,NA,NA,NA,NA,NA,54.86,METAR KLGA 231000Z 05006KT 10SM BKN080 OVC100 13/09 A2982 RMK VSBY LWR NWLGA5/36 SLP098 T01270094,NA
LGA,1973-05-23T11:00:00Z,-73.8803,40.7794,54.86,48.92,80.32,50,8,NA,29.83,1010.2,10,NA,SCT,OVC,   ,   ,6000,8000,NA,NA,NA,NA,NA,NA,NA,NA,NA,54.86,METAR KLGA 231100Z 05008KT 10SM SCT060 OVC080 13/09 A2983 RMK VSBY LWR NWLGA5/36 SLP102 T01270094,NA
LGA,1973-05-23T12:00:00Z,-73.8803,40.7794,55.04,48.02,77.15,50,9,NA,29.84,1010.5,10,NA,SCT,OVC,   ,   ,NA,NA,NA,NA,-SHRA,NA,NA,NA,NA,NA,NA,55.04,METAR KLGA 231200Z 05009KT 10SM -SHRA SCT/// OVC/// 13/09 A//// RMK SLP105 T01280089,NA
LGA,1973-05-23T13:00:00Z,-73.8803,40.7794,54.86,48.92,80.32,50,8,NA,29.84,1010.5,6,NA,BKN,OVC,   ,   ,6000,8000,NA,NA,-SHRA,NA,NA,NA,NA,NA,NA,54.86,METAR KLGA 231300Z 05008KT 6SM -SHRA BKN060 OVC080 13/09 A2984 RMK ALGA5/36 SLP105 T01270094,NA
LGA,1973-05-23T14:00:00Z,-73.8803,40.7794,53.96,48.92,83,50,8,0.04,29.84,1010.5,5,NA,BKN,OVC,   ,   ,6000,8000,NA,NA,-SHRA DZ,NA,NA,NA,NA,NA,NA,53.96,METAR KLGA 231400Z 05008KT 5SM -SHRA DZ BKN060 OVC080 12/09 A2984 RMK LGA5/36 SLP105 P0004 T01220094,NA
LGA,1973-05-23T15:00:00Z,-73.8803,40.7794,53.96,50,86.41,50,8,0.04,29.83,1010.2,4,NA,BKN,OVC,   ,   ,4600,7000,NA,NA,-RA DZ,NA,NA,NA,NA,NA,NA,53.96,METAR KLGA 231500Z 05008KT 4SM -RA DZ BKN046 OVC070 12/10 A2983 RMK / 157/LGA5/36 SLP102 P0004 T01220100 50002,NA
LGA,1973-05-23T16:00:00Z,-73.8803,40.7794,53.96,50.9,89.35,40,11,0.03,29.83,1010.2,3,NA,BKN,OVC,   ,   ,5000,7000,NA,NA,-RA FG,NA,NA,NA,NA,NA,NA,53.96,METAR KLGA 231600Z 04011KT 3SM -RA FG BKN050 OVC070 12/11 A2983 RMK LGA5/36 SLP102 P0003 T01220105,NA
LGA,1973-05-23T18:00:00Z,-73.8803,40.7794,55.04,53.06,93.02,50,10,0.05,29.78,1008.5,2,NA,BKN,OVC,   ,   ,NA,NA,NA,NA,-RA FG,NA,NA,NA,NA,NA,NA,55.04,METAR KLGA 231800Z 05010KT 2SM -RA FG BKN/// OVC/// 13/12 A//// RMK SLP085 P0005 60020 T01280117,NA
LGA,1973-05-23T20:28:00Z,-73.8803,40.7794,NA,NA,NA,50,8,NA,29.77,NA,2,NA,BKN,OVC,NA,NA,400,700,NA,NA,NA,NA,NA,NA,NA,NA,NA,NA,KLGA 232028Z AUTO 05008KT 2SM BKN004 OVC007 A2977 RMK IEM_DS3505,NA
LGA,1973-05-23T21:00:00Z,-73.8803,40.7794,55.04,53.06,93.02,30,9,0.08,29.77,1008.1,2,NA,SCT,BKN,OVC,   ,700,900,1300,NA,-RA FG,NA,NA,NA,NA,NA,NA,55.04,METAR KLGA 232100Z 03009KT 2SM -RA FG SCT007 BKN009 OVC013 13/12 A2977 RMK 17//LGA5/36 SLP081 P0008 T01280117 55003,NA
LGA,1973-05-23T22:00:00Z,-73.8803,40.7794,53.96,51.98,92.99,20,14,0.05,29.75,1007.5,2,NA,SCT,BKN,OVC,   ,300,800,1100,NA,-RA FG,NA,NA,NA,NA,NA,NA,53.96,METAR KLGA 232200Z 02014KT 2SM -RA FG SCT003 BKN008 OVC011 12/11 A2975 RMK / SFC VSBY 21/2LGA5/36 SLP075 P0005 T01220111,NA
LGA,1973-05-23T23:00:00Z,-73.8803,40.7794,53.96,51.98,92.99,40,14,0.02,29.75,1007.5,2,NA,SCT,OVC,   ,   ,400,800,NA,NA,-RA FG,NA,NA,NA,NA,NA,NA,53.96,METAR KLGA 232300Z 04014KT 2SM -RA FG SCT004 OVC008 12/11 A2975 RMK LGA5/36 SLP075 P0002 T01220111,NA
LGA,1973-05-23T23:25:00Z,-73.8803,40.7794,NA,NA,NA,40,14,NA,29.75,NA,2,NA,BKN,OVC,NA,NA,400,800,NA,NA,NA,NA,NA,NA,NA,NA,NA,NA,KLGA 232325Z AUTO 04014KT 2SM BKN004 OVC008 A2975 RMK IEM_DS3505,NA
LGA,1973-05-24T00:00:00Z,-73.8803,40.7794,53.06,51.08,92.96,50,13,0.03,29.75,1007.5,2,NA,BKN,OVC,   ,   ,NA,NA,NA,NA,-RA FG,NA,NA,NA,NA,NA,NA,53.06,METAR KLGA 240000Z 05013KT 2SM -RA FG BKN/// OVC/// 12/11 A//// RMK SLP075 P0003 60039 T01170106,NA
LGA,1973-05-24T01:00:00Z,-73.8803,40.7794,52.88,50.9,92.96,30,15,0.04,29.73,1006.8,4,22,BKN,OVC,   ,   ,400,700,NA,NA,-RA FG,NA,NA,NA,NA,NA,NA,52.88,METAR KLGA 240100Z 03015G22KT 4SM -RA FG BKN004 OVC007 12/11 A2973 RMK LGA5/36 SLP068 P0004 T01160105,NA
LGA,1973-05-24T02:00:00Z,-73.8803,40.7794,52.88,50.9,92.96,40,16,NA,29.73,1006.8,7,23,SCT,OVC,   ,   ,400,600,NA,NA,NA,NA,NA,NA,NA,NA,NA,52.88,METAR KLGA 240200Z 04016G23KT 7SM SCT004 OVC006 12/11 A2973 RMK RE10LGA5/36 SLP068 T01160105,NA
LGA,1973-05-24T03:00:00Z,-73.8803,40.7794,53.06,51.08,92.96,40,17,NA,29.74,1007.1,7,NA,OVC,   ,   ,   ,500,NA,NA,NA,NA,NA,NA,NA,NA,NA,NA,53.06,METAR KLGA 240300Z 04017KT 7SM OVC005 12/11 A2974 RMK / 17//LGA5/36 SLP071 T01170106 55003,NA
LGA,1973-05-24T04:00:00Z,-73.8803,40.7794,52.88,50.9,92.96,40,13,NA,29.75,1007.5,7,NA,SCT,OVC,   ,   ,600,800,NA,NA,NA,NA,NA,NA,NA,NA,NA,52.88,METAR KLGA 240400Z 04013KT 7SM SCT006 OVC008 12/11 A2975 RMK LGA5/36 SLP075 T01160105,NA
LGA,1973-05-24T05:00:00Z,-73.8803,40.7794,53.96,50.9,89.35,50,12,NA,29.75,1007.5,7,NA,BKN,OVC,   ,   ,600,800,NA,NA,NA,NA,NA,NA,NA,NA,NA,53.96,METAR KLGA 240500Z 05012KT 7SM BKN006 OVC008 12/11 A2975 RMK LGA5/36 SLP075 T01220105,NA
LGA,1973-05-24T06:00:00Z,-73.8803,40.7794,53.96,51.08,89.95,40,13,NA,29.74,1007.1,7,NA,BKN,OVC,   ,   ,NA,NA,NA,NA,NA,NA,NA,NA,NA,NA,NA,53.96,METAR KLGA 240600Z 04013KT 7SM BKN/// OVC/// 12/11 A//// RMK SLP071 60004 T01220106,NA
LGA,1973-05-24T07:00:00Z,-73.8803,40.7794,53.96,50.9,89.35,20,11,NA,29.73,1006.8,9,NA,BKN,OVC,   ,   ,900,1100,NA,NA,NA,NA,NA,NA,NA,NA,NA,53.96,METAR KLGA 240700Z 02011KT 9SM BKN009 OVC011 12/11 A2973 RMK WND 360V040LGA5/36 SLP068 T01220105,NA
LGA,1973-05-24T08:00:00Z,-73.8803,40.7794,53.96,50.9,89.35,40,13,NA,29.72,1006.4,8,NA,OVC,   ,   ,   ,900,NA,NA,NA,-DZ,NA,NA,NA,NA,NA,NA,53.96,METAR KLGA 240800Z 04013KT 8SM -DZ OVC009 12/11 A2972 RMK CIG RGD LB30LGA5/36 SLP064 T01220105,NA
LGA,1973-05-24T09:00:00Z,-73.8803,40.7794,53.96,51.08,89.95,30,9,NA,29.72,1006.4,7,NA,BKN,OVC,   ,   ,900,1100,NA,NA,-DZ,NA,NA,NA,NA,NA,NA,53.96,METAR KLGA 240900Z 03009KT 7SM -DZ BKN009 OVC011 12/11 A2972 RMK SLP064 T01220106,NA
LGA,1973-05-24T10:00:00Z,-73.8803,40.7794,53.96,51.98,92.99,20,8,NA,29.75,1007.5,2.5,NA,SCT,BKN,OVC,   ,800,900,1100,NA,-DZ FG,NA,NA,NA,NA,NA,NA,53.96,METAR KLGA 241000Z 02008KT 21/2SM -DZ FG SCT008 BKN009 OVC011 12/11 A2975 RMK WND 360V040LGA5/36 SLP075 T01220111,NA
LGA,1973-05-24T11:00:00Z,-73.8803,40.7794,54.86,51.98,89.98,40,10,0.01,29.76,1007.8,2.5,NA,BKN,OVC,   ,   ,600,1000,NA,NA,-DZ FG,NA,NA,NA,NA,NA,NA,54.86,METAR KLGA 241100Z 04010KT 21/2SM -DZ FG BKN006 OVC010 13/11 A2976 RMK CIG 5V7LGA5/36 SLP078 P0001 T01270111,NA
LGA,1973-05-24T12:00:00Z,-73.8803,40.7794,55.04,51.98,89.4,20,10,0.01,29.78,1008.5,3,NA,BKN,OVC,   ,   ,NA,NA,NA,NA,-DZRA FG,NA,NA,NA,NA,NA,NA,55.04,METAR KLGA 241200Z 02010KT 3SM -DZRA FG BKN/// OVC/// 13/11 A//// RMK SLP085 P0001 70067 T01280111,NA
LGA,1973-05-24T12:06:00Z,-73.8803,40.7794,NA,NA,NA,20,9,NA,29.79,NA,4,NA,BKN,OVC,NA,NA,800,1100,NA,NA,NA,NA,NA,NA,NA,NA,NA,NA,KLGA 241206Z AUTO 02009KT 4SM BKN008 OVC011 A2979 RMK IEM_DS3505,NA
LGA,1973-05-24T13:00:00Z,-73.8803,40.7794,55.94,51.98,86.52,50,10,NA,29.8,1009.1,5,NA,SCT,BKN,OVC,   ,900,1200,1500,NA,-DZ FG,NA,NA,NA,NA,NA,NA,55.94,METAR KLGA 241300Z 05010KT 5SM -DZ FG SCT009 BKN012 OVC015 13/11 A2980 RMK LGA5/36 SLP091 T01330111,NA
LGA,1973-05-24T13:52:00Z,-73.8803,40.7794,55.94,51.98,86.52,40,12,NA,29.81,1009.5,8,NA,SCT,OVC,NA,NA,1800,4300,NA,NA,NA,NA,NA,NA,NA,NA,NA,55.94,KLGA 241352Z AUTO 04012KT 8SM SCT018 OVC043 13/11 A2981 RMK SLP095 T01330111 IEM_DS3505,NA
LGA,1973-05-24T15:00:00Z,-73.8803,40.7794,57.02,51.08,80.49,50,11,NA,29.82,1009.8,8,NA,SCT,OVC,   ,   ,1400,4500,NA,NA,NA,NA,NA,NA,NA,NA,NA,57.02,METAR KLGA 241500Z 05011KT 8SM SCT014 OVC045 14/11 A2982 RMK 15//LGA5/36 SLP098 71401 T01390106 52014,NA
LGA,1973-05-24T16:00:00Z,-73.8803,40.7794,57.92,50.9,77.4,50,11,NA,29.83,1010.2,10,NA,SCT,OVC,   ,   ,1500,4600,NA,NA,NA,NA,NA,NA,NA,NA,NA,57.92,METAR KLGA 241600Z 05011KT 10SM SCT015 OVC046 14/11 A2983 RMK LGA5/36 SLP102 T01440105,NA
LGA,1973-05-24T17:00:00Z,-73.8803,40.7794,59,50,72.01,40,10,NA,29.84,1010.5,15,NA,SCT,OVC,   ,   ,3600,4900,NA,NA,NA,NA,NA,NA,NA,NA,NA,59,METAR KLGA 241700Z 04010KT 15SM SCT036 OVC049 15/10 A2984 RMK LGA5/36 SLP105 T01500100,NA
LGA,1973-05-24T18:00:00Z,-73.8803,40.7794,59,48.92,69.17,60,9,NA,29.84,1010.5,15,NA,BKN,OVC,   ,   ,NA,NA,NA,NA,NA,NA,NA,NA,NA,NA,NA,59,METAR KLGA 241800Z 06009KT 15SM BKN/// OVC/// 15/09 A//// RMK SLP105 T01500094,NA
LGA,1973-05-24T19:00:00Z,-73.8803,40.7794,60.98,50,67.11,60,10,NA,29.83,1010.2,15,NA,SCT,OVC,   ,   ,2300,4100,NA,NA,NA,NA,NA,NA,NA,NA,NA,60.98,METAR KLGA 241900Z 06010KT 15SM SCT023 OVC041 16/10 A2983 RMK LGA5/36 SLP102 T01610100,NA
LGA,1973-05-24T20:00:00Z,-73.8803,40.7794,59.9,48.92,66.99,50,10,NA,29.83,1010.2,15,NA,BKN,OVC,   ,   ,4400,7000,NA,NA,NA,NA,NA,NA,NA,NA,NA,59.9,METAR KLGA 242000Z 05010KT 15SM BKN044 OVC070 16/09 A2983 RMK VALGA5/36 SLP102 T01550094,NA
LGA,1973-05-24T21:00:00Z,-73.8803,40.7794,60.08,48.92,66.56,40,6,NA,29.83,1010.2,15,NA,BKN,OVC,   ,   ,4400,6000,NA,NA,NA,NA,NA,NA,NA,NA,NA,60.08,METAR KLGA 242100Z 04006KT 15SM BKN044 OVC060 16/09 A2983 RMK / VALGA5/36 SLP102 8/57/ T01560094 56003,NA
LGA,1973-05-24T22:00:00Z,-73.8803,40.7794,59.9,48.92,66.99,150,7,NA,29.83,1010.2,8,NA,SCT,BKN,OVC,   ,2000,4400,6000,NA,NA,NA,NA,NA,NA,NA,NA,59.9,METAR KLGA 242200Z 15007KT 8SM SCT020 BKN044 OVC060 16/09 A2983 RMK VALGA5/36 SLP102 T01550094,NA
LGA,1973-05-24T23:00:00Z,-73.8803,40.7794,56.84,48.92,74.76,140,9,NA,29.85,1010.8,10,NA,OVC,   ,   ,   ,4600,NA,NA,NA,NA,NA,NA,NA,NA,NA,NA,56.84,METAR KLGA 242300Z 14009KT 10SM OVC046 14/09 A2985 RMK VALGA5/36 SLP108 T01380094,NA
LGA,1973-05-25T00:00:00Z,-73.8803,40.7794,55.94,48.02,74.67,130,11,NA,29.86,1011.2,9,NA,OVC,   ,   ,   ,NA,NA,NA,NA,NA,NA,NA,NA,NA,NA,NA,55.94,METAR KLGA 250000Z 13011KT 9SM OVC/// 13/09 A//// RMK SLP112 T01330089,NA
LGA,1973-05-25T01:00:00Z,-73.8803,40.7794,55.94,47.84,74.17,80,8,NA,29.87,1011.5,8,NA,OVC,   ,   ,   ,4600,NA,NA,NA,-RA,NA,NA,NA,NA,NA,NA,55.94,METAR KLGA 250100Z 08008KT 8SM -RA OVC046 13/09 A2987 RMK / RB30LGA5/36 SLP115 T01330088,NA
LGA,1973-05-25T02:00:00Z,-73.8803,40.7794,55.94,46.94,71.7,80,11,NA,29.88,1011.9,10,NA,OVC,   ,   ,   ,5000,NA,NA,NA,NA,NA,NA,NA,NA,NA,NA,55.94,METAR KLGA 250200Z 08011KT 10SM OVC050 13/08 A2988 RMK RE10LGA5/36 SLP119 T01330083,NA
LGA,1973-05-25T03:00:00Z,-73.8803,40.7794,55.04,48.02,77.15,70,8,NA,29.88,1011.9,9,NA,OVC,   ,   ,   ,NA,NA,NA,NA,-RA,NA,NA,NA,NA,NA,NA,55.04,METAR KLGA 250300Z 07008KT 9SM -RA OVC/// 13/09 A//// RMK SLP119 T01280089,NA
LGA,1973-05-25T04:00:00Z,-73.8803,40.7794,53.96,47.84,79.71,60,8,NA,29.88,1011.9,9,NA,OVC,   ,   ,   ,6000,NA,NA,NA,-RA,NA,NA,NA,NA,NA,NA,53.96,METAR KLGA 250400Z 06008KT 9SM -RA OVC060 12/09 A2988 RMK LGA5/36 SLP119 T01220088,NA
LGA,1973-05-25T05:00:00Z,-73.8803,40.7794,52.88,47.84,82.93,60,8,0.01,29.88,1011.9,9,NA,BKN,OVC,   ,   ,5000,7000,NA,NA,-RA,NA,NA,NA,NA,NA,NA,52.88,METAR KLGA 250500Z 06008KT 9SM -RA BKN050 OVC070 12/09 A2988 RMK LGA5/36 SLP119 P0001 T01160088,NA
LGA,1973-05-25T06:00:00Z,-73.8803,40.7794,53.06,48.92,85.78,50,10,0.01,29.87,1011.5,9,NA,BKN,OVC,   ,   ,NA,NA,NA,NA,-RA,NA,NA,NA,NA,NA,NA,53.06,METAR KLGA 250600Z 05010KT 9SM -RA BKN/// OVC/// 12/09 A//// RMK SLP115 P0001 T01170094,NA
LGA,1973-05-25T07:00:00Z,-73.8803,40.7794,52.88,48.92,86.35,50,9,NA,29.88,1011.9,10,NA,SCT,OVC,   ,   ,1300,5000,NA,NA,-RA,NA,NA,NA,NA,NA,NA,52.88,METAR KLGA 250700Z 05009KT 10SM -RA SCT013 OVC050 12/09 A2988 RMK LGA5/36 SLP119 T01160094,NA
LGA,1973-05-25T08:00:00Z,-73.8803,40.7794,52.88,50,89.9,50,10,NA,29.87,1011.5,7,NA,SCT,BKN,OVC,   ,1200,5000,7000,NA,-RA,NA,NA,NA,NA,NA,NA,52.88,METAR KLGA 250800Z 05010KT 7SM -RA SCT012 BKN050 OVC070 12/10 A2987 RMK LGA5/36 SLP115 T01160100,NA
LGA,1973-05-25T09:00:00Z,-73.8803,40.7794,53.06,48.92,85.78,60,17,0.01,29.87,1011.5,9,NA,BKN,BKN,OVC,   ,1500,5000,7000,NA,NA,NA,NA,NA,NA,NA,NA,53.06,METAR KLGA 250900Z 06017KT 9SM BKN015 BKN050 OVC070 12/09 A2987 RMK / RE40LGA5/36 SLP115 P0001 8/57/ T01170094 50000,NA
LGA,1973-05-25T10:00:00Z,-73.8803,40.7794,51.98,46.94,82.87,50,17,NA,29.89,1012.2,10,NA,BKN,OVC,   ,   ,1900,5000,NA,NA,NA,NA,NA,NA,NA,NA,NA,51.98,METAR KLGA 251000Z 05017KT 10SM BKN019 OVC050 11/08 A2989 RMK LGA5/36 SLP122 T01110083,NA
LGA,1973-05-25T11:00:00Z,-73.8803,40.7794,51.98,46.94,82.87,60,10,NA,29.9,1012.5,10,NA,BKN,OVC,   ,   ,1500,5000,NA,NA,NA,NA,NA,NA,NA,NA,NA,51.98,METAR KLGA 251100Z 06010KT 10SM BKN015 OVC050 11/08 A2990 RMK VALGA5/36 SLP125 T01110083,NA
LGA,1973-05-25T12:00:00Z,-73.8803,40.7794,51.98,46.94,82.87,60,11,NA,29.9,1012.5,10,NA,BKN,OVC,   ,   ,NA,NA,NA,NA,NA,NA,NA,NA,NA,NA,NA,51.98,METAR KLGA 251200Z 06011KT 10SM BKN/// OVC/// 11/08 A//// RMK SLP125 70012 T01110083,NA
LGA,1973-05-25T13:00:00Z,-73.8803,40.7794,52.88,46.94,80.17,40,11,NA,29.9,1012.5,15,NA,BKN,   ,   ,   ,1600,NA,NA,NA,-SHRA,NA,NA,NA,NA,NA,NA,52.88,METAR KLGA 251300Z 04011KT 15SM -SHRA BKN016 12/08 A2990 RMK RB40LGA5/36 SLP125 T01160083,NA
LGA,1973-05-25T14:00:00Z,-73.8803,40.7794,52.88,46.94,80.17,50,16,NA,29.91,1012.9,15,NA,BKN,OVC,   ,   ,1500,1800,NA,NA,-SHRA,NA,NA,NA,NA,NA,NA,52.88,METAR KLGA 251400Z 05016KT 15SM -SHRA BKN015 OVC018 12/08 A2991 RMK LGA5/36 SLP129 T01160083,NA
LGA,1973-05-25T15:00:00Z,-73.8803,40.7794,53.96,48.02,80.25,50,18,NA,29.9,1012.5,15,NA,BKN,OVC,   ,   ,1500,1800,NA,NA,-SHRA,NA,NA,NA,NA,NA,NA,53.96,METAR KLGA 251500Z 05018KT 15SM -SHRA BKN015 OVC018 12/09 A2990 RMK 15//LGA5/36 SLP125 T01220089 50000,NA
LGA,1973-05-25T16:00:00Z,-73.8803,40.7794,53.96,47.84,79.71,60,14,NA,29.9,1012.5,15,NA,BKN,OVC,   ,   ,1600,2000,NA,NA,NA,NA,NA,NA,NA,NA,NA,53.96,METAR KLGA 251600Z 06014KT 15SM BKN016 OVC020 12/09 A2990 RMK RE05LGA5/36 SLP125 T01220088,NA
LGA,1973-05-25T17:00:00Z,-73.8803,40.7794,55.94,47.84,74.17,70,13,NA,29.89,1012.2,15,NA,BKN,OVC,   ,   ,2000,3000,NA,NA,-SHRA,NA,NA,NA,NA,NA,NA,55.94,METAR KLGA 251700Z 07013KT 15SM -SHRA BKN020 OVC030 13/09 A2989 RMK RB47LGA5/36 SLP122 T01330088,NA
LGA,1973-05-25T18:00:00Z,-73.8803,40.7794,57.02,48.02,71.81,50,16,NA,29.89,1012.2,10,NA,BKN,OVC,   ,   ,NA,NA,NA,NA,NA,NA,NA,NA,NA,NA,NA,57.02,METAR KLGA 251800Z 05016KT 10SM BKN/// OVC/// 14/09 A//// RMK SLP122 T01390089,NA
LGA,1973-05-25T19:00:00Z,-73.8803,40.7794,55.94,47.84,74.17,50,15,NA,29.89,1012.2,10,NA,SCT,OVC,   ,   ,2000,2800,NA,NA,NA,NA,NA,NA,NA,NA,NA,55.94,METAR KLGA 251900Z 05015KT 10SM SCT020 OVC028 13/09 A2989 RMK LGA5/36 VA SLP122 T01330088,NA
LGA,1973-05-25T20:00:00Z,-73.8803,40.7794,56.84,48.92,74.76,50,15,NA,29.88,1011.9,10,NA,SCT,OVC,   ,   ,2000,2600,NA,NA,NA,NA,NA,NA,NA,NA,NA,56.84,METAR KLGA 252000Z 05015KT 10SM SCT020 OVC026 14/09 A2988 RMK / UA100 VALGA5/36 SLP119 T01380094,NA
LGA,1973-05-25T21:00:00Z,-73.8803,40.7794,57.02,48.92,74.27,50,14,NA,29.89,1012.2,9,NA,SCT,OVC,   ,   ,2000,2600,NA,NA,NA,NA,NA,NA,NA,NA,NA,57.02,METAR KLGA 252100Z 05014KT 9SM SCT020 OVC026 14/09 A2989 RMK VALGA5/36 SLP122 8/5// T01390094 55000,NA
LGA,1973-05-25T22:00:00Z,-73.8803,40.7794,56.84,47.84,71.79,30,15,NA,29.89,1012.2,9,NA,SCT,OVC,   ,   ,2000,2800,NA,NA,NA,NA,NA,NA,NA,NA,NA,56.84,METAR KLGA 252200Z 03015KT 9SM SCT020 OVC028 14/09 A2989 RMK VALGA5/36 SLP122 T01380088,NA
LGA,1973-05-25T23:00:00Z,-73.8803,40.7794,55.94,47.84,74.17,40,14,NA,29.91,1012.9,9,NA,SCT,OVC,   ,   ,2000,2900,NA,NA,NA,NA,NA,NA,NA,NA,NA,55.94,METAR KLGA 252300Z 04014KT 9SM SCT020 OVC029 13/09 A2991 RMK VALGA5/36 SLP129 T01330088,NA
LGA,1973-05-26T00:00:00Z,-73.8803,40.7794,55.94,48.02,74.67,40,14,NA,29.91,1012.9,9,NA,SCT,OVC,   ,   ,NA,NA,NA,NA,NA,NA,NA,NA,NA,NA,NA,55.94,METAR KLGA 260000Z 04014KT 9SM SCT/// OVC/// 13/09 A//// RMK SLP129 T01330089,NA
LGA,1973-05-26T01:00:00Z,-73.8803,40.7794,53.96,48.92,83,60,12,NA,29.9,1012.5,7,NA,SCT,BKN,OVC,   ,1500,3000,5000,NA,-RA,NA,NA,NA,NA,NA,NA,53.96,METAR KLGA 260100Z 06012KT 7SM -RA SCT015 BKN030 OVC050 12/09 A2990 RMK RB09LGA5/36 SLP125 T01220094,NA
LGA,1973-05-26T02:00:00Z,-73.8803,40.7794,54.86,47.84,77.14,40,13,NA,29.92,1013.2,10,NA,SCT,SCT,OVC,   ,1500,3000,6000,NA,NA,NA,NA,NA,NA,NA,NA,54.86,METAR KLGA 260200Z 04013KT 10SM SCT015 SCT030 OVC060 13/09 A2992 RMK RE12LGA5/36 SLP132 T01270088,NA
LGA,1973-05-26T03:00:00Z,-73.8803,40.7794,53.96,46.94,77.06,60,11,NA,29.92,1013.2,10,NA,SCT,OVC,   ,   ,3000,7000,NA,NA,NA,NA,NA,NA,NA,NA,NA,53.96,METAR KLGA 260300Z 06011KT 10SM SCT030 OVC070 12/08 A2992 RMK 157/LGA5/36 SLP132 T01220083 53003,NA
LGA,1973-05-26T04:00:00Z,-73.8803,40.7794,52.88,45.86,76.96,50,12,NA,29.93,1013.5,10,NA,SCT,OVC,   ,   ,3000,7000,NA,NA,NA,NA,NA,NA,NA,NA,NA,52.88,METAR KLGA 260400Z 05012KT 10SM SCT030 OVC070 12/08 A2993 RMK LGA5/36 SLP135 T01160077,NA
LGA,1973-05-26T05:00:00Z,-73.8803,40.7794,52.88,44.96,74.38,40,13,NA,29.95,1014.2,8,NA,BKN,OVC,   ,   ,2000,5000,NA,NA,NA,NA,NA,NA,NA,NA,NA,52.88,METAR KLGA 260500Z 04013KT 8SM BKN020 OVC050 12/07 A2995 RMK LGA5/36 SLP142 T01160072,NA
LGA,1973-05-26T06:00:00Z,-73.8803,40.7794,53.06,44.96,73.89,60,14,NA,29.94,1013.9,9,NA,BKN,OVC,   ,   ,NA,NA,NA,NA,NA,NA,NA,NA,NA,NA,NA,53.06,METAR KLGA 260600Z 06014KT 9SM BKN/// OVC/// 12/07 A//// RMK SLP139 T01170072,NA
LGA,1973-05-26T07:00:00Z,-73.8803,40.7794,51.98,44.96,76.88,60,13,NA,29.93,1013.5,10,NA,BKN,OVC,   ,   ,2000,7000,NA,NA,NA,NA,NA,NA,NA,NA,NA,51.98,METAR KLGA 260700Z 06013KT 10SM BKN020 OVC070 11/07 A2993 RMK LGA5/36 SLP135 T01110072,NA
LGA,1973-05-26T08:00:00Z,-73.8803,40.7794,51.98,44.96,76.88,40,11,NA,29.94,1013.9,8,NA,BKN,OVC,   ,   ,1600,2600,NA,NA,NA,NA,NA,NA,NA,NA,NA,51.98,METAR KLGA 260800Z 04011KT 8SM BKN016 OVC026 11/07 A2994 RMK LGA5/36 SLP139 T01110072,NA
LGA,1973-05-26T09:00:00Z,-73.8803,40.7794,51.98,44.06,74.29,20,11,NA,29.95,1014.2,8,NA,SCT,OVC,   ,   ,1800,2300,NA,NA,NA,NA,NA,NA,NA,NA,NA,51.98,METAR KLGA 260900Z 02011KT 8SM SCT018 OVC023 11/07 A2995 RMK / LGA5/36 SLP142 8/5// T01110067 53003,NA
LGA,1973-05-26T10:00:00Z,-73.8803,40.7794,50.9,43.88,76.79,40,10,NA,29.97,1014.9,9,NA,SCT,BKN,OVC,   ,1700,2200,8000,NA,NA,NA,NA,NA,NA,NA,NA,50.9,METAR KLGA 261000Z 04010KT 9SM SCT017 BKN022 OVC080 11/07 A2997 RMK LGA5/36 SLP149 T01050066,NA
LGA,1973-05-26T11:00:00Z,-73.8803,40.7794,50.9,42.98,74.18,40,10,NA,29.98,1015.2,10,NA,OVC,   ,   ,   ,2200,NA,NA,NA,NA,NA,NA,NA,NA,NA,NA,50.9,METAR KLGA 261100Z 04010KT 10SM OVC022 11/06 A2998 RMK BINOVCLGA 5/38 13-31 CLSD5/36 SLP152 T01050061,NA
LGA,1973-05-26T12:00:00Z,-73.8803,40.7794,51.98,44.06,74.29,40,13,NA,30,1015.9,10,NA,BKN,OVC,   ,   ,NA,NA,NA,NA,NA,NA,NA,NA,NA,NA,NA,51.98,METAR KLGA 261200Z 04013KT 10SM BKN/// OVC/// 11/07 A//// RMK SLP159 T01110067,NA
LGA,1973-05-26T13:00:00Z,-73.8803,40.7794,53.96,44.96,71.49,50,11,NA,30,1015.9,15,NA,BKN,BKN,   ,   ,2200,8000,NA,NA,NA,NA,NA,NA,NA,NA,NA,53.96,METAR KLGA 261300Z 05011KT 15SM BKN022 BKN080 12/07 A3000 RMK VALGA5/36 5/38 SLP159 T01220072,NA
LGA,1973-05-26T14:00:00Z,-73.8803,40.7794,54.86,43.88,66.39,40,13,NA,30.01,1016.3,15,NA,BKN,   ,   ,   ,2400,NA,NA,NA,NA,NA,NA,NA,NA,NA,NA,54.86,METAR KLGA 261400Z 04013KT 15SM BKN024 13/07 A3001 RMK VALGA5/36 5/38 SLP163 T01270066,NA
LGA,1973-05-26T15:00:00Z,-73.8803,40.7794,55.94,44.06,64.28,50,13,NA,30,1015.9,15,NA,BKN,BKN,   ,   ,2800,8000,NA,NA,NA,NA,NA,NA,NA,NA,NA,55.94,METAR KLGA 261500Z 05013KT 15SM BKN028 BKN080 13/07 A3000 RMK / 1540VALGA5/36 5/38 SLP159 T01330067 50000,NA
LGA,1973-05-26T16:00:00Z,-73.8803,40.7794,56.84,44.96,64.39,60,10,NA,29.99,1015.6,15,NA,BKN,   ,   ,   ,2800,NA,NA,NA,NA,NA,NA,NA,NA,NA,NA,56.84,METAR KLGA 261600Z 06010KT 15SM BKN028 14/07 A2999 RMK VALGA5/36 5/38 SLP156 T01380072,NA
LGA,1973-05-26T17:00:00Z,-73.8803,40.7794,57.92,44.96,61.93,40,9,NA,30,1015.9,10,NA,BKN,   ,   ,   ,3000,NA,NA,NA,NA,NA,NA,NA,NA,NA,NA,57.92,METAR KLGA 261700Z 04009KT 10SM BKN030 14/07 A3000 RMK VALGA5/36 5/38 SLP159 T01440072,NA
LGA,1973-05-26T18:00:00Z,-73.8803,40.7794,57.92,44.96,61.93,30,8,NA,29.99,1015.6,10,NA,OVC,   ,   ,   ,NA,NA,NA,NA,NA,NA,NA,NA,NA,NA,NA,57.92,METAR KLGA 261800Z 03008KT 10SM OVC/// 14/07 A//// RMK SLP156 T01440072,NA
LGA,1973-05-26T19:00:00Z,-73.8803,40.7794,56.84,44.96,64.39,50,8,NA,29.99,1015.6,10,NA,OVC,   ,   ,   ,3000,NA,NA,NA,NA,NA,NA,NA,NA,NA,NA,56.84,METAR KLGA 261900Z 05008KT 10SM OVC030 14/07 A2999 RMK VALGA5/36 SLP156 T01380072,NA
LGA,1973-05-26T20:00:00Z,-73.8803,40.7794,55.94,45.86,68.83,170,9,NA,29.98,1015.2,10,NA,OVC,   ,   ,   ,3400,NA,NA,NA,NA,NA,NA,NA,NA,NA,NA,55.94,METAR KLGA 262000Z 17009KT 10SM OVC034 13/08 A2998 RMK LGA5/36 SLP152 T01330077,NA
LGA,1973-05-26T20:10:00Z,-73.8803,40.7794,NA,NA,NA,140,13,NA,29.98,NA,12,NA,BKN,OVC,NA,NA,2200,3300,NA,NA,NA,NA,NA,NA,NA,NA,NA,NA,KLGA 262010Z AUTO 14013KT 12SM BKN022 OVC033 A2998 RMK IEM_DS3505,NA
LGA,1973-05-26T21:00:00Z,-73.8803,40.7794,55.94,46.04,69.3,160,9,NA,29.99,1015.6,10,NA,BKN,OVC,   ,   ,2200,2800,NA,NA,NA,NA,NA,NA,NA,NA,NA,55.94,METAR KLGA 262100Z 16009KT 10SM BKN022 OVC028 13/08 A2999 RMK 15//LGA5/36 SLP156 T01330078 55000,NA
LGA,1973-05-26T22:00:00Z,-73.8803,40.7794,55.94,44.96,66.52,150,11,NA,29.99,1015.6,10,NA,SCT,OVC,   ,   ,2000,2800,NA,NA,NA,NA,NA,NA,NA,NA,NA,55.94,METAR KLGA 262200Z 15011KT 10SM SCT020 OVC028 13/07 A2999 RMK LGA5/36 SLP156 T01330072,NA
LGA,1973-05-26T23:00:00Z,-73.8803,40.7794,54.86,43.88,66.39,160,8,NA,30.01,1016.3,15,NA,BKN,OVC,   ,   ,2300,3300,NA,NA,NA,NA,NA,NA,NA,NA,NA,54.86,METAR KLGA 262300Z 16008KT 15SM BKN023 OVC033 13/07 A3001 RMK LGA5/36 SLP163 T01270066,NA
LGA,1973-05-26T23:26:00Z,-73.8803,40.7794,NA,NA,NA,130,10,NA,30,NA,15,NA,SCT,OVC,NA,NA,2500,3100,NA,NA,NA,NA,NA,NA,NA,NA,NA,NA,KLGA 262326Z AUTO 13010KT 15SM SCT025 OVC031 A3000 RMK IEM_DS3505,NA
LGA,1973-05-27T00:00:00Z,-73.8803,40.7794,53.96,42.98,66.28,130,9,NA,30,1015.9,15,NA,SCT,OVC,   ,   ,NA,NA,NA,NA,NA,NA,NA,NA,NA,NA,NA,53.96,METAR KLGA 270000Z 13009KT 15SM SCT/// OVC/// 12/06 A//// RMK SLP159 T01220061,NA
LGA,1973-05-27T02:00:00Z,-73.8803,40.7794,52.88,43.88,71.38,130,12,NA,30.04,1017.3,15,NA,SCT,OVC,   ,   ,2500,3200,NA,NA,NA,NA,NA,NA,NA,NA,NA,52.88,METAR KLGA 270200Z 13012KT 15SM SCT025 OVC032 12/07 A3004 RMK LGA5/36 SLP173 T01160066,NA
LGA,1973-05-27T03:00:00Z,-73.8803,40.7794,53.06,44.06,71.4,150,11,NA,30.04,1017.3,15,NA,SCT,OVC,   ,   ,2500,3300,NA,NA,NA,NA,NA,NA,NA,NA,NA,53.06,METAR KLGA 270300Z 15011KT 15SM SCT025 OVC033 12/07 A3004 RMK 15//LGA5/36 SLP173 T01170067 51014,NA
LGA,1973-05-27T04:00:00Z,-73.8803,40.7794,52.88,44.96,74.38,110,13,NA,30.03,1016.9,15,NA,SCT,BKN,OVC,   ,2400,3000,5000,NA,NA,NA,NA,NA,NA,NA,NA,52.88,METAR KLGA 270400Z 11013KT 15SM SCT024 BKN030 OVC050 12/07 A3003 RMK %VLGA5/36 SLP169 T01160072,NA
LGA,1973-05-27T05:00:00Z,-73.8803,40.7794,52.88,43.88,71.38,120,9,NA,30.03,1016.9,15,NA,SCT,BKN,OVC,   ,1600,2000,3000,NA,NA,NA,NA,NA,NA,NA,NA,52.88,METAR KLGA 270500Z 12009KT 15SM SCT016 BKN020 OVC030 12/07 A3003 RMK LGA5/36 SLP169 T01160066,NA
LGA,1973-05-27T06:00:00Z,-73.8803,40.7794,51.98,44.06,74.29,130,7,NA,30.03,1016.9,15,NA,SCT,BKN,OVC,   ,NA,NA,NA,NA,NA,NA,NA,NA,NA,NA,NA,51.98,METAR KLGA 270600Z 13007KT 15SM SCT/// BKN/// OVC/// 11/07 A//// RMK SLP169 T01110067,NA
LGA,1973-05-27T08:00:00Z,-73.8803,40.7794,50.9,44.96,80.01,140,6,0.01,30.02,1016.6,7,NA,BKN,OVC,   ,   ,2200,4400,NA,NA,-SHRA,NA,NA,NA,NA,NA,NA,50.9,METAR KLGA 270800Z 14006KT 7SM -SHRA BKN022 OVC044 11/07 A3002 RMK LGA5/36 SLP166 P0001 T01050072,NA
LGA,1973-05-27T09:00:00Z,-73.8803,40.7794,50,46.04,86.19,120,4,0.01,30.03,1016.9,7,NA,BKN,OVC,   ,   ,2800,4400,NA,NA,NA,NA,NA,NA,NA,NA,NA,48.44,METAR KLGA 270900Z 12004KT 7SM BKN028 OVC044 10/08 A3003 RMK / RE14 LGA5/36 SLP169 P0001 8/5// T01000078 55000,NA
LGA,1973-05-27T10:00:00Z,-73.8803,40.7794,50.9,46.94,86.24,70,6,NA,30.03,1016.9,7,NA,SCT,OVC,   ,   ,2500,3900,NA,NA,NA,NA,NA,NA,NA,NA,NA,50.9,METAR KLGA 271000Z 07006KT 7SM SCT025 OVC039 11/08 A3003 RMK LGA5/36 SLP169 T01050083,NA
LGA,1973-05-27T10:25:00Z,-73.8803,40.7794,NA,NA,NA,80,6,NA,30.03,NA,7,NA,BKN,OVC,NA,NA,1400,3600,NA,NA,NA,NA,NA,NA,NA,NA,NA,NA,KLGA 271025Z AUTO 08006KT 7SM BKN014 OVC036 A3003 RMK IEM_DS3505,NA
LGA,1973-05-27T11:00:00Z,-73.8803,40.7794,50.9,45.86,82.79,70,7,NA,30.04,1017.3,7,NA,SCT,BKN,OVC,   ,1000,1900,3700,NA,NA,NA,NA,NA,NA,NA,NA,50.9,METAR KLGA 271100Z 07007KT 7SM SCT010 BKN019 OVC037 11/08 A3004 RMK LGA5/36 SLP173 T01050077,NA
LGA,1973-05-27T12:00:00Z,-73.8803,40.7794,51.98,46.94,82.87,70,6,NA,30.05,1017.6,8,NA,SCT,BKN,OVC,   ,NA,NA,NA,NA,NA,NA,NA,NA,NA,NA,NA,51.98,METAR KLGA 271200Z 07006KT 8SM SCT/// BKN/// OVC/// 11/08 A//// RMK SLP176 T01110083,NA
LGA,1973-05-27T12:27:00Z,-73.8803,40.7794,NA,NA,NA,130,6,NA,30.06,NA,8,NA,BKN,BKN,OVC,NA,1900,3000,5900,NA,NA,NA,NA,NA,NA,NA,NA,NA,KLGA 271227Z AUTO 13006KT 8SM BKN019 BKN030 OVC059 A3006 RMK IEM_DS3505,NA
LGA,1973-05-27T13:00:00Z,-73.8803,40.7794,51.98,45.86,79.55,140,9,NA,30.06,1018,10,NA,BKN,BKN,OVC,   ,1500,5000,9000,NA,NA,NA,NA,NA,NA,NA,NA,51.98,METAR KLGA 271300Z 14009KT 10SM BKN015 BKN050 OVC090 11/08 A3006 RMK LGA5/36 SLP180 T01110077,NA
LGA,1973-05-27T14:00:00Z,-73.8803,40.7794,52.88,44.96,74.38,90,9,NA,30.06,1018,10,NA,BKN,BKN,OVC,   ,1500,4400,10000,NA,NA,NA,NA,NA,NA,NA,NA,52.88,METAR KLGA 271400Z 09009KT 10SM BKN015 BKN044 OVC100 12/07 A3006 RMK VALGA5/36 SLP180 T01160072,NA
LGA,1973-05-27T15:00:00Z,-73.8803,40.7794,53.96,46.04,74.48,70,8,NA,30.06,1018,10,NA,BKN,OVC,   ,   ,2000,4500,NA,NA,NA,NA,NA,NA,NA,NA,NA,53.96,METAR KLGA 271500Z 07008KT 10SM BKN020 OVC045 12/08 A3006 RMK / VALGA5/36 SLP180 8/5// T01220078 58002,NA
LGA,1973-05-27T16:00:00Z,-73.8803,40.7794,53.96,46.94,77.06,50,10,NA,30.06,1018,10,NA,BKN,OVC,   ,   ,1900,4500,NA,NA,NA,NA,NA,NA,NA,NA,NA,53.96,METAR KLGA 271600Z 05010KT 10SM BKN019 OVC045 12/08 A3006 RMK VALGA5/36 SLP180 T01220083,NA
LGA,1973-05-27T17:00:00Z,-73.8803,40.7794,52.88,45.86,76.96,40,10,NA,30.06,1018,10,NA,BKN,OVC,   ,   ,2100,4500,NA,NA,NA,NA,NA,NA,NA,NA,NA,52.88,METAR KLGA 271700Z 04010KT 10SM BKN021 OVC045 12/08 A3006 RMK VALGA5/36 SLP180 T01160077,NA
LGA,1973-05-27T18:00:00Z,-73.8803,40.7794,53.96,46.94,77.06,50,11,NA,30.06,1018,10,NA,BKN,OVC,   ,   ,NA,NA,NA,NA,NA,NA,NA,NA,NA,NA,NA,53.96,METAR KLGA 271800Z 05011KT 10SM BKN/// OVC/// 12/08 A//// RMK SLP180 T01220083,NA
LGA,1973-05-27T19:00:00Z,-73.8803,40.7794,54.86,47.84,77.14,30,9,NA,30.05,1017.6,10,NA,BKN,OVC,   ,   ,2500,4500,NA,NA,NA,NA,NA,NA,NA,NA,NA,54.86,METAR KLGA 271900Z 03009KT 10SM BKN025 OVC045 13/09 A3005 RMK VALGA5/36 SLP176 T01270088,NA
LGA,1973-05-27T20:00:00Z,-73.8803,40.7794,56.84,45.86,66.63,110,8,NA,30.06,1018,10,NA,BKN,OVC,   ,   ,2400,4500,NA,NA,NA,NA,NA,NA,NA,NA,NA,56.84,METAR KLGA 272000Z 11008KT 10SM BKN024 OVC045 14/08 A3006 RMK VALGA5/36 SLP180 T01380077,NA
LGA,1973-05-27T21:00:00Z,-73.8803,40.7794,55.94,44.96,66.52,120,10,NA,30.05,1017.6,10,NA,BKN,BKN,OVC,   ,3000,4500,10000,NA,NA,NA,NA,NA,NA,NA,NA,55.94,METAR KLGA 272100Z 12010KT 10SM BKN030 BKN045 OVC100 13/07 A3005 RMK LWR V% BINOVC VA SLP176 8/57/ T01330072 57002,NA
LGA,1973-05-27T22:00:00Z,-73.8803,40.7794,54.86,44.96,69.18,120,9,NA,30.05,1017.6,15,NA,BKN,OVC,   ,   ,2500,4500,NA,NA,NA,NA,NA,NA,NA,NA,NA,54.86,METAR KLGA 272200Z 12009KT 15SM BKN025 OVC045 13/07 A3005 RMK VALGA5/36 SLP176 T01270072,NA
LGA,1973-05-27T23:00:00Z,-73.8803,40.7794,53.96,45.86,73.98,120,9,NA,30.06,1018,15,NA,BKN,OVC,   ,   ,2100,3700,NA,NA,NA,NA,NA,NA,NA,NA,NA,53.96,METAR KLGA 272300Z 12009KT 15SM BKN021 OVC037 12/08 A3006 RMK VALGA5/36 SLP180 T01220077,NA
LGA,1973-05-28T00:00:00Z,-73.8803,40.7794,53.96,46.94,77.06,110,8,NA,30.05,1017.6,15,NA,BKN,OVC,   ,   ,NA,NA,NA,NA,NA,NA,NA,NA,NA,NA,NA,53.96,METAR KLGA 280000Z 11008KT 15SM BKN/// OVC/// 12/08 A//// RMK SLP176 T01220083,NA
LGA,1973-05-28T02:00:00Z,-73.8803,40.7794,52.88,47.84,82.93,130,9,0.02,30.06,1018,7,NA,BKN,BKN,OVC,   ,1000,1300,3500,NA,-RA,NA,NA,NA,NA,NA,NA,52.88,METAR KLGA 280200Z 13009KT 7SM -RA BKN010 BKN013 OVC035 12/09 A3006 RMK LGA 5/39 OM 4 OTS5/36 SLP180 P0002 T01160088,NA
LGA,1973-05-28T02:23:00Z,-73.8803,40.7794,NA,NA,NA,110,7,NA,30.07,NA,7,NA,BKN,OVC,NA,NA,800,1100,NA,NA,NA,NA,NA,NA,NA,NA,NA,NA,KLGA 280223Z AUTO 11007KT 7SM BKN008 OVC011 A3007 RMK IEM_DS3505,NA
LGA,1973-05-28T03:00:00Z,-73.8803,40.7794,51.98,48.92,89.26,120,9,0.02,30.05,1017.6,8,NA,OVC,   ,   ,   ,700,NA,NA,NA,-RA,NA,NA,NA,NA,NA,NA,51.98,METAR KLGA 280300Z 12009KT 8SM -RA OVC007 11/09 A3005 RMK CIG6V8/00004 102/LGA5/36 5/39 SLP176 P0002 T01110094,NA
LGA,1973-05-28T04:00:00Z,-73.8803,40.7794,51.98,50,92.93,100,8,NA,30.04,1017.3,8,NA,OVC,   ,   ,   ,600,NA,NA,NA,-RA,NA,NA,NA,NA,NA,NA,51.98,METAR KLGA 280400Z 10008KT 8SM -RA OVC006 11/10 A3004 RMK CIG 5V7LGA5/36 5/39 SLP173 T01110100,NA
LGA,1973-05-28T05:00:00Z,-73.8803,40.7794,51.98,50,92.93,90,10,0.01,30.02,1016.6,10,NA,BKN,BKN,OVC,   ,700,1400,2500,NA,-RA,NA,NA,NA,NA,NA,NA,51.98,METAR KLGA 280500Z 09010KT 10SM -RA BKN007 BKN014 OVC025 11/10 A3002 RMK R-- OCNL R-LGA5/36 5/39 SLP166 P0001 T01110100,NA
LGA,1973-05-28T06:00:00Z,-73.8803,40.7794,51.98,50,92.93,100,8,NA,30,1015.9,10,NA,BKN,BKN,OVC,   ,NA,NA,NA,NA,-RA,NA,NA,NA,NA,NA,NA,51.98,METAR KLGA 280600Z 10008KT 10SM -RA BKN/// BKN/// OVC/// 11/10 A//// RMK SLP159 60004 T01110100,NA
LGA,1973-05-28T07:00:00Z,-73.8803,40.7794,52.88,50,89.9,90,8,NA,29.98,1015.2,15,NA,SCT,OVC,   ,   ,900,1400,NA,NA,NA,NA,NA,NA,NA,NA,NA,52.88,METAR KLGA 280700Z 09008KT 15SM SCT009 OVC014 12/10 A2998 RMK RE10LGA5/36 SLP152 T01160100,NA
LGA,1973-05-28T08:00:00Z,-73.8803,40.7794,53.96,50,86.41,100,7,NA,29.94,1013.9,10,NA,SCT,OVC,   ,   ,1000,1500,NA,NA,-RA,NA,NA,NA,NA,NA,NA,53.96,METAR KLGA 280800Z 10007KT 10SM -RA SCT010 OVC015 12/10 A2994 RMK RB40LGA5/36 SLP139 T01220100,NA
LGA,1973-05-28T09:00:00Z,-73.8803,40.7794,53.96,51.08,89.95,90,8,NA,29.95,1014.2,8,NA,BKN,BKN,OVC,   ,800,1100,1400,NA,-RA,NA,NA,NA,NA,NA,NA,53.96,METAR KLGA 280900Z 09008KT 8SM -RA BKN008 BKN011 OVC014 12/11 A2995 RMK LWR V%/ 172/LGA5/36 SLP142 T01220106 55017,NA
LGA,1973-05-28T10:00:00Z,-73.8803,40.7794,53.96,50.9,89.35,80,9,NA,29.94,1013.9,7,NA,BKN,BKN,OVC,   ,800,1000,1300,NA,-RA,NA,NA,NA,NA,NA,NA,53.96,METAR KLGA 281000Z 08009KT 7SM -RA BKN008 BKN010 OVC013 12/11 A2994 RMK LGA5/36 SLP139 T01220105,NA
LGA,1973-05-28T11:00:00Z,-73.8803,40.7794,53.6,51.8,93.6,50,7,NA,29.94,NA,5,NA,BKN,OVC,   ,   ,700,1000,NA,NA,-RA FG,NA,NA,NA,NA,NA,NA,53.6,METAR KLGA 281100Z 05007KT 5SM -RA FG BKN007 OVC010 12/11 A2994 RMK LGA 5/41 OM 4 OTS,NA
LGA,1973-05-28T12:00:00Z,-73.8803,40.7794,53.96,53.06,96.76,70,9,0.05,29.91,1012.9,5,NA,BKN,OVC,   ,   ,NA,NA,NA,NA,-RA FG,NA,NA,NA,NA,NA,NA,53.96,METAR KLGA 281200Z 07009KT 5SM -RA FG BKN/// OVC/// 12/12 A//// RMK SLP129 P0005 60008 70016 T01220117,NA
LGA,1973-05-28T13:00:00Z,-73.8803,40.7794,59,56.84,92.53,120,11,0.16,29.87,1011.5,5,NA,BKN,OVC,   ,   ,400,600,NA,NA,-RA FG,NA,NA,NA,NA,NA,NA,59,METAR KLGA 281300Z 12011KT 5SM -RA FG BKN004 OVC006 15/14 A2987 RMK LGA5/36 5/41 SLP115 P0016 T01500138,NA
LGA,1973-05-28T14:00:00Z,-73.8803,40.7794,60.98,59,93.19,120,15,0.17,29.78,1008.5,4,30,SCT,OVC,   ,   ,400,600,NA,NA,-RA FG,NA,NA,NA,NA,NA,NA,60.98,METAR KLGA 281400Z 12015G30KT 4SM -RA FG SCT004 OVC006 16/15 A2978 RMK PRESFRLGA 5/43 GP OTS SLP085 P0017 T01610150,NA
LGA,1973-05-28T15:00:00Z,-73.8803,40.7794,64.04,60.98,89.78,210,12,0.01,29.8,1009.1,5,NA,SCT,OVC,   ,   ,400,600,NA,NA,-RA FG,NA,NA,NA,NA,NA,NA,64.04,METAR KLGA 281500Z 21012KT 5SM -RA FG SCT004 OVC006 18/16 A2980 RMK 17//LGA5/36 5/41 5/42 SLP091 P0001 T01780161 55037,NA
LGA,1973-05-28T16:00:00Z,-73.8803,40.7794,61.88,59.9,93.22,210,13,0.01,29.81,1009.5,4,NA,BKN,OVC,   ,   ,400,600,NA,NA,FG,NA,NA,NA,NA,NA,NA,61.88,METAR KLGA 281600Z 21013KT 4SM FG BKN004 OVC006 17/16 A2981 RMK RE40LGA C5/425/36 5/41 SLP095 P0001 T01660155,NA
LGA,1973-05-28T17:00:00Z,-73.8803,40.7794,61.88,60.98,96.86,170,12,NA,29.77,1008.1,3,NA,BKN,OVC,   ,   ,300,500,NA,NA,-DZ FG,NA,NA,NA,NA,NA,NA,61.88,METAR KLGA 281700Z 17012KT 3SM -DZ FG BKN003 OVC005 17/16 A2977 RMK LB35LGA5/36 5/41 SLP081 T01660161,NA
LGA,1973-05-28T18:00:00Z,-73.8803,40.7794,64.94,62.96,93.3,180,13,NA,29.71,1006.1,4,NA,SCT,BKN,OVC,   ,NA,NA,NA,NA,FG,NA,NA,NA,NA,NA,NA,64.94,METAR KLGA 281800Z 18013KT 4SM FG SCT/// BKN/// OVC/// 18/17 A//// RMK SLP061 60031 T01830172,NA
LGA,1973-05-28T19:00:00Z,-73.8803,40.7794,63.86,61.88,93.27,180,14,NA,29.69,1005.4,4,NA,BKN,OVC,   ,   ,500,1400,NA,NA,FG,NA,NA,NA,NA,NA,NA,63.86,METAR KLGA 281900Z 18014KT 4SM FG BKN005 OVC014 18/17 A2969 RMK SUN DIMLY VSBLGA5/36 SLP054 T01770166,NA
LGA,1973-05-28T20:31:00Z,-73.8803,40.7794,NA,NA,NA,200,9,NA,29.71,NA,5,NA,SCT,BKN,OVC,NA,500,700,6900,NA,NA,NA,NA,NA,NA,NA,NA,NA,KLGA 282031Z AUTO 20009KT 5SM SCT005 BKN007 OVC069 A2971 RMK IEM_DS3505,NA
LGA,1973-05-28T21:00:00Z,-73.8803,40.7794,64.04,60.98,89.78,170,11,NA,29.7,1005.8,5,NA,SCT,BKN,OVC,   ,500,800,7000,NA,FG,NA,NA,NA,NA,NA,NA,64.04,METAR KLGA 282100Z 17011KT 5SM FG SCT005 BKN008 OVC070 18/16 A2970 RMK CIG7V9 177/LGA5/36 SLP058 T01780161 55003,NA
LGA,1973-05-28T22:00:00Z,-73.8803,40.7794,64.94,60.98,87,170,9,NA,29.68,1005.1,6,NA,SCT,SCT,BKN,   ,5000,15000,25000,NA,DZ,NA,NA,NA,NA,NA,NA,64.94,METAR KLGA 282200Z 17009KT 6SM DZ SCT050 SCT150 BKN250 18/16 A2968 RMK LGA5/36 SLP051 T01830161,NA
LGA,1973-05-28T22:35:00Z,-73.8803,40.7794,NA,NA,NA,160,7,NA,29.65,NA,5,NA,BKN,BKN,BKN,NA,300,4900,14800,NA,NA,NA,NA,NA,NA,NA,NA,NA,KLGA 282235Z AUTO 16007KT 5SM BKN003 BKN049 BKN148 A2965 RMK IEM_DS3505,NA
LGA,1973-05-28T23:00:00Z,-73.8803,40.7794,64.94,60.98,87,180,6,NA,29.65,1004.1,4,NA,BKN,OVC,   ,   ,300,5000,NA,NA,DZ,NA,NA,NA,NA,NA,NA,64.94,METAR KLGA 282300Z 18006KT 4SM DZ BKN003 OVC050 18/16 A2965 RMK LGA5/36 SLP041 T01830161,NA
LGA,1973-05-28T23:03:00Z,-73.8803,40.7794,NA,NA,NA,140,6,NA,29.66,NA,2,NA,BKN,OVC,NA,NA,200,1000,NA,NA,NA,NA,NA,NA,NA,NA,NA,NA,KLGA 282303Z AUTO 14006KT 2SM BKN002 OVC010 A2966 RMK IEM_DS3505,NA
LGA,1973-05-28T23:17:00Z,-73.8803,40.7794,NA,NA,NA,170,5,NA,29.67,NA,1.5,NA,BKN,OVC,NA,NA,200,1000,NA,NA,NA,NA,NA,NA,NA,NA,NA,NA,KLGA 282317Z AUTO 17005KT 1 1/2SM BKN002 OVC010 A2967 RMK IEM_DS3505,NA
LGA,1973-05-28T23:27:00Z,-73.8803,40.7794,NA,NA,NA,180,12,NA,29.67,NA,1,NA,BKN,OVC,NA,NA,200,1000,NA,NA,NA,NA,NA,NA,NA,NA,NA,NA,KLGA 282327Z AUTO 18012KT 1SM BKN002 OVC010 A2967 RMK IEM_DS3505,NA
LGA,1973-05-29T00:00:00Z,-73.8803,40.7794,62.96,60.08,90.31,190,10,NA,29.67,1004.7,0.75,NA,BKN,BKN,OVC,   ,NA,NA,NA,NA,FG,NA,NA,NA,NA,NA,NA,62.96,METAR KLGA 290000Z 19010KT 3/4SM FG BKN/// BKN/// OVC/// 17/16 A//// RMK SLP047 T01720156,NA
LGA,1973-05-29T01:00:00Z,-73.8803,40.7794,61.88,59,90.27,170,12,NA,29.64,1003.7,0.75,NA,SCT,BKN,OVC,   ,200,2500,6000,NA,FG,NA,NA,NA,NA,NA,NA,61.88,METAR KLGA 290100Z 17012KT 3/4SM FG SCT002 BKN025 OVC060 17/15 A2964 RMK / R22VR60&LGA SLP037 T01660150,NA
LGA,1973-05-29T02:00:00Z,-73.8803,40.7794,61.9,59.9,93.15,230,10,NA,29.7,NA,5.5,NA,   ,   ,   ,   ,NA,NA,NA,NA,NA,NA,NA,NA,NA,NA,NA,61.9,METAR KLGA 290200Z 23010KT 11/2SM FGDZ BKN020 OVC044 17/16 A2970 RMK / DSNT LTGCC PRES UNSDTYLGA 5/36 SLP058 T01660155,NA
LGA,1973-05-29T02:01:00Z,-73.8803,40.7794,NA,NA,NA,200,12,NA,29.69,NA,6,NA,BKN,OVC,NA,NA,2000,3900,NA,NA,NA,NA,NA,NA,NA,NA,NA,NA,KLGA 290201Z AUTO 20012KT 6SM BKN020 OVC039 A2969 RMK IEM_DS3505,NA
LGA,1973-05-29T03:00:00Z,-73.8803,40.7794,66.02,62.06,87.05,190,11,NA,29.68,1005.1,7,NA,SCT,BKN,   ,   ,2000,6000,NA,NA,NA,NA,NA,NA,NA,NA,NA,66.02,METAR KLGA 290300Z 19011KT 7SM SCT020 BKN060 19/17 A2968 RMK / RB0158E06 1500LGA5/36 SLP051 T01890167 50003,NA
LGA,1973-05-29T04:00:00Z,-73.8803,40.7794,63.86,60.98,90.35,180,10,NA,29.69,1005.4,10,NA,SCT,OVC,   ,   ,2500,4900,NA,NA,NA,NA,NA,NA,NA,NA,NA,63.86,METAR KLGA 290400Z 18010KT 10SM SCT025 OVC049 18/16 A2969 RMK BINOVCLGA5/36 SLP054 T01770161,NA
LGA,1973-05-29T05:00:00Z,-73.8803,40.7794,62.96,60.98,93.25,50,5,NA,29.69,1005.4,7,NA,BKN,OVC,   ,   ,4000,13000,NA,NA,NA,NA,NA,NA,NA,NA,NA,62.96,METAR KLGA 290500Z 05005KT 7SM BKN040 OVC130 17/16 A2969 RMK LGA5/36 SLP054 T01720161,NA
LGA,1973-05-29T06:00:00Z,-73.8803,40.7794,62.96,60.08,90.31,190,3,NA,29.67,1004.7,5,NA,SCT,OVC,   ,   ,NA,NA,NA,NA,DZ,NA,NA,NA,NA,NA,NA,62.96,METAR KLGA 290600Z 19003KT 5SM DZ SCT/// OVC/// 17/16 A//// RMK SLP047 T01720156,NA
LGA,1973-05-29T07:00:00Z,-73.8803,40.7794,62.96,59.9,89.73,190,6,NA,29.67,1004.7,5,NA,BKN,BKN,OVC,   ,4600,6000,13000,NA,DZ,NA,NA,NA,NA,NA,NA,62.96,METAR KLGA 290700Z 19006KT 5SM DZ BKN046 BKN060 OVC130 17/16 A2967 RMK LGA5/36 SLP047 T01720155,NA
LGA,1973-05-29T08:00:00Z,-73.8803,40.7794,62.96,59,86.9,190,9,NA,29.66,1004.4,6,NA,SCT,SCT,BKN,   ,3700,4600,8000,NA,DZ,NA,NA,NA,NA,NA,NA,62.96,METAR KLGA 290800Z 19009KT 6SM DZ SCT037 SCT046 BKN080 17/15 A2966 RMK LGA5/36 SLP044 T01720150,NA
LGA,1973-05-29T09:00:00Z,-73.8803,40.7794,60.98,57.92,89.65,190,12,NA,29.65,1004.1,5,NA,BKN,BKN,OVC,   ,3000,5000,13000,NA,DZ,NA,NA,NA,NA,NA,NA,60.98,METAR KLGA 290900Z 19012KT 5SM DZ BKN030 BKN050 OVC130 16/14 A2965 RMK LWR V%/ 155/LGA5/36 SLP041 T01610144 56007,NA
LGA,1973-05-29T10:00:00Z,-73.8803,40.7794,61.88,59,90.27,190,9,NA,29.66,1004.4,5,NA,BKN,BKN,OVC,   ,3300,12000,25000,NA,DZ,NA,NA,NA,NA,NA,NA,61.88,METAR KLGA 291000Z 19009KT 5SM DZ BKN033 BKN120 OVC250 17/15 A2966 RMK BINOVCLGA5/36 SLP044 T01660150,NA
LGA,1973-05-29T11:00:00Z,-73.8803,40.7794,63.86,59.9,86.94,190,9,NA,29.68,1005.1,4,NA,SCT,SCT,SCT,   ,2000,12000,25000,NA,DZ,NA,NA,NA,NA,NA,NA,63.86,METAR KLGA 291100Z 19009KT 4SM DZ SCT020 SCT120 SCT250 18/16 A2968 RMK VALGA5/36 SLP051 T01770155,NA
LGA,1973-05-29T12:00:00Z,-73.8803,40.7794,69.98,64.94,84.04,220,10,NA,29.7,1005.8,5,NA,SCT,   ,   ,   ,NA,NA,NA,NA,DZ,NA,NA,NA,NA,NA,NA,69.98,METAR KLGA 291200Z 22010KT 5SM DZ SCT/// 21/18 A//// RMK SLP058 70031 T02110183,NA
LGA,1973-05-29T13:00:00Z,-73.8803,40.7794,74.84,64.94,71.31,250,15,NA,29.73,1006.8,8,NA,SCT,SCT,   ,   ,2500,25000,NA,NA,NA,NA,NA,NA,NA,NA,NA,74.84,METAR KLGA 291300Z 25015KT 8SM SCT025 SCT250 24/18 A2973 RMK SLP068 T02380183,NA
LGA,1973-05-29T14:00:00Z,-73.8803,40.7794,75.92,59.9,57.59,250,13,NA,29.76,1007.8,10,NA,SCT,   ,   ,   ,25000,NA,NA,NA,NA,NA,NA,NA,NA,NA,NA,75.92,METAR KLGA 291400Z 25013KT 10SM SCT250 24/16 A2976 RMK FEW CU SLP078 T02440155,NA
LGA,1973-05-29T15:00:00Z,-73.8803,40.7794,78.08,57.92,49.94,230,16,NA,29.78,1008.5,10,NA,SCT,BKN,   ,   ,4000,25000,NA,NA,NA,NA,NA,NA,NA,NA,NA,78.08,METAR KLGA 291500Z 23016KT 10SM SCT040 BKN250 26/14 A2978 RMK SLP085 8/101 T02560144 51027,NA
LGA,1973-05-29T16:00:00Z,-73.8803,40.7794,77.9,56.84,48.32,270,15,NA,29.77,1008.1,15,NA,SCT,BKN,   ,   ,4500,25000,NA,NA,NA,NA,NA,NA,NA,NA,NA,77.9,METAR KLGA 291600Z 27015KT 15SM SCT045 BKN250 25/14 A2977 RMK VA SLP081 T02550138,NA
LGA,1973-05-29T17:00:00Z,-73.8803,40.7794,78.98,54.86,43.4,270,18,NA,29.78,1008.5,15,27,SCT,BKN,   ,   ,4500,25000,NA,NA,NA,NA,NA,NA,NA,NA,NA,78.98,METAR KLGA 291700Z 27018G27KT 15SM SCT045 BKN250 26/13 A2978 RMK VA SLP085 T02610127,NA
LGA,1973-05-29T18:00:00Z,-73.8803,40.7794,80.06,55.94,43.56,270,15,NA,29.78,1008.5,15,NA,SCT,SCT,BKN,   ,NA,NA,NA,NA,NA,NA,NA,NA,NA,NA,NA,80.27,METAR KLGA 291800Z 27015KT 15SM SCT/// SCT/// BKN/// 27/13 A//// RMK SLP085 T02670133,NA
LGA,1973-05-29T19:00:00Z,-73.8803,40.7794,79.88,54.86,42.14,270,17,NA,29.78,1008.5,15,NA,SCT,SCT,BKN,   ,5000,12000,25000,NA,NA,NA,NA,NA,NA,NA,NA,79.88,METAR KLGA 291900Z 27017KT 15SM SCT050 SCT120 BKN250 27/13 A2978 RMK VA SLP085 T02660127,NA
LGA,1973-05-29T20:00:00Z,-73.8803,40.7794,79.88,53.96,40.77,250,15,NA,29.77,1008.1,10,NA,SCT,SCT,BKN,   ,5000,12000,25000,NA,NA,NA,NA,NA,NA,NA,NA,79.88,METAR KLGA 292000Z 25015KT 10SM SCT050 SCT120 BKN250 27/12 A2977 RMK VA SLP081 T02660122,NA
LGA,1973-05-29T21:00:00Z,-73.8803,40.7794,80.06,55.04,42.16,270,15,NA,29.77,1008.1,15,NA,SCT,SCT,BKN,   ,5000,12000,25000,NA,NA,NA,NA,NA,NA,NA,NA,80.15,METAR KLGA 292100Z 27015KT 15SM SCT050 SCT120 BKN250 27/13 A2977 RMK / VA SLP081 8/151 T02670128 56003,NA
LGA,1973-05-29T22:00:00Z,-73.8803,40.7794,78.98,53.96,42,260,11,NA,29.78,1008.5,15,NA,SCT,SCT,BKN,   ,5000,12000,25000,NA,NA,NA,NA,NA,NA,NA,NA,78.98,METAR KLGA 292200Z 26011KT 15SM SCT050 SCT120 BKN250 26/12 A2978 RMK VA SLP085 T02610122,NA
LGA,1973-05-29T23:00:00Z,-73.8803,40.7794,77.9,52.88,41.83,270,11,NA,29.81,1009.5,15,NA,SCT,SCT,BKN,   ,5000,12000,25000,NA,NA,NA,NA,NA,NA,NA,NA,77.9,METAR KLGA 292300Z 27011KT 15SM SCT050 SCT120 BKN250 25/12 A2981 RMK VA SLP095 T02550116,NA
LGA,1973-05-30T00:00:00Z,-73.8803,40.7794,77,53.96,44.84,230,10,NA,29.84,1010.5,15,NA,SCT,SCT,BKN,   ,NA,NA,NA,NA,NA,NA,NA,NA,NA,NA,NA,77,METAR KLGA 300000Z 23010KT 15SM SCT/// SCT/// BKN/// 25/12 A//// RMK SLP105 T02500122,NA
LGA,1973-05-30T01:00:00Z,-73.8803,40.7794,74.84,53.96,48.18,260,10,NA,29.86,1011.2,15,NA,SCT,SCT,BKN,   ,5000,12000,25000,NA,NA,NA,NA,NA,NA,NA,NA,74.84,METAR KLGA 300100Z 26010KT 15SM SCT050 SCT120 BKN250 24/12 A2986 RMK VA SLP112 T02380122,NA
LGA,1973-05-30T02:00:00Z,-73.8803,40.7794,73.94,52.88,47.73,260,8,NA,29.87,1011.5,15,NA,SCT,BKN,   ,   ,12000,25000,NA,NA,NA,NA,NA,NA,NA,NA,NA,73.94,METAR KLGA 300200Z 26008KT 15SM SCT120 BKN250 23/12 A2987 RMK VA SLP115 T02330116,NA
LGA,1973-05-30T03:00:00Z,-73.8803,40.7794,73.04,53.06,49.52,260,7,NA,29.87,1011.5,15,NA,SCT,   ,   ,   ,12000,NA,NA,NA,NA,NA,NA,NA,NA,NA,NA,73.04,METAR KLGA 300300Z 26007KT 15SM SCT120 23/12 A2987 RMK / VA SLP115 8/050 T02280117 51010,NA
LGA,1973-05-30T04:00:00Z,-73.8803,40.7794,68,53.96,60.77,290,7,NA,29.88,1011.9,15,NA,SCT,   ,   ,   ,12000,NA,NA,NA,NA,NA,NA,NA,NA,NA,NA,68,METAR KLGA 300400Z 29007KT 15SM SCT120 20/12 A2988 RMK VA SLP119 T02000122,NA
LGA,1973-05-30T05:00:00Z,-73.8803,40.7794,65.84,53.96,65.48,310,6,NA,29.88,1011.9,15,NA,SCT,BKN,   ,   ,15000,25000,NA,NA,NA,NA,NA,NA,NA,NA,NA,65.84,METAR KLGA 300500Z 31006KT 15SM SCT150 BKN250 19/12 A2988 RMK SLP119 T01880122,NA
LGA,1973-05-30T06:00:00Z,-73.8803,40.7794,64.94,53.06,65.37,300,5,NA,29.89,1012.2,15,NA,BKN,   ,   ,   ,NA,NA,NA,NA,NA,NA,NA,NA,NA,NA,NA,64.94,METAR KLGA 300600Z 30005KT 15SM BKN/// 18/12 A//// RMK SLP122 T01830117,NA
LGA,1973-05-30T07:00:00Z,-73.8803,40.7794,63.86,52.88,67.44,290,6,NA,29.9,1012.5,15,NA,SCT,   ,   ,   ,25000,NA,NA,NA,NA,NA,NA,NA,NA,NA,NA,63.86,METAR KLGA 300700Z 29006KT 15SM SCT250 18/12 A2990 RMK VA SLP125 T01770116,NA
LGA,1973-05-30T08:00:00Z,-73.8803,40.7794,63.86,51.98,65.25,190,3,NA,29.9,1012.5,15,NA,CLR,   ,   ,   ,NA,NA,NA,NA,NA,NA,NA,NA,NA,NA,NA,63.86,METAR KLGA 300800Z 19003KT 15SM CLR 18/11 A2990 RMK VA SLP125 T01770111,NA
LGA,1973-05-30T09:00:00Z,-73.8803,40.7794,62.06,53.06,72.33,320,4,NA,29.92,1013.2,10,NA,FEW,   ,   ,   ,25000,NA,NA,NA,NA,NA,NA,NA,NA,NA,NA,62.06,METAR KLGA 300900Z 32004KT 10SM FEW250 17/12 A2992 RMK VA/ SLP132 8/001 T01670117 53010,NA
LGA,1973-05-30T10:00:00Z,-73.8803,40.7794,61.88,52.88,72.31,300,5,NA,29.94,1013.9,15,NA,SCT,BKN,   ,   ,15000,25000,NA,NA,NA,NA,NA,NA,NA,NA,NA,61.88,METAR KLGA 301000Z 30005KT 15SM SCT150 BKN250 17/12 A2994 RMK VA SLP139 T01660116,NA
LGA,1973-05-30T11:00:00Z,-73.8803,40.7794,63.86,53.96,70.17,330,3,NA,29.95,1014.2,10,NA,CLR,   ,   ,   ,NA,NA,NA,NA,NA,NA,NA,NA,NA,NA,NA,63.86,METAR KLGA 301100Z 33003KT 10SM CLR 18/12 A2995 RMK VA SLP142 T01770122,NA
LGA,1973-05-30T12:00:00Z,-73.8803,40.7794,68,55.04,63.21,300,5,NA,29.96,1014.6,10,NA,SCT,   ,   ,   ,13000,NA,NA,NA,NA,NA,NA,NA,NA,NA,NA,68,METAR KLGA 301200Z 30005KT 10SM SCT130 20/13 A//// RMK SLP146 T02000128,NA
LGA,1973-05-30T13:00:00Z,-73.8803,40.7794,70.88,55.94,59.18,300,4,NA,29.97,1014.9,8,NA,SCT,   ,   ,   ,12000,NA,NA,NA,NA,NA,NA,NA,NA,NA,NA,70.88,METAR KLGA 301300Z 30004KT 8SM SCT120 22/13 A2997 RMK SLP149 T02160133,NA
LGA,1973-05-30T14:00:00Z,-73.8803,40.7794,72.86,54.86,53.21,50,5,NA,29.97,1014.9,8,NA,CLR,   ,   ,   ,NA,NA,NA,NA,NA,NA,NA,NA,NA,NA,NA,72.86,METAR KLGA 301400Z 05005KT 8SM CLR 23/13 A2997 RMK SLP149 T02270127,NA
LGA,1973-05-30T15:00:00Z,-73.8803,40.7794,75.02,55.04,49.81,80,5,NA,29.97,1014.9,8,NA,CLR,   ,   ,   ,NA,NA,NA,NA,NA,NA,NA,NA,NA,NA,NA,75.02,METAR KLGA 301500Z 08005KT 8SM CLR 24/13 A2997 RMK SLP149 T02390128 51003,NA
LGA,1973-05-30T16:00:00Z,-73.8803,40.7794,77,54.86,46.33,70,5,NA,29.96,1014.6,8,NA,BKN,   ,   ,   ,5000,NA,NA,NA,NA,NA,NA,NA,NA,NA,NA,77,METAR KLGA 301600Z 07005KT 8SM BKN050 25/13 A2996 RMK VA SLP146 T02500127,NA
LGA,1973-05-30T17:00:00Z,-73.8803,40.7794,77.9,55.94,46.77,180,10,NA,29.95,1014.2,8,NA,BKN,   ,   ,   ,5000,NA,NA,NA,NA,NA,NA,NA,NA,NA,NA,77.9,METAR KLGA 301700Z 18010KT 8SM BKN050 25/13 A2995 RMK VA SLP142 T02550133,NA
LGA,1973-05-30T18:00:00Z,-73.8803,40.7794,77,55.94,48.19,170,9,NA,29.94,1013.9,7,NA,BKN,   ,   ,   ,NA,NA,NA,NA,NA,NA,NA,NA,NA,NA,NA,77,METAR KLGA 301800Z 17009KT 7SM BKN/// 25/13 A//// RMK SLP139 T02500133,NA
LGA,1973-05-30T19:00:00Z,-73.8803,40.7794,77,55.94,48.19,150,11,NA,29.93,1013.5,7,NA,SCT,   ,   ,   ,5000,NA,NA,NA,NA,NA,NA,NA,NA,NA,NA,77,METAR KLGA 301900Z 15011KT 7SM SCT050 25/13 A2993 RMK VA SLP135 T02500133,NA
LGA,1973-05-30T20:00:00Z,-73.8803,40.7794,77,54.86,46.33,180,10,NA,29.91,1012.9,7,NA,SCT,   ,   ,   ,5000,NA,NA,NA,NA,NA,NA,NA,NA,NA,NA,77,METAR KLGA 302000Z 18010KT 7SM SCT050 25/13 A2991 RMK SLP129 T02500127,NA
LGA,1973-05-30T21:00:00Z,-73.8803,40.7794,75.92,53.96,46.47,190,12,NA,29.91,1012.9,9,NA,SCT,   ,   ,   ,5000,NA,NA,NA,NA,NA,NA,NA,NA,NA,NA,75.92,METAR KLGA 302100Z 19012KT 9SM SCT050 24/12 A2991 RMK 0 SLP129 8/100 T02440122,NA
LGA,1973-05-30T22:00:00Z,-73.8803,40.7794,73.94,53.96,49.66,190,13,NA,29.91,1012.9,9,NA,SCT,   ,   ,   ,5000,NA,NA,NA,NA,NA,NA,NA,NA,NA,NA,73.94,METAR KLGA 302200Z 19013KT 9SM SCT050 23/12 A2991 RMK SLP129 T02330122,NA
LGA,1973-05-30T23:00:00Z,-73.8803,40.7794,70.88,52.88,52.93,180,12,NA,29.92,1013.2,9,NA,SCT,SCT,   ,   ,5000,12000,NA,NA,NA,NA,NA,NA,NA,NA,NA,70.88,METAR KLGA 302300Z 18012KT 9SM SCT050 SCT120 22/12 A2992 RMK SLP132 T02160116,NA
LGA,1973-05-31T00:00:00Z,-73.8803,40.7794,69.98,53.06,54.94,200,10,NA,29.91,1012.9,7,NA,SCT,SCT,   ,   ,NA,NA,NA,NA,NA,NA,NA,NA,NA,NA,NA,69.98,METAR KLGA 310000Z 20010KT 7SM SCT/// SCT/// 21/12 A//// RMK SLP129 T02110117,NA
LGA,1973-05-31T01:00:00Z,-73.8803,40.7794,68,52.88,58.41,150,9,NA,29.9,1012.5,7,NA,SCT,SCT,   ,   ,5000,12000,NA,NA,NA,NA,NA,NA,NA,NA,NA,68,METAR KLGA 310100Z 15009KT 7SM SCT050 SCT120 20/12 A2990 RMK VA SLP125 T02000116,NA
LGA,1973-05-31T02:00:00Z,-73.8803,40.7794,65.84,55.94,70.38,NA,NA,NA,29.91,1012.9,7,NA,BKN,   ,   ,   ,5000,NA,NA,NA,NA,NA,NA,NA,NA,NA,NA,65.84,METAR KLGA 310200Z /////KT 7SM BKN050 19/13 A//// RMK -/991 SLP129 T01880133,NA
LGA,1973-05-31T03:00:00Z,-73.8803,40.7794,66.02,57.02,72.72,140,6,NA,29.91,1012.9,7,NA,BKN,   ,   ,   ,5000,NA,NA,NA,NA,NA,NA,NA,NA,NA,NA,66.02,METAR KLGA 310300Z 14006KT 7SM BKN050 19/14 A2991 RMK SLP129 8/500 T01890139 55000,NA
LGA,1973-05-31T04:00:00Z,-73.8803,40.7794,64.94,57.92,77.99,70,6,NA,29.9,1012.5,7,NA,BKN,   ,   ,   ,4400,NA,NA,NA,NA,NA,NA,NA,NA,NA,NA,64.94,METAR KLGA 310400Z 07006KT 7SM BKN044 18/14 A2990 RMK SLP125 T01830144,NA
LGA,1973-05-31T04:31:00Z,-73.8803,40.7794,NA,NA,NA,270,7,NA,29.9,NA,1,NA,SCT,OVC,NA,NA,1700,2400,NA,NA,NA,NA,NA,NA,NA,NA,NA,NA,KLGA 310431Z AUTO 27007KT 1SM SCT017 OVC024 A2990 RMK IEM_DS3505,NA
LGA,1973-05-31T04:39:00Z,-73.8803,40.7794,NA,NA,NA,110,6,NA,29.9,NA,5,NA,BKN,OVC,NA,NA,1700,4300,NA,NA,NA,NA,NA,NA,NA,NA,NA,NA,KLGA 310439Z AUTO 11006KT 5SM BKN017 OVC043 A2990 RMK IEM_DS3505,NA
LGA,1973-05-31T05:00:00Z,-73.8803,40.7794,63.86,59.9,86.94,20,4,0.23,29.89,1012.2,3,NA,BKN,OVC,   ,   ,2300,4100,NA,NA,TSRA,NA,NA,NA,NA,NA,NA,63.86,METAR KLGA 310500Z 02004KT 3SM TSRA BKN023 OVC041 18/16 A2989 RMK RB09 TNE MVG E LTGICCC RB03 PK WND SLP122 P0023 77/10 T01770155 5207/,NA
LGA,1973-05-31T05:12:00Z,-73.8803,40.7794,NA,NA,NA,10,5,NA,29.88,NA,3,NA,SCT,SCT,OVC,NA,1800,2100,3800,NA,NA,NA,NA,NA,NA,NA,NA,NA,KLGA 310512Z AUTO 01005KT 3SM SCT018 SCT021 OVC038 A2988 RMK IEM_DS3505,NA
LGA,1973-05-31T06:00:00Z,-73.8803,40.7794,63,60.1,90.25,90,6,NA,29.88,NA,4,NA,   ,   ,   ,   ,NA,NA,NA,NA,NA,NA,NA,NA,NA,NA,NA,63,METAR KLGA 310600Z 09006KT 4SM FGDZ SCT/// BKN/// 17/16 A//// RMK SLP119 60020 T01720156,NA
LGA,1973-05-31T07:00:00Z,-73.8803,40.7794,63,59.9,89.61,90,7.04,NA,29.87,NA,3,NA,   ,   ,   ,   ,NA,NA,NA,NA,NA,NA,NA,NA,NA,NA,NA,63,METAR KLGA 310700Z 10007KT 3SM FGDZ SCT020 BKN040 17/16 A2987 RMK SLP115 T01720155,NA
LGA,1973-05-31T08:00:00Z,-73.8803,40.7794,61.9,59,90.2,155,7.04,NA,29.85,NA,4,NA,   ,   ,   ,   ,NA,NA,NA,NA,NA,NA,NA,NA,NA,NA,NA,61.9,METAR KLGA 310800Z 15007KT 4SM FGDZ BKN005 BKN040 17/15 A2985 RMK CIG RGD SLP108 T01660150,NA
LGA,1973-05-31T09:00:00Z,-73.8803,40.7794,62.1,59,89.57,225,6,NA,29.86,NA,3,NA,   ,   ,   ,   ,NA,NA,NA,NA,NA,NA,NA,NA,NA,NA,NA,62.1,METAR KLGA 310900Z 22006KT 3SM FGDZ OVC006 17/15 A2986 RMK / SLP112 8/6// T01670150 55005,NA
LGA,1973-05-31T09:27:00Z,-73.8803,40.7794,NA,NA,NA,240,5,NA,29.89,NA,2,NA,OVC,NA,NA,NA,700,NA,NA,NA,NA,NA,NA,NA,NA,NA,NA,NA,KLGA 310927Z AUTO 24005KT 2SM OVC007 A2989 RMK IEM_DS3505,NA
LGA,1973-05-31T10:00:00Z,-73.8803,40.7794,61.9,59,90.2,155,6,NA,29.87,NA,1,NA,   ,   ,   ,   ,NA,NA,NA,NA,NA,NA,NA,NA,NA,NA,NA,61.9,METAR KLGA 311000Z 15006KT 1SM -SHRA FGDZ SCT005 OVC007 17/15 A2987 RMK R22VR60V60& RB25 SLP115 T01660150,NA
LGA,1973-05-31T10:30:00Z,-73.8803,40.7794,NA,NA,NA,NA,NA,NA,NA,NA,1,NA,SCT,BKN,OVC,NA,500,1100,1400,NA,NA,NA,NA,NA,NA,NA,NA,NA,KLGA 311030Z AUTO 1SM SCT005 BKN011 OVC014 RMK IEM_DS3505,NA
LGA,1973-05-31T11:00:00Z,-73.8803,40.7794,61.9,59.9,93.15,250,4,NA,29.88,NA,5.5,NA,   ,   ,   ,   ,NA,NA,NA,NA,NA,NA,NA,NA,NA,NA,NA,61.9,METAR KLGA 311100Z 24004KT 11/2SM FGDZ BKN009 OVC014 17/16 A2988 RMK RE20 VA SLP119 T01660155,NA
LGA,1973-05-31T11:23:00Z,-73.8803,40.7794,NA,NA,NA,0,0,NA,29.88,NA,1.5,NA,SCT,BKN,NA,NA,900,3000,NA,NA,NA,NA,NA,NA,NA,NA,NA,NA,KLGA 311123Z AUTO 00000KT 1 1/2SM POB000 SCT009 BKN030 A2988 RMK IEM_DS3505,NA
LGA,1973-05-31T12:00:00Z,-73.8803,40.7794,64,60.1,87.14,315,4,NA,29.89,NA,5.5,NA,   ,   ,   ,   ,NA,NA,NA,NA,NA,NA,NA,NA,NA,NA,NA,64,METAR KLGA 311200Z 31004KT 11/2SM FGDZ OVC/// SCT/// BKN/// 18/16 A//// RMK SLP122 70020 T01780156,NA
LGA,1973-05-31T13:00:00Z,-73.8803,40.7794,66.9,59.9,78.21,270,9.04,NA,29.89,NA,10.5,NA,   ,   ,   ,   ,NA,NA,NA,NA,NA,NA,NA,NA,NA,NA,NA,66.9,METAR KLGA 311300Z 26009KT 21/2SM FUDZ OVC/// SCT010 19/16 A2989 RMK KH1 SFC VSBY 3 SLP122 T01940155,NA
LGA,1973-05-31T13:18:00Z,-73.8803,40.7794,NA,NA,NA,280,7,NA,29.89,NA,4,NA,SCT,NA,NA,NA,2000,NA,NA,NA,NA,NA,NA,NA,NA,NA,NA,NA,KLGA 311318Z AUTO 28007KT 4SM POB000 SCT020 A2989 RMK IEM_DS3505,NA
LGA,1973-05-31T14:00:00Z,-73.8803,40.7794,70.88,55.94,59.18,260,11,NA,29.89,1012.2,7,NA,SCT,   ,   ,   ,3000,NA,NA,NA,NA,NA,NA,NA,NA,NA,NA,70.88,METAR KLGA 311400Z 26011KT 7SM SCT030 22/13 A2989 RMK VALGA5/45 SLP122 T02160133,NA
LGA,1973-05-31T15:00:00Z,-73.8803,40.7794,71.96,55.94,57.05,280,9,NA,29.91,1012.9,9,NA,CLR,   ,   ,   ,NA,NA,NA,NA,NA,NA,NA,NA,NA,NA,NA,71.96,METAR KLGA 311500Z 28009KT 9SM CLR 22/13 A2991 RMK FEW CU/ VALGA5/45 5/46 SLP129 8/100 T02220133 53005,NA
LGA,1973-05-31T16:00:00Z,-73.8803,40.7794,73.94,54.86,51.31,290,10,NA,29.9,1012.5,10,NA,SCT,   ,   ,   ,4500,NA,NA,NA,NA,NA,NA,NA,NA,NA,NA,73.94,METAR KLGA 311600Z 29010KT 10SM SCT045 23/13 A2990 RMK VALGA5/45 5/46 SLP125 T02330127,NA
LGA,1973-05-31T17:00:00Z,-73.8803,40.7794,73.94,53.96,49.66,260,13,NA,29.9,1012.5,15,22,SCT,   ,   ,   ,4500,NA,NA,NA,NA,NA,NA,NA,NA,NA,NA,73.94,METAR KLGA 311700Z 26013G22KT 15SM SCT045 23/12 A2990 RMK VALGA C5/465/45 SLP125 T02330122,NA
LGA,1973-05-31T18:00:00Z,-73.8803,40.7794,73.94,53.96,49.66,270,14,NA,29.9,1012.5,15,NA,SCT,   ,   ,   ,NA,NA,NA,NA,NA,NA,NA,NA,NA,NA,NA,73.94,METAR KLGA 311800Z 27014KT 15SM SCT/// 23/12 A//// RMK SLP125 T02330122,NA
LGA,1973-05-31T19:00:00Z,-73.8803,40.7794,74.84,52.88,46.31,270,11,NA,29.89,1012.2,10,NA,BKN,   ,   ,   ,4000,NA,NA,NA,NA,NA,NA,NA,NA,NA,NA,74.84,METAR KLGA 311900Z 27011KT 10SM BKN040 24/12 A2989 RMK VALGA5/45 SLP122 T02380116,NA
LGA,1973-05-31T20:00:00Z,-73.8803,40.7794,74.84,50.9,43.05,260,15,NA,29.9,1012.5,10,23,BKN,   ,   ,   ,5000,NA,NA,NA,NA,NA,NA,NA,NA,NA,NA,74.84,METAR KLGA 312000Z 26015G23KT 10SM BKN050 24/11 A2990 RMK TCU NW-NE VA SLP125 T02380105,NA
LGA,1973-05-31T21:00:00Z,-73.8803,40.7794,73.94,53.06,48.04,270,13,NA,29.91,1012.9,10,NA,BKN,BKN,   ,   ,5000,8000,NA,NA,NA,NA,NA,NA,NA,NA,NA,73.94,METAR KLGA 312100Z 27013KT 10SM BKN050 BKN080 23/12 A2991 RMK / VA SLP129 8/240 T02330117 53003,NA
LGA,1973-05-31T22:00:00Z,-73.8803,40.7794,73.94,52.88,47.73,270,13,NA,29.91,1012.9,10,NA,SCT,   ,   ,   ,4500,NA,NA,NA,NA,NA,NA,NA,NA,NA,NA,73.94,METAR KLGA 312200Z 27013KT 10SM SCT045 23/12 A2991 RMK VA SLP129 T02330116,NA
LGA,1973-05-31T23:00:00Z,-73.8803,40.7794,73.94,53.96,49.66,280,12,NA,29.92,1013.2,10,NA,SCT,   ,   ,   ,4500,NA,NA,NA,NA,NA,NA,NA,NA,NA,NA,73.94,METAR KLGA 312300Z 28012KT 10SM SCT045 23/12 A2992 RMK VA SLP132 T02330122,NA
LGA,1973-06-01T00:00:00Z,-73.8803,40.7794,71.96,51.98,49.36,260,10,NA,29.94,1013.9,10,NA,SCT,BKN,CLR,CLR,4400,24600,NA,NA,NA,NA,NA,NA,NA,NA,NA,71.96,KLGA 010000Z AUTO 26010KT 10SM SCT044 BKN246 CLR CLR 22/11 A2994 RMK 70024 SLP139 T02220111 53010 IEM_DS3505,NA
LGA,1973-06-01T01:00:00Z,-73.8803,40.7794,69.98,51.98,52.8,270,10,NA,29.95,1014.2,7,NA,SCT,BKN,NA,NA,3900,24600,NA,NA,NA,NA,NA,NA,NA,NA,NA,69.98,KLGA 010100Z AUTO 27010KT 7SM SCT039 BKN246 21/11 A2995 RMK SLP142 T02110111 IEM_DS3505,NA
LGA,1973-06-01T03:00:00Z,-73.8803,40.7794,66.92,51.98,58.65,270,10,NA,29.99,1015.6,8,NA,FEW,CLR,CLR,CLR,24600,NA,NA,NA,NA,NA,NA,NA,NA,NA,NA,66.92,KLGA 010300Z AUTO 27010KT 8SM FEW246 CLR CLR CLR 19/11 A2999 RMK SLP156 T01940111 52017 IEM_DS3505,NA
LGA,1973-06-01T04:00:00Z,-73.8803,40.7794,65.84,50.9,58.51,250,11,NA,30,1015.9,8,NA,SCT,   ,   ,   ,25000,NA,NA,NA,NA,NA,NA,NA,NA,NA,NA,65.84,METAR KLGA 010400Z 25011KT 8SM SCT250 19/11 A3000 RMK SLP159 T01880105,NA
LGA,1973-06-01T05:00:00Z,-73.8803,40.7794,64.94,51.98,62.83,270,11,NA,30.01,1016.3,9,NA,BKN,   ,   ,   ,25000,NA,NA,NA,NA,NA,NA,NA,NA,NA,NA,64.94,METAR KLGA 010500Z 27011KT 9SM BKN250 18/11 A3001 RMK SLP163 T01830111,NA
LGA,1973-06-01T06:00:00Z,-73.8803,40.7794,64.04,51.98,64.84,270,10,NA,30.01,1016.3,8,NA,FEW,   ,   ,   ,25000,NA,NA,NA,NA,NA,NA,NA,NA,NA,NA,64.04,METAR KLGA 010600Z 27010KT 8SM FEW250 18/11 A3001 RMK SLP163 T01780111,NA
LGA,1973-06-01T07:00:00Z,-73.8803,40.7794,61.88,50.9,67.21,270,7,NA,30.02,1016.6,8,NA,SCT,   ,   ,   ,25000,NA,NA,NA,NA,NA,NA,NA,NA,NA,NA,61.88,METAR KLGA 010700Z 27007KT 8SM SCT250 17/11 A3002 RMK SLP166 T01660105,NA
LGA,1973-06-01T08:00:00Z,-73.8803,40.7794,61.88,50.9,67.21,270,6,NA,30.02,1016.6,8,NA,SCT,   ,   ,   ,25000,NA,NA,NA,NA,NA,NA,NA,NA,NA,NA,61.88,METAR KLGA 010800Z 27006KT 8SM SCT250 17/11 A3002 RMK SLP166 T01660105,NA
LGA,1973-06-01T09:00:00Z,-73.8803,40.7794,60.08,50,69.29,240,6,NA,30.03,1016.9,7,NA,SCT,   ,   ,   ,25000,NA,NA,NA,NA,NA,NA,NA,NA,NA,NA,60.08,METAR KLGA 010900Z 24006KT 7SM SCT250 16/10 A3003 RMK / SLP169 8/001 T01560100 52005,NA
LGA,1973-06-01T10:00:00Z,-73.8803,40.7794,59.9,50,69.74,250,5,NA,30.03,1016.9,6,NA,SCT,   ,   ,   ,25000,NA,NA,NA,FU,NA,NA,NA,NA,NA,NA,59.9,METAR KLGA 011000Z 25005KT 6SM FU SCT250 16/10 A3003 RMK VA SLP169 T01550100,NA
LGA,1973-06-01T11:00:00Z,-73.8803,40.7794,62.96,50,62.58,250,7,NA,30.05,1017.6,6,NA,SCT,   ,   ,   ,25000,NA,NA,NA,FU,NA,NA,NA,NA,NA,NA,62.96,METAR KLGA 011100Z 25007KT 6SM FU SCT250 17/10 A3005 RMK VA SLP176 T01720100,NA
LGA,1973-06-01T12:00:00Z,-73.8803,40.7794,64.94,51.08,60.77,270,8,NA,30.05,1017.6,6,NA,BKN,   ,   ,   ,25000,NA,NA,NA,FU,NA,NA,NA,NA,NA,NA,64.94,METAR KLGA 011200Z 27008KT 6SM FU BKN250 18/11 A3005 RMK VALGA6/1 SLP176 T01830106,NA
LGA,1973-06-01T13:00:00Z,-73.8803,40.7794,66.92,51.98,58.65,280,11,NA,30.05,1017.6,6,NA,SCT,   ,   ,   ,25000,NA,NA,NA,FU,NA,NA,NA,NA,NA,NA,66.92,METAR KLGA 011300Z 28011KT 6SM FU SCT250 19/11 A3005 RMK VALGA6/1 SLP176 T01940111,NA
LGA,1973-06-01T14:00:00Z,-73.8803,40.7794,69.98,50.9,50.73,280,11,NA,30.05,1017.6,7,NA,SCT,   ,   ,   ,25000,NA,NA,NA,NA,NA,NA,NA,NA,NA,NA,69.98,METAR KLGA 011400Z 28011KT 7SM SCT250 21/11 A3005 RMK VALGA6/1 SLP176 T02110105,NA
LGA,1973-06-01T15:00:00Z,-73.8803,40.7794,73.94,51.08,44.66,230,7,NA,30.03,1016.9,8,NA,SCT,SCT,   ,   ,4500,25000,NA,NA,NA,NA,NA,NA,NA,NA,NA,73.94,METAR KLGA 011500Z 23007KT 8SM SCT045 SCT250 23/11 A3003 RMK VALGA6/1 SLP169 8/101 T02330106 58007,NA
LGA,1973-06-01T16:00:00Z,-73.8803,40.7794,74.84,47.84,38.4,250,12,NA,30.03,1016.9,10,NA,SCT,   ,   ,   ,5000,NA,NA,NA,NA,NA,NA,NA,NA,NA,NA,73.83,METAR KLGA 011600Z 25012KT 10SM SCT050 24/09 A3003 RMK VALGA6/1 SLP169 T02380088,NA
LGA,1973-06-01T17:00:00Z,-73.8803,40.7794,75.92,47.84,37.04,260,9,NA,30.01,1016.3,15,NA,SCT,   ,   ,   ,5000,NA,NA,NA,NA,NA,NA,NA,NA,NA,NA,75.92,METAR KLGA 011700Z 26009KT 15SM SCT050 24/09 A3001 RMK LGA6/1 SLP163 T02440088,NA
LGA,1973-06-01T18:00:00Z,-73.8803,40.7794,78.08,51.08,38.91,240,14,NA,29.99,1015.6,15,NA,SCT,SCT,   ,   ,5000,16000,NA,NA,NA,NA,NA,NA,NA,NA,NA,78.08,METAR KLGA 011800Z 24014KT 15SM SCT050 SCT160 26/11 A2999 RMK VALGA6/1 SLP156 T02560106,NA
LGA,1973-06-01T19:00:00Z,-73.8803,40.7794,77.9,53.96,43.52,240,11,NA,29.97,1014.9,15,NA,SCT,BKN,   ,   ,5000,25000,NA,NA,NA,NA,NA,NA,NA,NA,NA,77.9,METAR KLGA 011900Z 24011KT 15SM SCT050 BKN250 25/12 A2997 RMK VALGA6/1 SLP149 T02550122,NA
LGA,1973-06-01T20:00:00Z,-73.8803,40.7794,77,52.88,43.1,240,13,NA,29.96,1014.6,10,NA,SCT,OVC,   ,   ,5000,25000,NA,NA,NA,NA,NA,NA,NA,NA,NA,77,METAR KLGA 012000Z 24013KT 10SM SCT050 OVC250 25/12 A2996 RMK LGA C6/1 SLP146 T02500116,NA
LGA,1973-06-01T21:00:00Z,-73.8803,40.7794,78.08,53.06,41.86,220,14,NA,29.94,1013.9,10,NA,SCT,   ,   ,   ,25000,NA,NA,NA,NA,NA,NA,NA,NA,NA,NA,78.08,METAR KLGA 012100Z 22014KT 10SM SCT250 26/12 A2994 RMK FEW CU SLP139 8/101 T02560117 57017,NA
LGA,1973-06-01T22:00:00Z,-73.8803,40.7794,75.92,52.88,44.67,250,15,NA,29.93,1013.5,10,NA,SCT,SCT,   ,   ,5000,25000,NA,NA,NA,NA,NA,NA,NA,NA,NA,75.92,METAR KLGA 012200Z 25015KT 10SM SCT050 SCT250 24/12 A2993 RMK VA SLP135 T02440116,NA
LGA,1973-06-01T22:24:00Z,-73.8803,40.7794,NA,NA,NA,300,18,NA,29.97,NA,7,28,BKN,BKN,OVC,NA,2500,4300,9800,NA,NA,NA,NA,NA,NA,NA,NA,NA,KLGA 012224Z AUTO 30018G28KT 7SM BKN025 BKN043 OVC098 A2997 RMK IEM_DS3505,NA
LGA,1973-06-01T23:00:00Z,-73.8803,40.7794,63.86,55.94,75.41,320,10,0.06,29.98,1015.2,6,NA,BKN,BKN,OVC,   ,2500,5000,10000,NA,-SHRA,NA,NA,NA,NA,NA,NA,63.86,METAR KLGA 012300Z 32010KT 6SM -SHRA BKN025 BKN050 OVC100 18/13 A2998 RMK RB22 VA SLP152 P0006 T01770133,NA
LGA,1973-06-02T00:00:00Z,-73.8803,40.7794,64.04,55.94,74.94,320,10,0.03,29.96,1015.2,7,NA,SCT,BKN,   ,   ,4000,25000,NA,NA,NA,NA,NA,NA,NA,NA,NA,64.04,METAR KLGA 020000Z 32010KT 7SM SCT040 BKN250 18/13 A2996 RMK RE10 SLP152 P0003 60008 T01780133,NA
LGA,1973-06-02T01:00:00Z,-73.8803,40.7794,66.92,59.9,78.16,270,5,NA,29.96,1014.6,7,NA,SCT,BKN,BKN,   ,4000,6000,25000,NA,NA,NA,NA,NA,NA,NA,NA,66.92,METAR KLGA 020100Z 27005KT 7SM SCT040 BKN060 BKN250 19/16 A2996 RMK VA SLP146 T01940155,NA
LGA,1973-06-02T02:00:00Z,-73.8803,40.7794,66.92,57.92,72.81,0,0,NA,29.98,1015.2,8,NA,SCT,BKN,   ,   ,3000,4900,NA,NA,NA,NA,NA,NA,NA,NA,NA,66.92,METAR KLGA 020200Z 00000KT 8SM SCT030 BKN049 19/14 A2998 RMK VA SLP152 T01940144,NA
LGA,1973-06-02T03:00:00Z,-73.8803,40.7794,66.92,57.02,70.49,170,6,NA,29.97,1014.9,10,NA,SCT,   ,   ,   ,5000,NA,NA,NA,NA,NA,NA,NA,NA,NA,NA,66.92,METAR KLGA 020300Z 17006KT 10SM SCT050 19/14 A2997 RMK VA SLP149 8/500 T01940139 50003,NA
LGA,1973-06-02T04:00:00Z,-73.8803,40.7794,66.92,57.92,72.81,220,8,NA,29.96,1014.6,10,NA,SCT,   ,   ,   ,5000,NA,NA,NA,NA,NA,NA,NA,NA,NA,NA,66.92,METAR KLGA 020400Z 22008KT 10SM SCT050 19/14 A2996 RMK SLP146 T01940144,NA
LGA,1973-06-02T05:00:00Z,-73.8803,40.7794,68,56.84,67.47,230,11,NA,29.96,1014.6,10,NA,CLR,   ,   ,   ,NA,NA,NA,NA,NA,NA,NA,NA,NA,NA,NA,68,METAR KLGA 020500Z 23011KT 10SM CLR 20/14 A2996 RMK LGA6/2 SLP146 T02000138,NA
LGA,1973-06-02T06:00:00Z,-73.8803,40.7794,68,55.94,65.31,270,11,NA,29.96,1014.6,10,NA,CLR,   ,   ,   ,NA,NA,NA,NA,NA,NA,NA,NA,NA,NA,NA,68,METAR KLGA 020600Z 27011KT 10SM CLR 20/13 A2996 RMK LGA6/2 SLP146 T02000133,NA
LGA,1973-06-02T07:00:00Z,-73.8803,40.7794,65.84,56.84,72.7,290,8,NA,29.97,1014.9,10,NA,SCT,   ,   ,   ,8000,NA,NA,NA,NA,NA,NA,NA,NA,NA,NA,65.84,METAR KLGA 020700Z 29008KT 10SM SCT080 19/14 A2997 RMK LGA6/2 SLP149 T01880138,NA
LGA,1973-06-02T08:00:00Z,-73.8803,40.7794,63.86,55.94,75.41,290,9,NA,29.98,1015.2,10,NA,SCT,   ,   ,   ,8000,NA,NA,NA,NA,NA,NA,NA,NA,NA,NA,63.86,METAR KLGA 020800Z 29009KT 10SM SCT080 18/13 A2998 RMK LGA6/2 SLP152 T01770133,NA
LGA,1973-06-02T09:00:00Z,-73.8803,40.7794,64.04,55.94,74.94,300,6,NA,30,1015.9,10,NA,BKN,   ,   ,   ,8000,NA,NA,NA,NA,NA,NA,NA,NA,NA,NA,64.04,METAR KLGA 020900Z 30006KT 10SM BKN080 18/13 A3000 RMK / 1030LGA6/2 SLP159 T01780133 52014,NA
LGA,1973-06-02T10:00:00Z,-73.8803,40.7794,63.86,53.96,70.17,320,9,NA,30.01,1016.3,8,NA,BKN,BKN,   ,   ,7000,10000,NA,NA,NA,NA,NA,NA,NA,NA,NA,63.86,METAR KLGA 021000Z 32009KT 8SM BKN070 BKN100 18/12 A3001 RMK LGA6/2 SLP163 T01770122,NA
LGA,1973-06-02T11:00:00Z,-73.8803,40.7794,62.96,52.88,69.61,320,7,NA,30.01,1016.3,8,NA,BKN,BKN,BKN,   ,5000,7000,10000,NA,NA,NA,NA,NA,NA,NA,NA,62.96,METAR KLGA 021100Z 32007KT 8SM BKN050 BKN070 BKN100 17/12 A3001 RMK VALGA6/2 SLP163 T01720116,NA
LGA,1973-06-02T12:00:00Z,-73.8803,40.7794,64.04,53.96,69.72,340,7,NA,30.04,1017.3,15,NA,SCT,BKN,BKN,   ,5000,8000,25000,NA,NA,NA,NA,NA,NA,NA,NA,64.04,METAR KLGA 021200Z 34007KT 15SM SCT050 BKN080 BKN250 18/12 A3004 RMK / RB02E06 VALGA6/2 SLP173 70008 T01780122,NA
LGA,1973-06-02T13:00:00Z,-73.8803,40.7794,64.4,55.4,72.56,360,12,NA,30.06,NA,15,NA,BKN,BKN,BKN,   ,2500,4500,25000,NA,NA,NA,NA,NA,NA,NA,NA,64.4,METAR KLGA 021300Z 36012KT 15SM BKN025 BKN045 BKN250 18/13 A3006 RMK / LWR,NA
LGA,1973-06-02T13:04:00Z,-73.8803,40.7794,NA,NA,NA,10,11,NA,30.07,NA,15,NA,SCT,SCT,SCT,NA,2500,4400,24600,NA,NA,NA,NA,NA,NA,NA,NA,NA,KLGA 021304Z AUTO 01011KT 15SM SCT025 SCT044 SCT246 A3007 RMK IEM_DS3505,NA
LGA,1973-06-02T14:00:00Z,-73.8803,40.7794,65.84,52.88,62.94,10,11,NA,30.08,1018.6,15,NA,SCT,SCT,SCT,   ,3000,12000,25000,NA,NA,NA,NA,NA,NA,NA,NA,65.84,METAR KLGA 021400Z 01011KT 15SM SCT030 SCT120 SCT250 19/12 A3008 RMK VALGA6/2 SLP186 T01880116,NA
LGA,1973-06-02T15:00:00Z,-73.8803,40.7794,68,46.04,45.26,20,10,NA,30.09,1019,15,NA,SCT,SCT,   ,   ,5000,25000,NA,NA,NA,NA,NA,NA,NA,NA,NA,68,METAR KLGA 021500Z 02010KT 15SM SCT050 SCT250 20/08 A3009 RMK / VALGA6/2 SLP190 8/101 T02000078 51019,NA
LGA,1973-06-02T16:00:00Z,-73.8803,40.7794,68.9,48.92,48.9,20,10,NA,30.1,1019.3,15,NA,SCT,SCT,   ,   ,5000,25000,NA,NA,NA,NA,NA,NA,NA,NA,NA,68.9,METAR KLGA 021600Z 02010KT 15SM SCT050 SCT250 20/09 A3010 RMK VALGA6/2 SLP193 T02050094,NA
LGA,1973-06-02T17:00:00Z,-73.8803,40.7794,69.98,48.92,47.13,320,7,NA,30.09,1019,15,NA,SCT,   ,   ,   ,5000,NA,NA,NA,NA,NA,NA,NA,NA,NA,NA,69.98,METAR KLGA 021700Z 32007KT 15SM SCT050 21/09 A3009 RMK VALGA6/2 SLP190 T02110094,NA
LGA,1973-06-02T18:00:00Z,-73.8803,40.7794,71.06,48.92,45.43,50,7,NA,30.08,1018.6,15,NA,SCT,   ,   ,   ,5000,NA,NA,NA,NA,NA,NA,NA,NA,NA,NA,70,METAR KLGA 021800Z 05007KT 15SM SCT050 22/09 A3008 RMK VA SLP186 T02170094,NA
LGA,1973-06-02T19:00:00Z,-73.8803,40.7794,71.96,47.84,42.31,320,5,NA,30.06,1018,15,NA,SCT,   ,   ,   ,5000,NA,NA,NA,NA,NA,NA,NA,NA,NA,NA,70.84,METAR KLGA 021900Z 32005KT 15SM SCT050 22/09 A3006 RMK VA SLP180 T02220088,NA
LGA,1973-06-02T20:00:00Z,-73.8803,40.7794,73.94,48.92,41.21,320,10,NA,30.04,1017.3,15,NA,SCT,SCT,   ,   ,5000,25000,NA,NA,NA,NA,NA,NA,NA,NA,NA,73.94,METAR KLGA 022000Z 32010KT 15SM SCT050 SCT250 23/09 A3004 RMK VA SLP173 T02330094,NA
LGA,1973-06-02T21:00:00Z,-73.8803,40.7794,73.94,51.08,44.66,190,10,NA,30.04,1017.3,15,NA,SCT,FEW,   ,   ,5000,25000,NA,NA,NA,NA,NA,NA,NA,NA,NA,73.94,METAR KLGA 022100Z 19010KT 15SM SCT050 FEW250 23/11 A3004 RMK / 4 VA SLP173 8/101 T02330106,NA
LGA,1973-06-02T22:00:00Z,-73.8803,40.7794,70.88,50.9,49.2,170,14,NA,30.03,1016.9,15,NA,SCT,SCT,   ,   ,5000,25000,NA,NA,NA,NA,NA,NA,NA,NA,NA,70.88,METAR KLGA 022200Z 17014KT 15SM SCT050 SCT250 22/11 A3003 RMK VA SLP169 T02160105,NA
LGA,1973-06-02T23:00:00Z,-73.8803,40.7794,68.9,52.88,56.63,170,10,NA,30.04,1017.3,15,NA,SCT,   ,   ,   ,25000,NA,NA,NA,NA,NA,NA,NA,NA,NA,NA,68.9,METAR KLGA 022300Z 17010KT 15SM SCT250 20/12 A3004 RMK VA SLP173 T02050116,NA
LGA,1973-06-03T00:00:00Z,-73.8803,40.7794,66.92,51.98,58.65,160,10,NA,30.05,1017.6,15,NA,FEW,   ,   ,   ,25000,NA,NA,NA,NA,NA,NA,NA,NA,NA,NA,66.92,METAR KLGA 030000Z 16010KT 15SM FEW250 19/11 A3005 RMK FEW SC SLP176 T01940111,NA
LGA,1973-06-03T01:00:00Z,-73.8803,40.7794,64.94,51.98,62.83,170,9,NA,30.07,1018.3,8,NA,SCT,   ,   ,   ,25000,NA,NA,NA,NA,NA,NA,NA,NA,NA,NA,64.94,METAR KLGA 030100Z 17009KT 8SM SCT250 18/11 A3007 RMK VA SLP183 T01830111,NA
LGA,1973-06-03T02:00:00Z,-73.8803,40.7794,64.94,52.88,64.94,160,6,NA,30.1,1019.3,9,NA,CLR,   ,   ,   ,NA,NA,NA,NA,NA,NA,NA,NA,NA,NA,NA,64.94,METAR KLGA 030200Z 16006KT 9SM CLR 18/12 A3010 RMK VA SLP193 T01830116,NA
LGA,1973-06-03T03:00:00Z,-73.8803,40.7794,64.94,51.98,62.83,200,7,NA,30.12,1020,9,NA,CLR,   ,   ,   ,NA,NA,NA,NA,NA,NA,NA,NA,NA,NA,NA,64.94,METAR KLGA 030300Z 20007KT 9SM CLR 18/11 A3012 RMK / SLP200 T01830111 52024,NA
LGA,1973-06-03T04:00:00Z,-73.8803,40.7794,63.86,52.88,67.44,210,8,NA,30.12,1020,9,NA,CLR,   ,   ,   ,NA,NA,NA,NA,NA,NA,NA,NA,NA,NA,NA,63.86,METAR KLGA 030400Z 21008KT 9SM CLR 18/12 A3012 RMK SLP200 T01770116,NA
LGA,1973-06-03T05:00:00Z,-73.8803,40.7794,62.96,52.88,69.61,220,4,NA,30.14,1020.7,8,NA,BKN,   ,   ,   ,7000,NA,NA,NA,NA,NA,NA,NA,NA,NA,NA,62.96,METAR KLGA 030500Z 22004KT 8SM BKN070 17/12 A3014 RMK SLP207 T01720116,NA
LGA,1973-06-03T06:00:00Z,-73.8803,40.7794,60.08,55.04,83.41,40,8,NA,30.14,1020.7,8,NA,BKN,   ,   ,   ,7000,NA,NA,NA,NA,NA,NA,NA,NA,NA,NA,60.08,METAR KLGA 030600Z 04008KT 8SM BKN070 16/13 A3014 RMK SLP207 T01560128,NA
LGA,1973-06-03T07:00:00Z,-73.8803,40.7794,59,53.96,83.34,30,8,NA,30.15,1021,9,NA,SCT,   ,   ,   ,7000,NA,NA,NA,NA,NA,NA,NA,NA,NA,NA,59,METAR KLGA 030700Z 03008KT 9SM SCT070 15/12 A3015 RMK %V SLP210 T01500122,NA
LGA,1973-06-03T08:00:00Z,-73.8803,40.7794,59,53.96,83.34,30,6,NA,30.15,1021,10,NA,BKN,OVC,   ,   ,6000,8000,NA,NA,NA,NA,NA,NA,NA,NA,NA,59,METAR KLGA 030800Z 03006KT 10SM BKN060 OVC080 15/12 A3015 RMK SLP210 T01500122,NA
LGA,1973-06-03T09:00:00Z,-73.8803,40.7794,57.92,50,74.86,30,6,NA,30.17,1021.7,15,NA,BKN,OVC,   ,   ,5000,7000,NA,NA,NA,NA,NA,NA,NA,NA,NA,57.92,METAR KLGA 030900Z 03006KT 15SM BKN050 OVC070 14/10 A3017 RMK BINOVC SLP217 T01440100,NA
LGA,1973-06-03T10:00:00Z,-73.8803,40.7794,59,46.94,64.22,70,6,NA,30.18,1022,15,NA,BKN,BKN,OVC,   ,6000,8000,10000,NA,NA,NA,NA,NA,NA,NA,NA,59,METAR KLGA 031000Z 07006KT 15SM BKN060 BKN080 OVC100 15/08 A3018 RMK BINOVC VA SLP220 T01500083,NA
LGA,1973-06-03T12:00:00Z,-73.8803,40.7794,57.92,42.98,57.42,50,14,NA,30.2,1022.7,15,NA,BKN,BKN,   ,   ,5000,8000,NA,NA,NA,NA,NA,NA,NA,NA,NA,57.92,METAR KLGA 031200Z 05014KT 15SM BKN050 BKN080 14/06 A3020 RMK VA SLP227 T01440061,NA
LGA,1973-06-03T13:00:00Z,-73.8803,40.7794,57.92,43.88,59.43,40,14,NA,30.22,1023.4,15,NA,BKN,BKN,   ,   ,5000,9000,NA,NA,NA,NA,NA,NA,NA,NA,NA,57.92,METAR KLGA 031300Z 04014KT 15SM BKN050 BKN090 14/07 A3022 RMK VA SLP234 T01440066,NA
LGA,1973-06-03T14:00:00Z,-73.8803,40.7794,59.9,46.94,62.19,40,10,NA,30.23,1023.7,15,NA,BKN,BKN,BKN,   ,5000,9000,25000,NA,NA,NA,NA,NA,NA,NA,NA,59.9,METAR KLGA 031400Z 04010KT 15SM BKN050 BKN090 BKN250 16/08 A3023 RMK 55V% VA SLP237 T01550083,NA
LGA,1973-06-03T15:00:00Z,-73.8803,40.7794,62.06,50,64.59,40,14,NA,30.25,1024.4,15,NA,SCT,BKN,BKN,   ,6000,9000,25000,NA,NA,NA,NA,NA,NA,NA,NA,62.06,METAR KLGA 031500Z 04014KT 15SM SCT060 BKN090 BKN250 17/10 A3025 RMK VA SLP244 8/551 T01670100 52017,NA
LGA,1973-06-03T16:00:00Z,-73.8803,40.7794,62.96,48.92,60.11,50,14,NA,30.24,1024,15,NA,SCT,SCT,OVC,   ,4000,9000,18000,NA,NA,NA,NA,NA,NA,NA,NA,62.96,METAR KLGA 031600Z 05014KT 15SM SCT040 SCT090 OVC180 17/09 A3024 RMK VA SLP240 T01720094,NA
LGA,1973-06-03T17:00:00Z,-73.8803,40.7794,64.94,50.9,60.37,30,13,NA,30.22,1023.4,15,NA,SCT,OVC,   ,   ,5000,18000,NA,NA,NA,NA,NA,NA,NA,NA,NA,64.94,METAR KLGA 031700Z 03013KT 15SM SCT050 OVC180 18/11 A3022 RMK VA SLP234 T01830105,NA
LGA,1973-06-03T18:00:00Z,-73.8803,40.7794,66.02,51.08,58.53,60,9,NA,30.2,1022.7,15,NA,SCT,OVC,   ,   ,5000,18000,NA,NA,NA,NA,NA,NA,NA,NA,NA,66.02,METAR KLGA 031800Z 06009KT 15SM SCT050 OVC180 19/11 A3020 RMK VA SLP227 T01890106,NA
LGA,1973-06-03T19:00:00Z,-73.8803,40.7794,65.84,50,56.58,50,9,NA,30.19,1022.4,15,NA,OVC,   ,   ,   ,20000,NA,NA,NA,NA,NA,NA,NA,NA,NA,NA,65.84,METAR KLGA 031900Z 05009KT 15SM OVC200 19/10 A3019 RMK VA SLP224 T01880100,NA
LGA,1973-06-03T20:00:00Z,-73.8803,40.7794,65.84,50,56.58,80,8,NA,30.18,1022,15,NA,SCT,OVC,   ,   ,4000,15000,NA,NA,NA,NA,NA,NA,NA,NA,NA,65.84,METAR KLGA 032000Z 08008KT 15SM SCT040 OVC150 19/10 A3018 RMK VA SLP220 T01880100,NA
LGA,1973-06-03T21:00:00Z,-73.8803,40.7794,66.02,48.02,52.22,130,9,NA,30.17,1021.7,15,NA,OVC,   ,   ,   ,14000,NA,NA,NA,NA,NA,NA,NA,NA,NA,NA,66.02,METAR KLGA 032100Z 13009KT 15SM OVC140 19/09 A3017 RMK VA SLP217 8/02/ T01890089 57010,NA
LGA,1973-06-03T22:00:00Z,-73.8803,40.7794,64.94,44.96,48.3,160,8,NA,30.16,1021.3,15,NA,SCT,OVC,   ,   ,4000,14000,NA,NA,NA,NA,NA,NA,NA,NA,NA,64.94,METAR KLGA 032200Z 16008KT 15SM SCT040 OVC140 18/07 A3016 RMK VA SLP213 T01830072,NA
LGA,1973-06-03T23:00:00Z,-73.8803,40.7794,63.86,50,60.63,170,8,NA,30.17,1021.7,10,NA,SCT,OVC,   ,   ,4000,12000,NA,NA,NA,NA,NA,NA,NA,NA,NA,63.86,METAR KLGA 032300Z 17008KT 10SM SCT040 OVC120 18/10 A3017 RMK VA SLP217 T01770100,NA
LGA,1973-06-04T00:00:00Z,-73.8803,40.7794,64.04,53.06,67.46,190,8,NA,30.16,1021.3,8,NA,SCT,OVC,   ,   ,4000,12000,NA,NA,NA,NA,NA,NA,NA,NA,NA,64.04,METAR KLGA 040000Z 19008KT 8SM SCT040 OVC120 18/12 A3016 RMK VA SLP213 T01780117,NA
LGA,1973-06-04T01:00:00Z,-73.8803,40.7794,62.96,55.94,77.83,150,7,NA,30.16,1021.3,7,NA,BKN,OVC,   ,   ,1300,4000,NA,NA,NA,NA,NA,NA,NA,NA,NA,62.96,METAR KLGA 040100Z 15007KT 7SM BKN013 OVC040 17/13 A3016 RMK SLP213 T01720133,NA
LGA,1973-06-04T02:00:00Z,-73.8803,40.7794,63,55.9,77.61,150,5.04,NA,30.16,NA,6,NA,   ,   ,   ,   ,NA,NA,NA,NA,NA,NA,NA,NA,NA,NA,NA,63,METAR KLGA 040200Z 15005KT 6SM FUDZ BKN011 OVC025 17/13 A3016 RMK SLP213 T01720133,NA
LGA,1973-06-04T03:00:00Z,-73.8803,40.7794,64,57,77.97,180,6,NA,30.16,NA,5,NA,   ,   ,   ,   ,NA,NA,NA,NA,NA,NA,NA,NA,NA,NA,NA,64,METAR KLGA 040300Z 17006KT 5SM FUDZ BKN012 BKN025 OVC046 18/14 A3016 RMK / SLP213 8/6// T01780139 54000,NA
LGA,1973-06-04T03:21:00Z,-73.8803,40.7794,NA,NA,NA,160,5,NA,30.16,NA,5,NA,SCT,OVC,NA,NA,1500,3300,NA,NA,NA,NA,NA,NA,NA,NA,NA,NA,KLGA 040321Z AUTO 16005KT 5SM SCT015 OVC033 A3016 RMK IEM_DS3505,NA
LGA,1973-06-04T04:00:00Z,-73.8803,40.7794,63.9,55.9,75.19,210,5.04,NA,30.16,NA,6,NA,   ,   ,   ,   ,NA,NA,NA,NA,NA,NA,NA,NA,NA,NA,NA,63.9,METAR KLGA 040400Z 21005KT 6SM FUDZ SCT015 BKN034 OVC100 18/13 A3016 RMK SLP213 T01770133,NA
LGA,1973-06-04T05:00:00Z,-73.8803,40.7794,62.96,55.94,77.83,200,3,NA,30.15,1021,6,NA,OVC,   ,   ,   ,3300,NA,NA,NA,DZ,NA,NA,NA,NA,NA,NA,62.96,METAR KLGA 040500Z 20003KT 6SM DZ OVC033 17/13 A3015 RMK HIR CLDS VSB SLP210 T01720133,NA
LGA,1973-06-04T06:00:00Z,-73.8803,40.7794,62.96,57.02,80.93,180,5,NA,30.12,1020,6,NA,SCT,OVC,   ,   ,3500,11000,NA,NA,DZ,NA,NA,NA,NA,NA,NA,62.96,METAR KLGA 040600Z 18005KT 6SM DZ SCT035 OVC110 17/14 A3012 RMK SLP200 T01720139,NA
LGA,1973-06-04T07:00:00Z,-73.8803,40.7794,62.96,57.92,83.6,250,3,0.02,30.11,1019.6,4,NA,SCT,OVC,   ,   ,1500,9000,NA,NA,-RA DZ,NA,NA,NA,NA,NA,NA,62.96,METAR KLGA 040700Z 25003KT 4SM -RA DZ SCT015 OVC090 17/14 A3011 RMK RB25 SLP196 P0002 T01720144,NA
LGA,1973-06-04T08:00:00Z,-73.8803,40.7794,62.96,59,86.9,140,7,0.01,30.09,1019,2.5,NA,BKN,BKN,OVC,   ,1800,4900,6000,NA,-RA DZ,NA,NA,NA,NA,NA,NA,62.96,METAR KLGA 040800Z 14007KT 21/2SM -RA DZ BKN018 BKN049 OVC060 17/15 A3009 RMK SLP190 P0001 T01720150,NA
LGA,1973-06-04T09:00:00Z,-73.8803,40.7794,62.96,59,86.9,180,6,0.01,30.08,1018.6,2.5,NA,BKN,OVC,   ,   ,1800,9000,NA,NA,-RA DZ,NA,NA,NA,NA,NA,NA,62.96,METAR KLGA 040900Z 18006KT 21/2SM -RA DZ BKN018 OVC090 17/15 A3008 RMK / SLP186 P0001 8/72/ T01720150 52003,NA
LGA,1973-06-04T10:00:00Z,-73.8803,40.7794,63,59.9,89.61,180,4,NA,30.1,NA,2,NA,   ,   ,   ,   ,NA,NA,NA,NA,NA,NA,NA,NA,NA,NA,NA,63,METAR KLGA 041000Z 19004KT 2SM FGDZ OVC/// OVC100 17/16 A3010 RMK FH2 RE30 SLP193 T01720155,NA
LGA,1973-06-04T11:00:00Z,-73.8803,40.7794,63.9,59.9,86.82,230,5.04,NA,30.11,NA,2,NA,   ,   ,   ,   ,NA,NA,NA,NA,NA,NA,NA,NA,NA,NA,NA,63.9,METAR KLGA 041100Z 23005KT 2SM -RA FGDZ SCT012 BKN080 OVC100 18/16 A3011 RMK RB05 SLP196 T01770155,NA
LGA,1973-06-04T12:00:00Z,-73.8803,40.7794,64,60.1,87.14,210,6,0.01,30.11,NA,2,NA,   ,   ,   ,   ,NA,NA,NA,NA,NA,NA,NA,NA,NA,NA,NA,64,METAR KLGA 041200Z 21006KT 2SM -RA FGDZ SCT012 OVC080 18/16 A3011 RMK SLP196 P0001 60004 70004 T01780156,NA
LGA,1973-06-04T13:00:00Z,-73.8803,40.7794,64.9,61,87.18,230,5.04,NA,30.1,NA,2,NA,   ,   ,   ,   ,NA,NA,NA,NA,NA,NA,NA,NA,NA,NA,NA,64.9,METAR KLGA 041300Z 23005KT 2SM FGDZ SCT015 BKN070 OVC150 18/16 A3010 RMK RE17LGA6/3 SLP193 T01830161,NA
LGA,1973-06-04T14:00:00Z,-73.8803,40.7794,68.9,63,81.47,250,10,NA,30.08,NA,2,NA,   ,   ,   ,   ,NA,NA,NA,NA,NA,NA,NA,NA,NA,NA,NA,68.9,METAR KLGA 041400Z 24010KT 2SM FUDZ OVC/// BKN080 BKN200 20/17 A3008 RMK H2LGA6/3 SLP186 T02050172,NA
LGA,1973-06-04T15:00:00Z,-73.8803,40.7794,72,63,73.31,250,10,NA,30.07,NA,3,NA,   ,   ,   ,   ,NA,NA,NA,NA,NA,NA,NA,NA,NA,NA,NA,72,METAR KLGA 041500Z 24010KT 3SM FUDZ BKN070 OVC150 22/17 A3007 RMK / 107/LGA6/3 SLP183 T02220172 57014,NA
LGA,1973-06-04T16:00:00Z,-73.8803,40.7794,74.8,63,66.71,250,11.04,NA,30.06,NA,3,NA,   ,   ,   ,   ,NA,NA,NA,NA,NA,NA,NA,NA,NA,NA,NA,74.8,METAR KLGA 041600Z 24011KT 3SM FUDZ BKN070 BKN150 24/17 A3006 RMK LGA6/3 SLP180 T02380172,NA
LGA,1973-06-04T17:00:00Z,-73.8803,40.7794,79.9,65.8,62.14,210,11.04,NA,30.04,NA,3,NA,   ,   ,   ,   ,NA,NA,NA,NA,NA,NA,NA,NA,NA,NA,NA,81.92,METAR KLGA 041700Z 21011KT 3SM FUDZ BKN150 27/19 A3004 RMK LGA6/3 SLP173 T02660188,NA
LGA,1973-06-04T18:00:00Z,-73.8803,40.7794,81,66,60.37,230,14,NA,30.03,NA,3,NA,   ,   ,   ,   ,NA,NA,NA,NA,NA,NA,NA,NA,NA,NA,NA,83.11,METAR KLGA 041800Z 23014KT 3SM FUDZ SCT040 SCT080 27/19 A3003 RMK LGA6/3 SLP169 T02720189,NA
LGA,1973-06-04T19:00:00Z,-73.8803,40.7794,79,64.9,62.03,290,8,NA,30.03,NA,3,NA,   ,   ,   ,   ,NA,NA,NA,NA,NA,NA,NA,NA,NA,NA,NA,80.83,METAR KLGA 041900Z 29008KT 3SM -SHRA FUDZ SCT040 OVC080 26/18 A3003 RMK RB49LGA6/3 SLP169 T02610183,NA
LGA,1973-06-04T19:11:00Z,-73.8803,40.7794,NA,NA,NA,290,7,NA,30.03,NA,4,NA,SCT,BKN,NA,NA,3800,4900,NA,NA,NA,NA,NA,NA,NA,NA,NA,NA,KLGA 041911Z AUTO 29007KT 4SM SCT038 BKN049 A3003 RMK IEM_DS3505,NA
LGA,1973-06-04T20:00:00Z,-73.8803,40.7794,80.96,65.84,60.11,330,11,NA,30.03,1016.9,7,NA,SCT,SCT,BKN,   ,4500,12000,23000,NA,NA,NA,NA,NA,NA,NA,NA,83.02,METAR KLGA 042000Z 33011KT 7SM SCT045 SCT120 BKN230 27/19 A3003 RMK / RE02 TCU SE VALGA C6/3 SLP169 T02720188,NA
LGA,1973-06-04T21:00:00Z,-73.8803,40.7794,82.94,64.04,52.93,320,7,NA,30.02,1016.6,7,NA,SCT,SCT,BKN,   ,NA,NA,NA,NA,NA,NA,NA,NA,NA,NA,NA,84.37,METAR KLGA 042100Z 32007KT 7SM SCT/// SCT/// BKN/// 28/18 A//// RMK SLP166 T02830178,NA
LGA,1973-06-04T22:00:00Z,-73.8803,40.7794,83.84,64.94,53.06,270,7,NA,30.01,1016.3,8,NA,SCT,BKN,   ,   ,12000,25000,NA,NA,NA,NA,NA,NA,NA,NA,NA,85.58,METAR KLGA 042200Z 27007KT 8SM SCT120 BKN250 29/18 A3001 RMK VA SLP163 T02880183,NA
LGA,1973-06-04T23:00:00Z,-73.8803,40.7794,82.94,62.96,50.97,270,8,NA,30.02,1016.6,8,NA,SCT,BKN,   ,   ,12000,25000,NA,NA,NA,NA,NA,NA,NA,NA,NA,84,METAR KLGA 042300Z 27008KT 8SM SCT120 BKN250 28/17 A3002 RMK VA SLP166 T02830172,NA
LGA,1973-06-05T00:00:00Z,-73.8803,40.7794,82.04,62.06,50.84,250,6,NA,30.02,1016.6,8,NA,SCT,OVC,   ,   ,12000,25000,NA,NA,NA,NA,NA,NA,NA,NA,NA,82.94,METAR KLGA 050000Z 25006KT 8SM SCT120 OVC250 28/17 A3002 RMK VA SLP166 T02780167,NA
LGA,1973-06-05T01:00:00Z,-73.8803,40.7794,77,60.98,57.73,310,16,0.1,30.08,1018.6,7,22,BKN,BKN,OVC,   ,4000,10000,25000,NA,-SHRA,NA,NA,NA,NA,NA,NA,77,METAR KLGA 050100Z 31016G22KT 7SM -SHRA BKN040 BKN100 OVC250 25/16 A3008 RMK / LTGICCG SLP186 P0010 T02500161,NA
LGA,1973-06-05T01:15:00Z,-73.8803,40.7794,NA,NA,NA,240,9,NA,30.1,NA,6,NA,SCT,BKN,OVC,NA,2000,3900,9800,NA,NA,NA,NA,NA,NA,NA,NA,NA,KLGA 050115Z AUTO 24009KT 6SM SCT020 BKN039 OVC098 A3010 RMK IEM_DS3505,NA
LGA,1973-06-05T02:00:00Z,-73.8803,40.7794,71.96,64.94,78.57,190,8,0.05,30.09,1019,8,NA,BKN,OVC,   ,   ,4000,10000,NA,NA,-SHRA,NA,NA,NA,NA,NA,NA,71.96,METAR KLGA 050200Z 19008KT 8SM -SHRA BKN040 OVC100 22/18 A3009 RMK TB0157E32 MOVD E-SE OCNL LTGIC E-SE PK WND 3022/30 SLP190 P0005 T02220183,NA
LGA,1973-06-05T03:00:00Z,-73.8803,40.7794,71.96,64.04,76.13,240,9,NA,30.09,1019,9,NA,SCT,BKN,BKN,   ,4000,10000,25000,NA,NA,NA,NA,NA,NA,NA,NA,71.96,METAR KLGA 050300Z 24009KT 9SM SCT040 BKN100 BKN250 22/18 A3009 RMK / RE0158 / SLP190 8/536 T02220178 51024,NA
LGA,1973-06-05T04:00:00Z,-73.8803,40.7794,70.88,62.96,76.04,240,11,NA,30.11,1019.6,10,NA,BKN,BKN,   ,   ,10000,25000,NA,NA,NA,NA,NA,NA,NA,NA,NA,70.88,METAR KLGA 050400Z 24011KT 10SM BKN100 BKN250 22/17 A3011 RMK VA SLP196 T02160172,NA
LGA,1973-06-05T05:00:00Z,-73.8803,40.7794,70.88,62.96,76.04,240,10,NA,30.09,1019,10,NA,SCT,BKN,   ,   ,15000,25000,NA,NA,NA,NA,NA,NA,NA,NA,NA,70.88,METAR KLGA 050500Z 24010KT 10SM SCT150 BKN250 22/17 A3009 RMK SLP190 T02160172,NA
LGA,1973-06-05T06:00:00Z,-73.8803,40.7794,69.98,64.04,81.44,250,6,NA,30.08,1018.6,9,NA,SCT,BKN,   ,   ,15000,25000,NA,NA,NA,NA,NA,NA,NA,NA,NA,69.98,METAR KLGA 050600Z 25006KT 9SM SCT150 BKN250 21/18 A3008 RMK SLP186 60016 T02110178,NA
LGA,1973-06-05T07:00:00Z,-73.8803,40.7794,69.98,62.96,78.41,270,9,NA,30.08,1018.6,10,NA,OVC,   ,   ,   ,25000,NA,NA,NA,NA,NA,NA,NA,NA,NA,NA,69.98,METAR KLGA 050700Z 27009KT 10SM OVC250 21/17 A3008 RMK SLP186 T02110172,NA
LGA,1973-06-05T08:00:00Z,-73.8803,40.7794,68.9,62.96,81.36,240,7,NA,30.07,1018.3,9,NA,SCT,BKN,   ,   ,15000,25000,NA,NA,NA,NA,NA,NA,NA,NA,NA,68.9,METAR KLGA 050800Z 24007KT 9SM SCT150 BKN250 20/17 A3007 RMK WND 200V270 SLP183 T02050172,NA
LGA,1973-06-05T09:00:00Z,-73.8803,40.7794,69.98,62.06,75.96,310,5,NA,30.08,1018.6,9,NA,BKN,   ,   ,   ,25000,NA,NA,NA,NA,NA,NA,NA,NA,NA,NA,69.98,METAR KLGA 050900Z 31005KT 9SM BKN250 21/17 A3008 RMK FEW AC/ SLP186 8/031 T02110167 55000,NA
LGA,1973-06-05T10:00:00Z,-73.8803,40.7794,70.88,61.88,73.2,0,0,NA,30.08,1018.6,9,NA,BKN,   ,   ,   ,25000,NA,NA,NA,NA,NA,NA,NA,NA,NA,NA,70.88,METAR KLGA 051000Z 00000KT 9SM BKN250 22/17 A3008 RMK FEW AC SLP186 T02160166,NA
LGA,1973-06-05T11:00:00Z,-73.8803,40.7794,69.98,62.96,78.41,190,6,NA,30.09,1019,5,NA,SCT,SCT,   ,   ,12000,25000,NA,NA,DZ,NA,NA,NA,NA,NA,NA,69.98,METAR KLGA 051100Z 19006KT 5SM DZ SCT120 SCT250 21/17 A3009 RMK SLP190 T02110172,NA
LGA,1973-06-05T12:00:00Z,-73.8803,40.7794,71.96,62.96,73.3,210,8,NA,30.11,1019.6,5,NA,BKN,   ,   ,   ,10000,NA,NA,NA,DZ,NA,NA,NA,NA,NA,NA,71.96,METAR KLGA 051200Z 21008KT 5SM DZ BKN100 22/17 A3011 RMK VA SLP196 T02220172,NA
LGA,1973-06-05T13:00:00Z,-73.8803,40.7794,72.9,63.9,73.39,230,6,NA,30.12,NA,5,NA,   ,   ,   ,   ,NA,NA,NA,NA,NA,NA,NA,NA,NA,NA,NA,72.9,METAR KLGA 051300Z 23006KT 5SM FUDZ BKN100 23/18 A3012 RMK VA SLP200 T02270177,NA
LGA,1973-06-05T14:00:00Z,-73.8803,40.7794,75.9,63.9,66.37,270,9.04,NA,30.13,NA,4,NA,   ,   ,   ,   ,NA,NA,NA,NA,NA,NA,NA,NA,NA,NA,NA,75.9,METAR KLGA 051400Z 26009KT 4SM FUDZ SCT070 BKN100 24/18 A3013 RMK VA SLP203 T02440177,NA
LGA,1973-06-05T15:00:00Z,-73.8803,40.7794,80.1,66.9,64.14,220,7.04,NA,30.12,NA,4,NA,   ,   ,   ,   ,NA,NA,NA,NA,NA,NA,NA,NA,NA,NA,NA,82.4,METAR KLGA 051500Z 22007KT 4SM FUDZ BKN120 27/19 A3012 RMK / VA SLP200 8/030 T02670194 50003,NA
LGA,1973-06-05T16:00:00Z,-73.8803,40.7794,81,64.9,58.1,210,9.04,NA,30.13,NA,5,NA,   ,   ,   ,   ,NA,NA,NA,NA,NA,NA,NA,NA,NA,NA,NA,82.79,METAR KLGA 051600Z 21009KT 5SM FUDZ BKN100 27/18 A3013 RMK VA SLP203 T02720183,NA
LGA,1973-06-05T17:00:00Z,-73.8803,40.7794,83.84,63.86,51.09,270,12,NA,30.12,1020,8,NA,BKN,   ,   ,   ,11000,NA,NA,NA,NA,NA,NA,NA,NA,NA,NA,85.16,METAR KLGA 051700Z 27012KT 8SM BKN110 29/18 A3012 RMK FEW CU VA SLP200 T02880177,NA
LGA,1973-06-05T18:00:00Z,-73.8803,40.7794,84.02,64.94,52.75,170,8,NA,30.11,1019.6,7,NA,SCT,   ,   ,   ,12000,NA,NA,NA,NA,NA,NA,NA,NA,NA,NA,85.76,METAR KLGA 051800Z 17008KT 7SM SCT120 29/18 A3011 RMK VA SLP196 T02890183,NA
LGA,1973-06-05T19:00:00Z,-73.8803,40.7794,83.84,66.92,56.84,180,8,NA,30.11,1019.6,7,NA,SCT,   ,   ,   ,12000,NA,NA,NA,NA,NA,NA,NA,NA,NA,NA,86.46,METAR KLGA 051900Z 18008KT 7SM SCT120 29/19 A3011 RMK VA SLP196 T02880194,NA
LGA,1973-06-05T20:00:00Z,-73.8803,40.7794,83.84,65.84,54.75,170,11,NA,30.1,1019.3,7,NA,SCT,   ,   ,   ,12000,NA,NA,NA,NA,NA,NA,NA,NA,NA,NA,85.97,METAR KLGA 052000Z 17011KT 7SM SCT120 29/19 A3010 RMK FEW CU NW VA SLP193 T02880188,NA
LGA,1973-06-05T21:00:00Z,-73.8803,40.7794,80.06,66.02,62.29,180,14,NA,30.1,1019.3,7,NA,BKN,   ,   ,   ,12000,NA,NA,NA,NA,NA,NA,NA,NA,NA,NA,82.14,METAR KLGA 052100Z 18014KT 7SM BKN120 27/19 A3010 RMK / FEW CU W/ VA SLP193 8/230 T02670189 56003,NA
LGA,1973-06-05T22:00:00Z,-73.8803,40.7794,78.98,65.84,64.14,180,14,NA,30.1,1019.3,8,NA,BKN,   ,   ,   ,12000,NA,NA,NA,NA,NA,NA,NA,NA,NA,NA,80.96,METAR KLGA 052200Z 18014KT 8SM BKN120 26/19 A3010 RMK VA SLP193 T02610188,NA
LGA,1973-06-05T23:00:00Z,-73.8803,40.7794,78.98,65.84,64.14,150,13,NA,30.1,1019.3,7,NA,BKN,   ,   ,   ,12000,NA,NA,NA,NA,NA,NA,NA,NA,NA,NA,80.96,METAR KLGA 052300Z 15013KT 7SM BKN120 26/19 A3010 RMK VA SLP193 T02610188,NA
LGA,1973-06-06T00:00:00Z,-73.8803,40.7794,78.98,66.02,64.54,140,9,NA,30.09,1019,7,NA,SCT,   ,   ,   ,12000,NA,NA,NA,NA,NA,NA,NA,NA,NA,NA,80.99,METAR KLGA 060000Z 14009KT 7SM SCT120 26/19 A3009 RMK VA SLP190 T02610189,NA
LGA,1973-06-06T01:00:00Z,-73.8803,40.7794,72.86,63.86,73.39,160,6,NA,30.1,1019.3,5,NA,SCT,   ,   ,   ,12000,NA,NA,NA,DZ,NA,NA,NA,NA,NA,NA,72.86,METAR KLGA 060100Z 16006KT 5SM DZ SCT120 23/18 A3010 RMK VA SLP193 T02270177,NA
LGA,1973-06-06T02:00:00Z,-73.8803,40.7794,72.86,63.86,73.39,130,5,NA,30.12,1020,6,NA,CLR,   ,   ,   ,NA,NA,NA,NA,DZ,NA,NA,NA,NA,NA,NA,72.86,METAR KLGA 060200Z 13005KT 6SM DZ CLR 23/18 A3012 RMK VA SLP200 T02270177,NA
LGA,1973-06-06T03:00:00Z,-73.8803,40.7794,71.96,64.04,76.13,70,5,NA,30.12,1020,6,NA,CLR,   ,   ,   ,NA,NA,NA,NA,DZ,NA,NA,NA,NA,NA,NA,71.96,METAR KLGA 060300Z 07005KT 6SM DZ CLR 22/18 A3012 RMK VA/ SLP200 T02220178 51010,NA
LGA,1973-06-06T04:00:00Z,-73.8803,40.7794,74.84,63.86,68.67,180,5,NA,30.14,1020.7,6,NA,CLR,   ,   ,   ,NA,NA,NA,NA,DZ,NA,NA,NA,NA,NA,NA,74.84,METAR KLGA 060400Z 18005KT 6SM DZ CLR 24/18 A3014 RMK SLP207 T02380177,NA
LGA,1973-06-06T05:00:00Z,-73.8803,40.7794,72.86,63.86,73.39,140,5,NA,30.13,1020.3,6,NA,BKN,BKN,   ,   ,5000,15000,NA,NA,DZ,NA,NA,NA,NA,NA,NA,72.86,METAR KLGA 060500Z 14005KT 6SM DZ BKN050 BKN150 23/18 A3013 RMK LWR V% SLP203 T02270177,NA
LGA,1973-06-06T06:00:00Z,-73.8803,40.7794,71.96,62.96,73.3,100,4,NA,30.12,1020,7,NA,SCT,   ,   ,   ,15000,NA,NA,NA,NA,NA,NA,NA,NA,NA,NA,71.96,METAR KLGA 060600Z 10004KT 7SM SCT150 22/17 A3012 RMK SLP200 T02220172,NA
LGA,1973-06-06T07:00:00Z,-73.8803,40.7794,63.86,59.9,86.94,50,11,NA,30.12,1020,6,NA,BKN,   ,   ,   ,6000,NA,NA,NA,DZ,NA,NA,NA,NA,NA,NA,63.86,METAR KLGA 060700Z 05011KT 6SM DZ BKN060 18/16 A3012 RMK WSHFT 0602 FROPA SLP200 T01770155,NA
LGA,1973-06-06T08:00:00Z,-73.8803,40.7794,62.96,59.9,89.73,50,11,NA,30.12,1020,5,NA,OVC,SCT,   ,   ,NA,5000,NA,NA,DZ,NA,NA,NA,NA,NA,NA,62.96,METAR KLGA 060800Z 05011KT 5SM DZ OVC/// SCT050 17/16 A3012 RMK H1 SLP200 T01720155,NA
LGA,1973-06-06T09:00:00Z,-73.8803,40.7794,60.1,59,96.15,40,13.04,NA,30.13,NA,0.4,NA,   ,   ,   ,   ,NA,NA,NA,NA,NA,NA,NA,NA,NA,NA,NA,60.1,METAR KLGA 060900Z 04013KT 3/8SM FGDZ OVC003 16/15 A3013 RMK R22VR14V16 SLP203 T01560150,NA
LGA,1973-06-06T10:00:00Z,-73.8803,40.7794,59.9,59,96.84,50,12,NA,30.14,1020.7,0.25,NA,OVC,   ,   ,   ,300,NA,NA,NA,FG,NA,NA,NA,NA,NA,NA,59.9,METAR KLGA 061000Z 05012KT 1/4SM FG OVC003 16/15 A3014 RMK R22VR10- SLP207 T01550150,NA
LGA,1973-06-06T12:00:00Z,-73.8803,40.7794,60.98,59,93.19,40,12,NA,30.16,1021.3,0.25,NA,OVC,   ,   ,   ,300,NA,NA,NA,FG,NA,NA,NA,NA,NA,NA,60.98,METAR KLGA 061200Z 04012KT 1/4SM FG OVC003 16/15 A3016 RMK R22VR10 SLP213 T01610150,NA
LGA,1973-06-06T13:00:00Z,-73.8803,40.7794,61.88,59.9,93.22,40,13,NA,30.17,1021.7,0.25,NA,OVC,   ,   ,   ,300,NA,NA,NA,FG,NA,NA,NA,NA,NA,NA,61.88,METAR KLGA 061300Z 04013KT 1/4SM FG OVC003 17/16 A3017 RMK / R22VR 10V12 SLP217 T01660155,NA
LGA,1973-06-06T14:00:00Z,-73.8803,40.7794,61.88,59.9,93.22,50,13,NA,30.17,1021.7,0.25,NA,OVC,   ,   ,   ,300,NA,NA,NA,FG,NA,NA,NA,NA,NA,NA,61.88,METAR KLGA 061400Z 05013KT 1/4SM FG OVC003 17/16 A3017 RMK / R22VR10 SLP217 T01660155,NA
LGA,1973-06-06T15:00:00Z,-73.8803,40.7794,64.04,60.08,86.95,50,13,NA,30.15,1021,0.62,NA,OVC,   ,   ,   ,400,NA,NA,NA,FG,NA,NA,NA,NA,NA,NA,64.04,METAR KLGA 061500Z 05013KT 5/8SM FG OVC004 18/16 A3015 RMK R22VR 28V40 SFC VSBY SLP210 T01780156 550/8,NA
LGA,1973-06-06T15:15:00Z,-73.8803,40.7794,NA,NA,NA,40,15,NA,30.15,NA,1,NA,NA,NA,NA,NA,NA,NA,NA,NA,NA,NA,NA,NA,NA,NA,NA,NA,KLGA 061515Z AUTO 04015KT 1SM POB000 A3015 RMK IEM_DS3505,NA
LGA,1973-06-06T16:00:00Z,-73.8803,40.7794,65.84,60.98,84.32,40,15,NA,30.14,1020.7,2.5,NA,OVC,SCT,   ,   ,NA,2000,NA,NA,DZ,NA,NA,NA,NA,NA,NA,65.84,METAR KLGA 061600Z 04015KT 21/2SM DZ OVC/// SCT020 19/16 A3014 RMK H2 SLP207 T01880161,NA
LGA,1973-06-06T17:00:00Z,-73.8803,40.7794,68.9,62.96,81.36,40,14,NA,30.13,1020.3,2.5,NA,SCT,   ,   ,   ,12000,NA,NA,NA,DZ,NA,NA,NA,NA,NA,NA,68.9,METAR KLGA 061700Z 04014KT 21/2SM DZ SCT120 20/17 A3013 RMK SLP203 T02050172,NA
LGA,1973-06-06T18:00:00Z,-73.8803,40.7794,69.08,62.06,78.33,50,13,NA,30.1,1019.3,5,NA,SCT,SCT,   ,   ,3000,12000,NA,NA,DZ,NA,NA,NA,NA,NA,NA,69.08,METAR KLGA 061800Z 05013KT 5SM DZ SCT030 SCT120 21/17 A3010 RMK SLP193 T02060167,NA
LGA,1973-06-06T19:00:00Z,-73.8803,40.7794,72.86,63.86,73.39,50,11,NA,30.08,1018.6,6,NA,BKN,BKN,   ,   ,3000,25000,NA,NA,DZ,NA,NA,NA,NA,NA,NA,72.86,METAR KLGA 061900Z 05011KT 6SM DZ BKN030 BKN250 23/18 A3008 RMK VA SLP186 T02270177,NA
LGA,1973-06-06T20:00:00Z,-73.8803,40.7794,77,66.92,71.08,130,10,NA,30.07,1018.3,7,NA,SCT,SCT,BKN,   ,3000,5000,20000,NA,NA,NA,NA,NA,NA,NA,NA,77,METAR KLGA 062000Z 13010KT 7SM SCT030 SCT050 BKN200 25/19 A3007 RMK LN TCU NE-S TCU N VA SLP183 T02500194,NA
LGA,1973-06-06T21:00:00Z,-73.8803,40.7794,78.08,66.92,68.59,150,13,NA,30.05,1017.6,7,NA,SCT,SCT,BKN,   ,4000,9000,20000,NA,NA,NA,NA,NA,NA,NA,NA,78.08,METAR KLGA 062100Z 15013KT 7SM SCT040 SCT090 BKN200 26/19 A3005 RMK TCU NE-SE/ SLP176 8/236 T02560194 57017,NA
LGA,1973-06-07T00:00:00Z,-73.8803,40.7794,73.04,64.94,75.75,160,11,NA,30.06,1018,7,NA,SCT,BKN,BKN,   ,3000,7000,20000,NA,NA,NA,NA,NA,NA,NA,NA,73.04,METAR KLGA 070000Z 16011KT 7SM SCT030 BKN070 BKN200 23/18 A3006 RMK VA SLP180 T02280183,NA
LGA,1973-06-07T01:00:00Z,-73.8803,40.7794,70.88,63.86,78.48,150,10,NA,30.07,1018.3,7,NA,SCT,BKN,BKN,   ,2000,7000,20000,NA,NA,NA,NA,NA,NA,NA,NA,70.88,METAR KLGA 070100Z 15010KT 7SM SCT020 BKN070 BKN200 22/18 A3007 RMK VA SLP183 T02160177,NA
LGA,1973-06-07T02:00:00Z,-73.8803,40.7794,70.88,63.86,78.48,170,9,NA,30.07,1018.3,10,NA,SCT,BKN,   ,   ,4000,7000,NA,NA,NA,NA,NA,NA,NA,NA,NA,70.88,METAR KLGA 070200Z 17009KT 10SM SCT040 BKN070 22/18 A3007 RMK LTGIC W-NW SLP183 T02160177,NA
LGA,1973-06-07T03:00:00Z,-73.8803,40.7794,73.04,64.04,73.41,190,10,NA,30.08,1018.6,10,NA,BKN,BKN,   ,   ,6000,20000,NA,NA,NA,NA,NA,NA,NA,NA,NA,73.04,METAR KLGA 070300Z 19010KT 10SM BKN060 BKN200 23/18 A3008 RMK / SLP186 8/508 T02280178 51005,NA
LGA,1973-06-07T04:00:00Z,-73.8803,40.7794,72.86,63.86,73.39,180,10,NA,30.08,1018.6,10,NA,SCT,SCT,   ,   ,6000,20000,NA,NA,NA,NA,NA,NA,NA,NA,NA,72.86,METAR KLGA 070400Z 18010KT 10SM SCT060 SCT200 23/18 A3008 RMK VA SLP186 T02270177,NA
LGA,1973-06-07T05:00:00Z,-73.8803,40.7794,72.86,63.86,73.39,200,10,NA,30.07,1018.3,15,NA,CLR,   ,   ,   ,NA,NA,NA,NA,NA,NA,NA,NA,NA,NA,NA,72.86,METAR KLGA 070500Z 20010KT 15SM CLR 23/18 A3007 RMK WND170V230 SLP183 T02270177,NA
LGA,1973-06-07T06:00:00Z,-73.8803,40.7794,71.06,62.96,75.57,180,8,NA,30.07,1018.3,10,NA,SCT,   ,   ,   ,12000,NA,NA,NA,NA,NA,NA,NA,NA,NA,NA,71.06,METAR KLGA 070600Z 18008KT 10SM SCT120 22/17 A3007 RMK VA WND 160V200 SLP183 T02170172,NA
LGA,1973-06-07T07:00:00Z,-73.8803,40.7794,68.9,61.88,78.32,160,10,NA,30.06,1018,10,NA,SCT,   ,   ,   ,12000,NA,NA,NA,NA,NA,NA,NA,NA,NA,NA,68.9,METAR KLGA 070700Z 16010KT 10SM SCT120 20/17 A3006 RMK / WND 140V180 VA SLP180 T02050166,NA
LGA,1973-06-07T08:00:00Z,-73.8803,40.7794,68,61.88,80.78,190,9,NA,30.06,1018,10,NA,SCT,SCT,   ,   ,5000,12000,NA,NA,NA,NA,NA,NA,NA,NA,NA,68,METAR KLGA 070800Z 19009KT 10SM SCT050 SCT120 20/17 A3006 RMK DSNT LTG NW SLP180 T02000166,NA
LGA,1973-06-07T09:00:00Z,-73.8803,40.7794,69.08,62.96,80.86,180,10,NA,30.07,1018.3,8,NA,BKN,BKN,   ,   ,5000,10000,NA,NA,NA,NA,NA,NA,NA,NA,NA,69.08,METAR KLGA 070900Z 18010KT 8SM BKN050 BKN100 21/17 A3007 RMK SLP183 8/230 T02060172 55000,NA
LGA,1973-06-07T10:00:00Z,-73.8803,40.7794,68,62.96,83.91,170,8,NA,30.07,1018.3,8,NA,SCT,SCT,   ,   ,5000,12000,NA,NA,NA,NA,NA,NA,NA,NA,NA,68,METAR KLGA 071000Z 17008KT 8SM SCT050 SCT120 20/17 A3007 RMK TCU W VA SLP183 T02000172,NA
LGA,1973-06-07T10:13:00Z,-73.8803,40.7794,NA,NA,NA,190,9,NA,30.08,NA,8,NA,BKN,BKN,BKN,NA,2800,4900,11800,NA,NA,NA,NA,NA,NA,NA,NA,NA,KLGA 071013Z AUTO 19009KT 8SM BKN028 BKN049 BKN118 A3008 RMK IEM_DS3505,NA
LGA,1973-06-07T11:00:00Z,-73.8803,40.7794,69.98,63.86,80.92,190,7,NA,30.09,1019,6,NA,SCT,   ,   ,   ,15000,NA,NA,NA,DZ,NA,NA,NA,NA,NA,NA,69.98,METAR KLGA 071100Z 19007KT 6SM DZ SCT150 21/18 A3009 RMK FEW CU VA SLP190 T02110177,NA
LGA,1973-06-07T12:00:00Z,-73.8803,40.7794,73.04,64.04,73.41,180,9,NA,30.08,1018.6,6,NA,SCT,BKN,   ,   ,6000,12000,NA,NA,DZ,NA,NA,NA,NA,NA,NA,73.04,METAR KLGA 071200Z 18009KT 6SM DZ SCT060 BKN120 23/18 A3008 RMK VA SLP186 T02280178,NA
LGA,1973-06-07T13:00:00Z,-73.8803,40.7794,72.9,64.9,76,180,8,NA,30.09,NA,6,NA,   ,   ,   ,   ,NA,NA,NA,NA,NA,NA,NA,NA,NA,NA,NA,72.9,METAR KLGA 071300Z 19008KT 6SM FUDZ SCT030 BKN070 OVC110 23/18 A3009 RMK BINOVC VA SLP190 T02270183,NA
LGA,1973-06-07T14:00:00Z,-73.8803,40.7794,75.92,64.94,68.78,230,12,NA,30.09,1019,7,NA,SCT,BKN,OVC,   ,3000,7000,11000,NA,NA,NA,NA,NA,NA,NA,NA,75.92,METAR KLGA 071400Z 23012KT 7SM SCT030 BKN070 OVC110 24/18 A3009 RMK VA SLP190 T02440183,NA
LGA,1973-06-07T15:00:00Z,-73.8803,40.7794,77,64.94,66.36,250,8,NA,30.11,1019.6,8,NA,BKN,BKN,OVC,   ,NA,NA,NA,NA,NA,NA,NA,NA,NA,NA,NA,77,METAR KLGA 071500Z 25008KT 8SM BKN/// BKN/// OVC/// 25/18 A//// RMK SLP196 T02500183,NA
LGA,1973-06-07T16:00:00Z,-73.8803,40.7794,74.84,64.94,71.31,160,13,NA,30.11,1019.6,6,NA,BKN,BKN,OVC,   ,2800,3800,7000,NA,DZ,NA,NA,NA,NA,NA,NA,74.84,METAR KLGA 071600Z 16013KT 6SM DZ BKN028 BKN038 OVC070 24/18 A3011 RMK BINOVC VA SLP196 T02380183,NA
LGA,1973-06-07T17:00:00Z,-73.8803,40.7794,77,65.84,68.47,150,13,NA,30.1,1019.3,6,NA,BKN,BKN,OVC,   ,3400,4500,7000,NA,DZ,NA,NA,NA,NA,NA,NA,77,METAR KLGA 071700Z 15013KT 6SM DZ BKN034 BKN045 OVC070 25/19 A3010 RMK BINOVC VA SLP193 T02500188,NA
LGA,1973-06-07T18:00:00Z,-73.8803,40.7794,77,66.02,68.9,170,10,0.01,30.1,1019.3,7,NA,SCT,BKN,OVC,   ,3000,3400,7000,NA,-SHRA,NA,NA,NA,NA,NA,NA,77,METAR KLGA 071800Z 17010KT 7SM -SHRA SCT030 BKN034 OVC070 25/19 A3010 RMK BINOVC RB45 VA SLP193 P0001 T02500189,NA
LGA,1973-06-07T19:00:00Z,-73.8803,40.7794,77,68.9,76.1,170,9,0.05,30.1,1019.3,6,NA,SCT,BKN,OVC,   ,2500,3300,7000,NA,DZ,NA,NA,NA,NA,NA,NA,77,METAR KLGA 071900Z 17009KT 6SM DZ SCT025 BKN033 OVC070 25/20 A3010 RMK BINOVC RE17 VA SLP193 P0005 T02500205,NA
LGA,1973-06-07T20:00:00Z,-73.8803,40.7794,80.96,65.84,60.11,180,9,NA,30.09,1019,6,NA,SCT,BKN,BKN,   ,3000,3500,7000,NA,DZ,NA,NA,NA,NA,NA,NA,83.02,METAR KLGA 072000Z 18009KT 6SM DZ SCT030 BKN035 BKN070 27/19 A3009 RMK VA SLP190 T02720188,NA
LGA,1973-06-07T21:00:00Z,-73.8803,40.7794,82.04,66.02,58.4,190,13,NA,30.08,1018.6,7,NA,SCT,   ,   ,   ,3500,NA,NA,NA,NA,NA,NA,NA,NA,NA,NA,84.19,METAR KLGA 072100Z 19013KT 7SM SCT035 28/19 A3008 RMK / CB NE VA SLP186 8/300 T02780189 58007,NA
LGA,1973-06-07T22:00:00Z,-73.8803,40.7794,81.86,64.94,56.57,200,14,NA,30.09,1019,7,NA,SCT,   ,   ,   ,3500,NA,NA,NA,NA,NA,NA,NA,NA,NA,NA,83.64,METAR KLGA 072200Z 20014KT 7SM SCT035 28/18 A3009 RMK VA SLP190 T02770183,NA
LGA,1973-06-07T23:00:00Z,-73.8803,40.7794,79.88,64.94,60.35,220,12,NA,30.09,1019,7,NA,SCT,   ,   ,   ,3500,NA,NA,NA,NA,NA,NA,NA,NA,NA,NA,81.71,METAR KLGA 072300Z 22012KT 7SM SCT035 27/18 A3009 RMK VA SLP190 T02660183,NA
LGA,1973-06-08T00:00:00Z,-73.8803,40.7794,80.06,64.94,59.99,240,12,NA,30.1,1019.3,8,NA,SCT,SCT,   ,   ,3500,20000,NA,NA,NA,NA,NA,NA,NA,NA,NA,81.88,METAR KLGA 080000Z 24012KT 8SM SCT035 SCT200 27/18 A3010 RMK VA SLP193 60008 T02670183,NA
LGA,1973-06-08T01:00:00Z,-73.8803,40.7794,78.98,63.86,59.86,220,10,NA,30.11,1019.6,9,NA,SCT,   ,   ,   ,20000,NA,NA,NA,NA,NA,NA,NA,NA,NA,NA,80.65,METAR KLGA 080100Z 22010KT 9SM SCT200 26/18 A3011 RMK VA SLP196 T02610177,NA
LGA,1973-06-08T02:00:00Z,-73.8803,40.7794,77.9,64.94,64.41,230,11,NA,30.13,1020.3,10,NA,SCT,   ,   ,   ,3000,NA,NA,NA,NA,NA,NA,NA,NA,NA,NA,77.9,METAR KLGA 080200Z 23011KT 10SM SCT030 25/18 A3013 RMK VA SLP203 T02550183,NA
LGA,1973-06-08T03:00:00Z,-73.8803,40.7794,77,64.04,64.3,230,15,NA,30.14,1020.7,10,NA,CLR,   ,   ,   ,NA,NA,NA,NA,NA,NA,NA,NA,NA,NA,NA,77,METAR KLGA 080300Z 23015KT 10SM CLR 25/18 A3014 RMK VA SLP207 T02500178 52014,NA
LGA,1973-06-08T04:00:00Z,-73.8803,40.7794,74.84,63.86,68.67,230,9,NA,30.15,1021,10,NA,CLR,   ,   ,   ,NA,NA,NA,NA,NA,NA,NA,NA,NA,NA,NA,74.84,METAR KLGA 080400Z 23009KT 10SM CLR 24/18 A3015 RMK SLP210 T02380177,NA
LGA,1973-06-08T05:00:00Z,-73.8803,40.7794,74.84,63.86,68.67,230,12,NA,30.15,1021,10,NA,CLR,   ,   ,   ,NA,NA,NA,NA,NA,NA,NA,NA,NA,NA,NA,74.84,METAR KLGA 080500Z 23012KT 10SM CLR 24/18 A3015 RMK SLP210 T02380177,NA
LGA,1973-06-08T06:00:00Z,-73.8803,40.7794,73.94,64.04,71.22,230,9,NA,30.16,1021.3,10,NA,CLR,   ,   ,   ,NA,NA,NA,NA,NA,NA,NA,NA,NA,NA,NA,73.94,METAR KLGA 080600Z 23009KT 10SM CLR 23/18 A3016 RMK SLP213 T02330178,NA
LGA,1973-06-08T07:00:00Z,-73.8803,40.7794,72.86,63.86,73.39,230,8,NA,30.16,1021.3,10,NA,CLR,   ,   ,   ,NA,NA,NA,NA,NA,NA,NA,NA,NA,NA,NA,72.86,METAR KLGA 080700Z 23008KT 10SM CLR 23/18 A3016 RMK SLP213 T02270177,NA
LGA,1973-06-08T08:00:00Z,-73.8803,40.7794,71.96,62.96,73.3,230,9,NA,30.16,1021.3,10,NA,CLR,   ,   ,   ,NA,NA,NA,NA,NA,NA,NA,NA,NA,NA,NA,71.96,METAR KLGA 080800Z 23009KT 10SM CLR 22/17 A3016 RMK VA SLP213 T02220172,NA
LGA,1973-06-08T09:00:00Z,-73.8803,40.7794,71.06,62.96,75.57,230,7,NA,30.17,1021.7,8,NA,FEW,   ,   ,   ,25000,NA,NA,NA,NA,NA,NA,NA,NA,NA,NA,71.06,METAR KLGA 080900Z 23007KT 8SM FEW250 22/17 A3017 RMK / VA SLP217 8/001 T02170172 53003,NA
LGA,1973-06-08T10:00:00Z,-73.8803,40.7794,68.9,62.96,81.36,240,5,NA,30.18,1022,5,NA,SCT,   ,   ,   ,25000,NA,NA,NA,DZ,NA,NA,NA,NA,NA,NA,68.9,METAR KLGA 081000Z 24005KT 5SM DZ SCT250 20/17 A3018 RMK VA LGB W1C5/16F 125/60/57/1405/990/R30VR16V28 SLP220 T02050172,NA
LGA,1973-06-08T11:00:00Z,-73.8803,40.7794,72,63.9,75.66,250,3.04,NA,30.2,NA,5,NA,   ,   ,   ,   ,NA,NA,NA,NA,NA,NA,NA,NA,NA,NA,NA,72,METAR KLGA 081100Z 25003KT 5SM FUDZ SCT250 22/18 A3020 RMK VA SLP227 T02220177,NA
LGA,1973-06-08T12:00:00Z,-73.8803,40.7794,75.02,64.04,68.69,330,4,NA,30.2,1022.7,6,NA,SCT,   ,   ,   ,25000,NA,NA,NA,FU,NA,NA,NA,NA,NA,NA,75.02,METAR KLGA 081200Z 33004KT 6SM FU SCT250 24/18 A3020 RMK SLP227 70008 T02390178,NA
LGA,1973-06-08T14:00:00Z,-73.8803,40.7794,80.96,59.9,48.77,310,7,NA,30.2,1022.7,6,NA,SCT,SCT,SCT,   ,6000,12000,25000,NA,FU,NA,NA,NA,NA,NA,NA,81.55,METAR KLGA 081400Z 31007KT 6SM FU SCT060 SCT120 SCT250 27/16 A3020 RMK SLP227 T02720155,NA
LGA,1973-06-08T15:00:00Z,-73.8803,40.7794,82.04,59,45.6,280,8,NA,30.19,1022.4,6,NA,SCT,SCT,SCT,   ,4000,6000,12000,NA,FU,NA,NA,NA,NA,NA,NA,82.19,METAR KLGA 081500Z 28008KT 6SM FU SCT040 SCT060 SCT120 28/15 A3019 RMK SLP224 8/130 T02780150 58003,NA
LGA,1973-06-08T16:00:00Z,-73.8803,40.7794,84.92,57.92,39.97,210,8,NA,30.19,1022.4,7,NA,SCT,BKN,   ,   ,6000,12000,NA,NA,NA,NA,NA,NA,NA,NA,NA,84.92,METAR KLGA 081600Z 21008KT 7SM SCT060 BKN120 29/14 A3019 RMK VA SLP224 T02940144,NA
LGA,1973-06-08T17:00:00Z,-73.8803,40.7794,84.92,56.84,38.45,210,10,NA,30.17,1021.7,8,NA,SCT,BKN,   ,   ,6000,13000,NA,NA,NA,NA,NA,NA,NA,NA,NA,84.92,METAR KLGA 081700Z 21010KT 8SM SCT060 BKN130 29/14 A3017 RMK VA SLP217 T02940138,NA
LGA,1973-06-08T18:00:00Z,-73.8803,40.7794,84.92,55.04,36.02,240,8,NA,30.17,1021.7,9,NA,SCT,SCT,   ,   ,5000,13000,NA,NA,NA,NA,NA,NA,NA,NA,NA,83.58,METAR KLGA 081800Z 24008KT 9SM SCT050 SCT130 29/13 A3017 RMK SLP217 T02940128,NA
LGA,1973-06-08T19:00:00Z,-73.8803,40.7794,84.92,62.96,47.82,170,16,NA,30.15,1021,8,NA,SCT,   ,   ,   ,5000,NA,NA,NA,NA,NA,NA,NA,NA,NA,NA,85.83,METAR KLGA 081900Z 17016KT 8SM SCT050 29/17 A3015 RMK SLP210 T02940172,NA
LGA,1973-06-08T20:00:00Z,-73.8803,40.7794,82.94,57.92,42.61,180,18,NA,30.14,1020.7,8,NA,SCT,SCT,   ,   ,5000,12000,NA,NA,NA,NA,NA,NA,NA,NA,NA,82.64,METAR KLGA 082000Z 18018KT 8SM SCT050 SCT120 28/14 A3014 RMK VA SLP207 T02830144,NA
LGA,1973-06-08T21:00:00Z,-73.8803,40.7794,82.04,62.06,50.84,190,14,NA,30.13,1020.3,8,NA,SCT,   ,   ,   ,5000,NA,NA,NA,NA,NA,NA,NA,NA,NA,NA,82.94,METAR KLGA 082100Z 19014KT 8SM SCT050 28/17 A3013 RMK VA SLP203 8/200 T02780167 57012,NA
LGA,1973-06-08T22:00:00Z,-73.8803,40.7794,80.96,62.96,54.35,170,16,NA,30.12,1020,10,NA,CLR,   ,   ,   ,NA,NA,NA,NA,NA,NA,NA,NA,NA,NA,NA,82.24,METAR KLGA 082200Z 17016KT 10SM CLR 27/17 A3012 RMK VA SLP200 T02720172,NA
LGA,1973-06-08T23:00:00Z,-73.8803,40.7794,79.88,64.94,60.35,180,15,NA,30.12,1020,10,NA,CLR,   ,   ,   ,NA,NA,NA,NA,NA,NA,NA,NA,NA,NA,NA,81.71,METAR KLGA 082300Z 18015KT 10SM CLR 27/18 A3012 RMK VA SLP200 T02660183,NA
LGA,1973-06-09T00:00:00Z,-73.8803,40.7794,77,66.02,68.9,160,12,NA,30.1,1019.3,9,NA,SCT,   ,   ,   ,22000,NA,NA,NA,NA,NA,NA,NA,NA,NA,NA,77,METAR KLGA 090000Z 16012KT 9SM SCT220 25/19 A3010 RMK VA SLP193 T02500189,NA
LGA,1973-06-09T01:00:00Z,-73.8803,40.7794,74.84,64.94,71.31,180,10,NA,30.11,1019.6,8,NA,CLR,   ,   ,   ,NA,NA,NA,NA,NA,NA,NA,NA,NA,NA,NA,74.84,METAR KLGA 090100Z 18010KT 8SM CLR 24/18 A3011 RMK VA SLP196 T02380183,NA
LGA,1973-06-09T02:00:00Z,-73.8803,40.7794,75.92,65.84,70.97,210,10,NA,30.12,1020,8,NA,CLR,   ,   ,   ,NA,NA,NA,NA,NA,NA,NA,NA,NA,NA,NA,75.92,METAR KLGA 090200Z 21010KT 8SM CLR 24/19 A3012 RMK VA SLP200 T02440188,NA
LGA,1973-06-09T03:00:00Z,-73.8803,40.7794,78.08,66.92,68.59,220,10,NA,30.12,1020,9,NA,CLR,   ,   ,   ,NA,NA,NA,NA,NA,NA,NA,NA,NA,NA,NA,78.08,METAR KLGA 090300Z 22010KT 9SM CLR 26/19 A3012 RMK VA/ SLP200 T02560194 51007,NA
LGA,1973-06-09T04:00:00Z,-73.8803,40.7794,78.98,68,69.11,230,12,NA,30.11,1019.6,9,NA,SCT,   ,   ,   ,5000,NA,NA,NA,NA,NA,NA,NA,NA,NA,NA,81.32,METAR KLGA 090400Z 23012KT 9SM SCT050 26/20 A3011 RMK VA SLP196 T02610200,NA
LGA,1973-06-09T05:00:00Z,-73.8803,40.7794,77.9,68,71.62,220,10,NA,30.1,1019.3,8,NA,SCT,   ,   ,   ,5000,NA,NA,NA,NA,NA,NA,NA,NA,NA,NA,77.9,METAR KLGA 090500Z 22010KT 8SM SCT050 25/20 A3010 RMK VA SLP193 T02550200,NA
LGA,1973-06-09T06:00:00Z,-73.8803,40.7794,77,68,73.78,230,11,NA,30.08,1018.3,7,NA,CLR,   ,   ,   ,NA,NA,NA,NA,NA,NA,NA,NA,NA,NA,NA,77,METAR KLGA 090600Z 23011KT 7SM CLR 25/20 A3008 RMK VA SLP183 T02500200,NA
LGA,1973-06-09T07:00:00Z,-73.8803,40.7794,75.92,68,76.48,250,9,0.02,30.07,1018.3,6,NA,CLR,   ,   ,   ,NA,NA,NA,NA,DZ,NA,NA,NA,NA,NA,NA,75.92,METAR KLGA 090700Z 25009KT 6SM DZ CLR 24/20 A3007 RMK VA SLP183 P0002 T02440200,NA
LGA,1973-06-09T08:00:00Z,-73.8803,40.7794,74.84,68.9,81.77,230,10,NA,30.07,1018.3,6,NA,SCT,BKN,   ,   ,2500,5000,NA,NA,DZ,NA,NA,NA,NA,NA,NA,75.87,METAR KLGA 090800Z 23010KT 6SM DZ SCT025 BKN050 24/20 A3007 RMK RB0657E11 SLP183 T02380205,NA
LGA,1973-06-09T09:00:00Z,-73.8803,40.7794,73.94,68,81.71,230,9,NA,30.07,1018.3,5,NA,SCT,SCT,   ,   ,5000,25000,NA,NA,DZ,NA,NA,NA,NA,NA,NA,73.94,METAR KLGA 090900Z 23009KT 5SM DZ SCT050 SCT250 23/20 A3007 RMK 1501 SLP183 T02330200 411781722 54000,NA
LGA,1973-06-09T10:00:00Z,-73.8803,40.7794,73.94,68,81.71,220,10,NA,30.07,1018.3,5,NA,SCT,   ,   ,   ,25000,NA,NA,NA,DZ,NA,NA,NA,NA,NA,NA,73.94,METAR KLGA 091000Z 22010KT 5SM DZ SCT250 23/20 A3007 RMK VA SLP183 T02330200,NA
LGA,1973-06-09T11:00:00Z,-73.8803,40.7794,74.84,68.9,81.77,230,9,NA,30.07,1018.3,5,NA,SCT,   ,   ,   ,25000,NA,NA,NA,DZ,NA,NA,NA,NA,NA,NA,75.87,METAR KLGA 091100Z 23009KT 5SM DZ SCT250 24/20 A3007 RMK VA SLP183 T02380205,NA
LGA,1973-06-09T12:00:00Z,-73.8803,40.7794,75.92,69.08,79.37,230,10,NA,30.06,1018,5,NA,SCT,BKN,   ,   ,3500,25000,NA,NA,DZ,NA,NA,NA,NA,NA,NA,76.94,METAR KLGA 091200Z 23010KT 5SM DZ SCT035 BKN250 24/21 A3006 RMK VA SLP180 60002 70002 T02440206,NA
LGA,1973-06-09T13:00:00Z,-73.8803,40.7794,78.98,68.9,71.28,250,12,NA,30.05,1017.6,5,NA,CLR,   ,   ,   ,NA,NA,NA,NA,DZ,NA,NA,NA,NA,NA,NA,81.49,METAR KLGA 091300Z 25012KT 5SM DZ CLR 26/20 A3005 RMK VA SLP176 T02610205,NA
LGA,1973-06-09T14:00:00Z,-73.8803,40.7794,81.86,68.9,64.88,270,10,NA,30.03,1016.9,6,NA,SCT,   ,   ,   ,12000,NA,NA,NA,DZ,NA,NA,NA,NA,NA,NA,85.14,METAR KLGA 091400Z 27010KT 6SM DZ SCT120 28/20 A3003 RMK VALGA6/4 SLP169 T02770205,NA
LGA,1973-06-09T15:00:00Z,-73.8803,40.7794,86,68,55.04,280,14,NA,30.02,1016.6,7,NA,SCT,SCT,   ,   ,3500,14000,NA,NA,NA,NA,NA,NA,NA,NA,NA,89.41,METAR KLGA 091500Z 28014KT 7SM SCT035 SCT140 30/20 A3002 RMK / VALGA6/4 SLP166 8/170 T03000200 58015,NA
LGA,1973-06-09T17:00:00Z,-73.8803,40.7794,88.88,65.84,46.62,250,17,NA,29.97,1014.9,9,NA,SCT,   ,   ,   ,4500,NA,NA,NA,NA,NA,NA,NA,NA,NA,NA,91.27,METAR KLGA 091700Z 25017KT 9SM SCT045 32/19 A2997 RMK VALGA6/4 SLP149 T03160188,NA
LGA,1973-06-09T18:00:00Z,-73.8803,40.7794,89.96,64.94,43.67,260,15,NA,29.95,1014.2,9,NA,SCT,   ,   ,   ,5000,NA,NA,NA,NA,NA,NA,NA,NA,NA,NA,91.92,METAR KLGA 091800Z 26015KT 9SM SCT050 32/18 A2995 RMK VALGA6/4 SLP142 T03220183,NA
LGA,1973-06-09T19:00:00Z,-73.8803,40.7794,89.96,63.86,42.05,250,14,NA,29.92,1013.2,9,NA,SCT,   ,   ,   ,5000,NA,NA,NA,NA,NA,NA,NA,NA,NA,NA,91.33,METAR KLGA 091900Z 25014KT 9SM SCT050 32/18 A2992 RMK VALGA6/4 SLP132 T03220177,NA
LGA,1973-06-09T20:00:00Z,-73.8803,40.7794,89.96,63.86,42.05,270,15,NA,29.9,1012.5,9,21,SCT,   ,   ,   ,5000,NA,NA,NA,NA,NA,NA,NA,NA,NA,NA,91.33,METAR KLGA 092000Z 27015G21KT 9SM SCT050 32/18 A2990 RMK LGA6/4 SLP125 T03220177,NA
LGA,1973-06-09T21:00:00Z,-73.8803,40.7794,89.06,62.96,41.91,260,14,NA,29.89,1012.2,9,NA,SCT,SCT,   ,   ,5000,25000,NA,NA,NA,NA,NA,NA,NA,NA,NA,89.93,METAR KLGA 092100Z 26014KT 9SM SCT050 SCT250 32/17 A2989 RMK / 1101LGA6/4 SLP122 T03170172 57019,NA
LGA,1973-06-09T22:00:00Z,-73.8803,40.7794,87.98,62.96,43.37,270,13,NA,29.88,1011.9,9,22,SCT,SCT,   ,   ,5000,25000,NA,NA,NA,NA,NA,NA,NA,NA,NA,88.83,METAR KLGA 092200Z 27013G22KT 9SM SCT050 SCT250 31/17 A2988 RMK LGA6/4 SLP119 T03110172,NA
LGA,1973-06-09T23:00:00Z,-73.8803,40.7794,87.98,64.94,46.48,240,16,NA,29.88,1011.9,10,NA,SCT,SCT,BKN,   ,5000,13000,25000,NA,-SHRA,NA,NA,NA,NA,NA,NA,89.8,METAR KLGA 092300Z 24016KT 10SM -SHRA SCT050 SCT130 BKN250 31/18 A2988 RMK RB47 SLP119 T03110183,NA
LGA,1973-06-09T23:11:00Z,-73.8803,40.7794,NA,NA,NA,310,23,NA,29.93,NA,0.25,39,SCT,BKN,OVC,NA,500,3000,4900,NA,NA,NA,NA,NA,NA,NA,NA,NA,KLGA 092311Z AUTO 31023G39KT 1/4SM SCT005 BKN030 OVC049 A2993 RMK IEM_DS3505,NA
LGA,1973-06-09T23:23:00Z,-73.8803,40.7794,NA,NA,NA,320,13,NA,29.9,NA,4,NA,BKN,BKN,NA,NA,3000,11800,NA,NA,NA,NA,NA,NA,NA,NA,NA,NA,KLGA 092323Z AUTO 32013KT 4SM BKN030 BKN118 A2990 RMK IEM_DS3505,NA
LGA,1973-06-10T00:00:00Z,-73.8803,40.7794,77,68,73.78,340,4,0.27,29.9,1012.5,8,NA,SCT,BKN,   ,   ,3000,5000,NA,NA,NA,NA,NA,NA,NA,NA,NA,77,METAR KLGA 100000Z 34004KT 8SM SCT030 BKN050 25/20 A2990 RMK TB2257E47 MOVD SE PK WND RE20 SLP125 P0027 60039 T02500200 5301/,NA
LGA,1973-06-10T01:00:00Z,-73.8803,40.7794,79.88,68,67.1,290,6,NA,29.91,1012.9,7,NA,SCT,OVC,   ,   ,5000,7000,NA,NA,NA,NA,NA,NA,NA,NA,NA,82.43,METAR KLGA 100100Z 29006KT 7SM SCT050 OVC070 27/20 A2991 RMK SLP129 T02660200,NA
LGA,1973-06-10T02:00:00Z,-73.8803,40.7794,79.88,66.92,64.64,270,9,NA,29.92,1013.2,9,NA,SCT,   ,   ,   ,7000,NA,NA,NA,NA,NA,NA,NA,NA,NA,NA,82.16,METAR KLGA 100200Z 27009KT 9SM SCT070 27/19 A2992 RMK SLP132 T02660194,NA
LGA,1973-06-10T03:00:00Z,-73.8803,40.7794,82.04,64.94,56.24,250,10,NA,29.92,1013.2,9,NA,CLR,   ,   ,   ,NA,NA,NA,NA,NA,NA,NA,NA,NA,NA,NA,83.82,METAR KLGA 100300Z 25010KT 9SM CLR 28/18 A2992 RMK SLP132 T02780183 51007,NA
LGA,1973-06-10T04:00:00Z,-73.8803,40.7794,80.96,63.86,56.1,270,15,NA,29.92,1013.2,9,NA,CLR,   ,   ,   ,NA,NA,NA,NA,NA,NA,NA,NA,NA,NA,NA,82.47,METAR KLGA 100400Z 27015KT 9SM CLR 27/18 A2992 RMK SLP132 T02720177,NA
LGA,1973-06-10T05:00:00Z,-73.8803,40.7794,77,64.94,66.36,290,12,NA,29.94,1013.9,8,NA,CLR,   ,   ,   ,NA,NA,NA,NA,NA,NA,NA,NA,NA,NA,NA,77,METAR KLGA 100500Z 29012KT 8SM CLR 25/18 A2994 RMK SLP139 T02500183,NA
LGA,1973-06-10T06:00:00Z,-73.8803,40.7794,75.02,62.96,66.13,300,9,NA,29.95,1014.2,10,NA,CLR,   ,   ,   ,NA,NA,NA,NA,NA,NA,NA,NA,NA,NA,NA,75.02,METAR KLGA 100600Z 30009KT 10SM CLR 24/17 A2995 RMK SLP142 T02390172,NA
LGA,1973-06-10T07:00:00Z,-73.8803,40.7794,74.84,59.9,59.7,290,9,NA,29.95,1014.2,15,NA,CLR,   ,   ,   ,NA,NA,NA,NA,NA,NA,NA,NA,NA,NA,NA,74.84,METAR KLGA 100700Z 29009KT 15SM CLR 24/16 A2995 RMK SLP142 T02380155,NA
LGA,1973-06-10T08:00:00Z,-73.8803,40.7794,73.94,59,59.58,310,9,NA,29.96,1014.6,15,NA,CLR,   ,   ,   ,NA,NA,NA,NA,NA,NA,NA,NA,NA,NA,NA,73.94,METAR KLGA 100800Z 31009KT 15SM CLR 23/15 A2996 RMK VA SLP146 T02330150,NA
LGA,1973-06-10T09:00:00Z,-73.8803,40.7794,73.04,59,61.41,310,8,NA,29.97,1014.9,10,NA,SCT,   ,   ,   ,25000,NA,NA,NA,NA,NA,NA,NA,NA,NA,NA,73.04,METAR KLGA 100900Z 31008KT 10SM SCT250 23/15 A2997 RMK VA SLP149 8/001 T02280150 53008,NA
LGA,1973-06-10T10:00:00Z,-73.8803,40.7794,72.86,59,61.79,300,9,NA,29.99,1015.6,10,NA,SCT,   ,   ,   ,25000,NA,NA,NA,NA,NA,NA,NA,NA,NA,NA,72.86,METAR KLGA 101000Z 30009KT 10SM SCT250 23/15 A2999 RMK WND 270V330 VA SLP156 T02270150,NA
LGA,1973-06-10T11:00:00Z,-73.8803,40.7794,72.86,56.84,57.17,300,11,NA,30,1015.9,15,NA,SCT,   ,   ,   ,25000,NA,NA,NA,NA,NA,NA,NA,NA,NA,NA,72.86,METAR KLGA 101100Z 30011KT 15SM SCT250 23/14 A3000 RMK / WND 280V320 VA SLP159 T02270138,NA
LGA,1973-06-10T12:00:00Z,-73.8803,40.7794,73.94,57.02,55.49,310,8,NA,30,1015.9,15,NA,CLR,   ,   ,   ,NA,NA,NA,NA,NA,NA,NA,NA,NA,NA,NA,73.94,METAR KLGA 101200Z 31008KT 15SM CLR 23/14 A3000 RMK FEW CI NE VA SLP159 70028 T02330139,NA
LGA,1973-06-10T13:00:00Z,-73.8803,40.7794,73.94,55.94,53.37,300,11,NA,30.02,1016.6,15,NA,CLR,   ,   ,   ,NA,NA,NA,NA,NA,NA,NA,NA,NA,NA,NA,73.94,METAR KLGA 101300Z 30011KT 15SM CLR 23/13 A3002 RMK FEW CI NE VA SLP166 T02330133,NA
LGA,1973-06-10T14:00:00Z,-73.8803,40.7794,74.84,52.88,46.31,310,12,NA,30.02,1016.6,15,NA,CLR,   ,   ,   ,NA,NA,NA,NA,NA,NA,NA,NA,NA,NA,NA,74.84,METAR KLGA 101400Z 31012KT 15SM CLR 24/12 A3002 RMK VA SLP166 T02380116,NA
LGA,1973-06-10T15:00:00Z,-73.8803,40.7794,77,51.08,40.33,320,12,NA,30.02,1016.6,15,NA,CLR,   ,   ,   ,NA,NA,NA,NA,NA,NA,NA,NA,NA,NA,NA,77,METAR KLGA 101500Z 32012KT 15SM CLR 25/11 A3002 RMK / VA SLP166 T02500106 51007,NA
LGA,1973-06-10T16:00:00Z,-73.8803,40.7794,79.88,51.98,37.92,310,10,NA,30.03,1016.9,15,NA,CLR,   ,   ,   ,NA,NA,NA,NA,NA,NA,NA,NA,NA,NA,NA,79.88,METAR KLGA 101600Z 31010KT 15SM CLR 27/11 A3003 RMK VA SLP169 T02660111,NA
LGA,1973-06-10T17:00:00Z,-73.8803,40.7794,80.96,51.98,36.6,350,10,NA,30.02,1016.6,15,NA,CLR,   ,   ,   ,NA,NA,NA,NA,NA,NA,NA,NA,NA,NA,NA,80.96,METAR KLGA 101700Z 35010KT 15SM CLR 27/11 A3002 RMK VA SLP166 T02720111,NA
LGA,1973-06-10T18:00:00Z,-73.8803,40.7794,82.04,53.06,36.77,310,9,NA,30.02,1016.6,15,NA,CLR,   ,   ,   ,NA,NA,NA,NA,NA,NA,NA,NA,NA,NA,NA,82.04,METAR KLGA 101800Z 31009KT 15SM CLR 28/12 A//// RMK SLP166 T02780117,NA
LGA,1973-06-10T19:00:00Z,-73.8803,40.7794,82.94,52.88,35.48,310,8,NA,30,1015.9,15,NA,CLR,   ,   ,   ,NA,NA,NA,NA,NA,NA,NA,NA,NA,NA,NA,81.72,METAR KLGA 101900Z 31008KT 15SM CLR 28/12 A3000 RMK VA SLP159 T02830116,NA
LGA,1973-06-10T20:00:00Z,-73.8803,40.7794,84.92,53.96,34.63,360,5,NA,29.99,1015.6,15,NA,CLR,   ,   ,   ,NA,NA,NA,NA,NA,NA,NA,NA,NA,NA,NA,83.38,METAR KLGA 102000Z 36005KT 15SM CLR 29/12 A2999 RMK VA SLP156 T02940122,NA
LGA,1973-06-10T21:00:00Z,-73.8803,40.7794,86,53.96,33.45,290,7,NA,29.97,1014.9,15,NA,SCT,   ,   ,   ,25000,NA,NA,NA,NA,NA,NA,NA,NA,NA,NA,84.25,METAR KLGA 102100Z 29007KT 15SM SCT250 30/12 A2997 RMK VA SLP149 8/002 T03000122 57017,NA
LGA,1973-06-10T22:00:00Z,-73.8803,40.7794,86.9,52.88,31.24,300,5,NA,29.96,1014.6,15,NA,SCT,   ,   ,   ,25000,NA,NA,NA,NA,NA,NA,NA,NA,NA,NA,84.8,METAR KLGA 102200Z 30005KT 15SM SCT250 31/12 A2996 RMK VA SLP146 T03050116,NA
LGA,1973-06-10T23:00:00Z,-73.8803,40.7794,84.92,54.86,35.78,190,12,NA,29.96,1014.6,15,NA,SCT,   ,   ,   ,25000,NA,NA,NA,NA,NA,NA,NA,NA,NA,NA,83.55,METAR KLGA 102300Z 19012KT 15SM SCT250 29/13 A2996 RMK SLP146 T02940127,NA
LGA,1973-06-11T00:00:00Z,-73.8803,40.7794,82.04,55.94,40.84,190,10,NA,29.97,1014.9,15,NA,FEW,   ,   ,   ,25000,NA,NA,NA,NA,NA,NA,NA,NA,NA,NA,81.58,METAR KLGA 110000Z 19010KT 15SM FEW250 28/13 A2997 RMK VA SLP149 T02780133,NA
LGA,1973-06-11T01:00:00Z,-73.8803,40.7794,81.86,59,45.87,180,10,NA,29.97,1014.9,15,NA,SCT,   ,   ,   ,25000,NA,NA,NA,NA,NA,NA,NA,NA,NA,NA,82.05,METAR KLGA 110100Z 18010KT 15SM SCT250 28/15 A2997 RMK VA SLP149 T02770150,NA
LGA,1973-06-11T02:00:00Z,-73.8803,40.7794,81.86,60.98,49.22,190,8,NA,29.99,1015.6,15,NA,SCT,   ,   ,   ,25000,NA,NA,NA,NA,NA,NA,NA,NA,NA,NA,82.51,METAR KLGA 110200Z 19008KT 15SM SCT250 28/16 A2999 RMK VA SLP156 T02770161,NA
LGA,1973-06-11T03:00:00Z,-73.8803,40.7794,80.06,60.98,52.19,210,8,NA,29.99,1015.6,15,NA,FEW,   ,   ,   ,25000,NA,NA,NA,NA,NA,NA,NA,NA,NA,NA,81.07,METAR KLGA 110300Z 21008KT 15SM FEW250 27/16 A2999 RMK / 1001VA SLP156 T02670161 51007,NA
LGA,1973-06-11T04:00:00Z,-73.8803,40.7794,79.88,60.98,52.5,210,10,NA,29.98,1015.2,15,NA,SCT,   ,   ,   ,25000,NA,NA,NA,NA,NA,NA,NA,NA,NA,NA,80.93,METAR KLGA 110400Z 21010KT 15SM SCT250 27/16 A2998 RMK SLP152 T02660161,NA
LGA,1973-06-11T05:00:00Z,-73.8803,40.7794,80.96,59.9,48.77,230,9,NA,29.97,1014.9,15,NA,CLR,   ,   ,   ,NA,NA,NA,NA,NA,NA,NA,NA,NA,NA,NA,81.55,METAR KLGA 110500Z 23009KT 15SM CLR 27/16 A2997 RMK SLP149 T02720155,NA
LGA,1973-06-11T06:00:00Z,-73.8803,40.7794,80.06,60.98,52.19,230,11,NA,29.96,1014.6,10,NA,CLR,   ,   ,   ,NA,NA,NA,NA,NA,NA,NA,NA,NA,NA,NA,81.07,METAR KLGA 110600Z 23011KT 10SM CLR 27/16 A2996 RMK / WND 210V250 SLP146 T02670161,NA
LGA,1973-06-11T07:00:00Z,-73.8803,40.7794,78.98,61.88,55.83,220,12,NA,29.96,1014.6,10,NA,CLR,   ,   ,   ,NA,NA,NA,NA,NA,NA,NA,NA,NA,NA,NA,80.36,METAR KLGA 110700Z 22012KT 10SM CLR 26/17 A2996 RMK SLP146 T02610166,NA
LGA,1973-06-11T09:00:00Z,-73.8803,40.7794,77,64.04,64.3,240,10,NA,29.96,1014.6,7,NA,SCT,SCT,   ,   ,15000,25000,NA,NA,NA,NA,NA,NA,NA,NA,NA,77,METAR KLGA 110900Z 24010KT 7SM SCT150 SCT250 25/18 A2996 RMK SLP146 8/031 T02500178 55002,NA
LGA,1973-06-11T10:00:00Z,-73.8803,40.7794,75.92,64.94,68.78,230,10,NA,29.96,1014.6,4,NA,SCT,BKN,   ,   ,15000,25000,NA,NA,DZ,NA,NA,NA,NA,NA,NA,75.92,METAR KLGA 111000Z 23010KT 4SM DZ SCT150 BKN250 24/18 A2996 RMK VA SLP146 T02440183,NA
LGA,1973-06-11T11:00:00Z,-73.8803,40.7794,77,64.94,66.36,250,6,NA,29.97,1014.9,4,NA,BKN,   ,   ,   ,25000,NA,NA,NA,DZ,NA,NA,NA,NA,NA,NA,77,METAR KLGA 111100Z 25006KT 4SM DZ BKN250 25/18 A2997 RMK SLP149 T02500183,NA
LGA,1973-06-11T12:00:00Z,-73.8803,40.7794,80.06,64.94,59.99,260,9,NA,29.98,1015.2,4,NA,SCT,   ,   ,   ,25000,NA,NA,NA,DZ,NA,NA,NA,NA,NA,NA,81.88,METAR KLGA 111200Z 26009KT 4SM DZ SCT250 27/18 A2998 RMK VA SLP152 T02670183,NA
LGA,1973-06-11T13:00:00Z,-73.8803,40.7794,81.9,65.8,58.22,270,10,NA,29.97,NA,4,NA,   ,   ,   ,   ,NA,NA,NA,NA,NA,NA,NA,NA,NA,NA,NA,83.97,METAR KLGA 111300Z 26010KT 4SM FUDZ SCT250 28/19 A2997 RMK VA SLP149 T02770188,NA
LGA,1973-06-11T14:00:00Z,-73.8803,40.7794,84.9,66.9,54.89,270,10,NA,29.96,NA,5,NA,   ,   ,   ,   ,NA,NA,NA,NA,NA,NA,NA,NA,NA,NA,NA,87.59,METAR KLGA 111400Z 26010KT 5SM FUDZ BKN250 29/19 A2996 RMK VA SLP146 T02940194,NA
LGA,1973-06-11T15:00:00Z,-73.8803,40.7794,87.98,68,51.68,270,10,NA,29.95,1014.2,7,NA,BKN,   ,   ,   ,25000,NA,NA,NA,NA,NA,NA,NA,NA,NA,NA,91.63,METAR KLGA 111500Z 27010KT 7SM BKN250 31/20 A2995 RMK / VA SLP142 8/001 T03110200 58008,NA
LGA,1973-06-11T16:00:00Z,-73.8803,40.7794,89.96,68,48.55,270,11,NA,29.94,1013.9,8,NA,SCT,BKN,   ,   ,5000,25000,NA,NA,NA,NA,NA,NA,NA,NA,NA,93.88,METAR KLGA 111600Z 27011KT 8SM SCT050 BKN250 32/20 A2994 RMK VA SLP139 T03220200,NA
LGA,1973-06-11T17:00:00Z,-73.8803,40.7794,89.96,65.84,45.06,280,16,NA,29.93,1013.5,9,NA,SCT,   ,   ,   ,5000,NA,NA,NA,NA,NA,NA,NA,NA,NA,NA,92.45,METAR KLGA 111700Z 28016KT 9SM SCT050 32/19 A2993 RMK VA SLP135 T03220188,NA
LGA,1973-06-11T18:00:00Z,-73.8803,40.7794,91.94,64.94,41.04,280,16,NA,29.92,1013.2,9,NA,SCT,SCT,   ,   ,5000,22000,NA,NA,NA,NA,NA,NA,NA,NA,NA,94.1,METAR KLGA 111800Z 28016KT 9SM SCT050 SCT220 33/18 A2992 RMK TCU W VA SLP132 T03330183,NA
LGA,1973-06-11T19:00:00Z,-73.8803,40.7794,91.94,63.86,39.52,280,14,NA,29.9,1012.5,9,NA,SCT,   ,   ,   ,5000,NA,NA,NA,NA,NA,NA,NA,NA,NA,NA,93.48,METAR KLGA 111900Z 28014KT 9SM SCT050 33/18 A2990 RMK VA SLP125 T03330177,NA
LGA,1973-06-11T20:00:00Z,-73.8803,40.7794,92.84,63.86,38.43,260,11,NA,29.89,1012.2,8,NA,SCT,   ,   ,   ,5000,NA,NA,NA,NA,NA,NA,NA,NA,NA,NA,94.48,METAR KLGA 112000Z 26011KT 8SM SCT050 34/18 A2989 RMK VA SLP122 T03380177,NA
LGA,1973-06-11T21:00:00Z,-73.8803,40.7794,91.94,64.04,39.77,270,14,NA,29.88,1011.9,8,NA,SCT,   ,   ,   ,5000,NA,NA,NA,NA,NA,NA,NA,NA,NA,NA,93.58,METAR KLGA 112100Z 27014KT 8SM SCT050 33/18 A2988 RMK / VA SLP119 8/100 T03330178 57014,NA
LGA,1973-06-11T22:00:00Z,-73.8803,40.7794,91.94,62.96,38.29,220,13,NA,29.87,1011.5,8,NA,CLR,   ,   ,   ,NA,NA,NA,NA,NA,NA,NA,NA,NA,NA,NA,93,METAR KLGA 112200Z 22013KT 8SM CLR 33/17 A2987 RMK / FEW CU VA SLP115 T03330172,NA
LGA,1973-06-11T23:00:00Z,-73.8803,40.7794,90.86,63.86,40.88,260,12,NA,29.87,1011.5,8,NA,CLR,   ,   ,   ,NA,NA,NA,NA,NA,NA,NA,NA,NA,NA,NA,92.29,METAR KLGA 112300Z 26012KT 8SM CLR 33/18 A2987 RMK VA SLP115 T03270177,NA
LGA,1973-06-12T00:00:00Z,-73.8803,40.7794,89.96,64.04,42.31,240,14,NA,29.87,1011.5,8,22,CLR,   ,   ,   ,NA,NA,NA,NA,NA,NA,NA,NA,NA,NA,NA,91.42,METAR KLGA 120000Z 24014G22KT 8SM CLR 32/18 A2987 RMK VA SLP115 T03220178,NA
LGA,1973-06-12T03:00:00Z,-73.8803,40.7794,86,69.08,57.12,240,12,NA,29.9,1012.5,7,NA,CLR,   ,   ,   ,NA,NA,NA,NA,NA,NA,NA,NA,NA,NA,NA,90.1,METAR KLGA 120300Z 24012KT 7SM CLR 30/21 A2990 RMK / VA SLP125 T03000206 51010,NA
LGA,1973-06-12T04:00:00Z,-73.8803,40.7794,84.92,68.9,58.77,240,14,NA,29.91,1012.9,7,NA,CLR,   ,   ,   ,NA,NA,NA,NA,NA,NA,NA,NA,NA,NA,NA,88.73,METAR KLGA 120400Z 24014KT 7SM CLR 29/20 A2991 RMK SLP129 T02940205,NA
LGA,1973-06-12T05:00:00Z,-73.8803,40.7794,83.84,68.9,60.85,240,13,NA,29.91,1012.9,5,NA,CLR,   ,   ,   ,NA,NA,NA,NA,DZ,NA,NA,NA,NA,NA,NA,87.48,METAR KLGA 120500Z 24013KT 5SM DZ CLR 29/20 A2991 RMK SLP129 T02880205,NA
LGA,1973-06-12T06:00:00Z,-73.8803,40.7794,82.94,69.08,63.03,240,11,NA,29.91,1012.9,5,NA,CLR,   ,   ,   ,NA,NA,NA,NA,DZ,NA,NA,NA,NA,NA,NA,86.52,METAR KLGA 120600Z 24011KT 5SM DZ CLR 28/21 A2991 RMK SLP129 T02830206,NA
LGA,1973-06-12T07:00:00Z,-73.8803,40.7794,81.86,69.98,67.32,230,13,NA,29.92,1013.2,5,NA,CLR,   ,   ,   ,NA,NA,NA,NA,DZ,NA,NA,NA,NA,NA,NA,85.62,METAR KLGA 120700Z 23013KT 5SM DZ CLR 28/21 A2992 RMK / WND 210V250 SLP132 T02770211,NA
LGA,1973-06-12T08:00:00Z,-73.8803,40.7794,80.96,69.98,69.32,240,12,NA,29.9,1012.5,5,NA,CLR,   ,   ,   ,NA,NA,NA,NA,DZ,NA,NA,NA,NA,NA,NA,84.44,METAR KLGA 120800Z 24012KT 5SM DZ CLR 27/21 A2990 RMK WND 220V260 SLP125 T02720211,NA
LGA,1973-06-12T09:00:00Z,-73.8803,40.7794,80.06,69.98,71.39,250,12,NA,29.9,1012.5,4,NA,CLR,   ,   ,   ,NA,NA,NA,NA,DZ,NA,NA,NA,NA,NA,NA,83.22,METAR KLGA 120900Z 25012KT 4SM DZ CLR 27/21 A2990 RMK / SLP125 T02670211 55003,NA
LGA,1973-06-12T12:00:00Z,-73.8803,40.7794,82,70,67.06,250,8,NA,29.91,NA,10.5,NA,   ,   ,   ,   ,NA,NA,NA,NA,NA,NA,NA,NA,NA,NA,NA,85.81,METAR KLGA 121200Z 24008KT 21/2SM FUDZ OVC/// SCT/// 28/21 A2991 RMK SLP129 T02780211,NA
LGA,1973-06-12T13:00:00Z,-73.8803,40.7794,83.8,70,63.26,230,9.04,NA,29.92,NA,10.5,NA,   ,   ,   ,   ,NA,NA,NA,NA,NA,NA,NA,NA,NA,NA,NA,88.07,METAR KLGA 121300Z 23009KT 21/2SM FUDZ OVC/// SCT220 29/21 A2992 RMK HK2 SLP132 T02880211,NA
LGA,1973-06-12T14:00:00Z,-73.8803,40.7794,86.9,70,57.28,210,8,NA,29.91,NA,10.5,NA,   ,   ,   ,   ,NA,NA,NA,NA,NA,NA,NA,NA,NA,NA,NA,91.8,METAR KLGA 121400Z 21008KT 21/2SM FUDZ OVC/// BKN220 31/21 A2991 RMK HK 3 SLP129 T03050211,NA
LGA,1973-06-12T15:00:00Z,-73.8803,40.7794,89.1,70,53.42,220,8,NA,29.9,NA,10.5,NA,   ,   ,   ,   ,NA,NA,NA,NA,NA,NA,NA,NA,NA,NA,NA,94.41,METAR KLGA 121500Z 22008KT 21/2SM FUDZ OVC/// SCT220 32/21 A2990 RMK HK3/ SLP125 8/001 T03170211 58003,NA
LGA,1973-06-12T16:00:00Z,-73.8803,40.7794,90,68.9,50.01,230,13,NA,29.89,NA,10.5,19,   ,   ,   ,   ,NA,NA,NA,NA,NA,NA,NA,NA,NA,NA,NA,94.6,METAR KLGA 121600Z 23013G19KT 21/2SM FUDZ OVC/// SCT045 SCT220 32/20 A2989 RMK HK3/SFC VSBY 3/VNA SLP122 T03220205,NA
LGA,1973-06-12T17:00:00Z,-73.8803,40.7794,91.9,68,45.69,210,18,NA,29.88,NA,10.5,25,   ,   ,   ,   ,NA,NA,NA,NA,NA,NA,NA,NA,NA,NA,NA,96.13,METAR KLGA 121700Z 21018G25KT 21/2SM FUDZ OVC/// BKN050 33/20 A2988 RMK HK3/SFC VSBY 3/VNA SLP119 T03330200,NA
LGA,1973-06-12T18:00:00Z,-73.8803,40.7794,91,68,46.99,220,13,NA,29.86,NA,3,20,   ,   ,   ,   ,NA,NA,NA,NA,NA,NA,NA,NA,NA,NA,NA,95.08,METAR KLGA 121800Z 22013G20KT 3SM FUDZ OVC/// BKN050 33/20 A2986 RMK HK2/VA SLP112 T03280200,NA
LGA,1973-06-12T19:00:00Z,-73.8803,40.7794,91.9,68.9,47.12,220,15.04,NA,29.83,NA,3,NA,   ,   ,   ,   ,NA,NA,NA,NA,NA,NA,NA,NA,NA,NA,NA,96.84,METAR KLGA 121900Z 22015KT 3SM FUDZ OVC/// BKN050 33/20 A2983 RMK VALGA OM 4 UNMON SLP102 T03330205 560/5,NA
LGA,1973-06-12T20:00:00Z,-73.8803,40.7794,90.9,70,50.48,230,9.04,NA,29.81,NA,3,NA,   ,   ,   ,   ,NA,NA,NA,NA,NA,NA,NA,NA,NA,NA,NA,96.57,METAR KLGA 122000Z 23009KT 3SM FUDZ OVC/// BKN050 33/21 A2981 RMK HK2 VALGA6/5 SLP095 T03270211,NA
LGA,1973-06-12T21:00:00Z,-73.8803,40.7794,89.96,69.08,50.39,230,13,NA,29.81,1009.5,4,NA,BKN,BKN,   ,   ,5000,25000,NA,NA,DZ,NA,NA,NA,NA,NA,NA,94.7,METAR KLGA 122100Z 23013KT 4SM DZ BKN050 BKN250 32/21 A2981 RMK 9 VALGA6/5 SLP095 8/103 T03220206,NA
LGA,1973-06-12T22:00:00Z,-73.8803,40.7794,89.96,66.92,46.77,240,12,NA,29.8,1009.1,4,NA,SCT,OVC,   ,   ,5000,20000,NA,NA,DZ,NA,NA,NA,NA,NA,NA,93.14,METAR KLGA 122200Z 24012KT 4SM DZ SCT050 OVC200 32/19 A2980 RMK VALGA6/5 SLP091 T03220194,NA
LGA,1973-06-12T23:00:00Z,-73.8803,40.7794,88.88,68,50.23,240,10,NA,29.81,1009.5,4,NA,SCT,SCT,OVC,   ,5000,12000,20000,NA,DZ,NA,NA,NA,NA,NA,NA,92.65,METAR KLGA 122300Z 24010KT 4SM DZ SCT050 SCT120 OVC200 32/20 A2981 RMK LGA6/5 SLP095 T03160200,NA
LGA,1973-06-13T00:00:00Z,-73.8803,40.7794,82.04,62.06,50.84,330,12,0.04,29.84,1010.5,7,NA,BKN,OVC,   ,   ,4600,10000,NA,NA,-TSRA,NA,NA,NA,NA,NA,NA,82.94,METAR KLGA 130000Z 33012KT 7SM -TSRA BKN046 OVC100 28/17 A2984 RMK TB38 T E MOVG E OCNL LTGIC E PK WND RB47 VALGA6/5 SLP105 P0004 60015 T02780167 5304/,NA
LGA,1973-06-13T01:00:00Z,-73.8803,40.7794,77,62.96,61.91,130,8,0.01,29.85,1010.8,7,NA,SCT,BKN,OVC,   ,4500,10000,20000,NA,NA,NA,NA,NA,NA,NA,NA,77,METAR KLGA 130100Z 13008KT 7SM SCT045 BKN100 OVC200 25/17 A2985 RMK TE20 MOVD E PK WND RE15LGA6/5 SLP108 P0001 T02500172 5306/,NA
LGA,1973-06-13T02:00:00Z,-73.8803,40.7794,77.9,64.94,64.41,240,5,NA,29.88,1011.9,7,NA,SCT,BKN,OVC,   ,5000,10000,20000,NA,NA,NA,NA,NA,NA,NA,NA,77.9,METAR KLGA 130200Z 24005KT 7SM SCT050 BKN100 OVC200 25/18 A2988 RMK VA SLP119 T02550183,NA
LGA,1973-06-13T03:00:00Z,-73.8803,40.7794,77,64.94,66.36,230,7,NA,29.87,1011.5,8,NA,SCT,BKN,OVC,   ,5000,11000,20000,NA,NA,NA,NA,NA,NA,NA,NA,77,METAR KLGA 130300Z 23007KT 8SM SCT050 BKN110 OVC200 25/18 A2987 RMK VA SLP115 8/577 T02500183 50010,NA
LGA,1973-06-13T04:00:00Z,-73.8803,40.7794,77,63.86,63.9,240,14,NA,29.89,1012.2,7,NA,BKN,OVC,   ,   ,5000,10000,NA,NA,-SHRA,NA,NA,NA,NA,NA,NA,77,METAR KLGA 130400Z 24014KT 7SM -SHRA BKN050 OVC100 25/18 A2989 RMK RB40 SLP122 T02500177,NA
LGA,1973-06-13T05:00:00Z,-73.8803,40.7794,74.84,65.84,73.58,250,6,NA,29.85,1010.8,7,NA,BKN,OVC,   ,   ,6000,8000,NA,NA,-SHRA,NA,NA,NA,NA,NA,NA,74.84,METAR KLGA 130500Z 25006KT 7SM -SHRA BKN060 OVC080 24/19 A2985 RMK SLP108 T02380188,NA
LGA,1973-06-13T06:00:00Z,-73.8803,40.7794,73.94,64.04,71.22,270,12,NA,29.86,1011.2,7,NA,BKN,OVC,   ,   ,5000,13000,NA,NA,NA,NA,NA,NA,NA,NA,NA,73.94,METAR KLGA 130600Z 27012KT 7SM BKN050 OVC130 23/18 A2986 RMK RE01 SLP112 60004 T02330178,NA
LGA,1973-06-13T07:00:00Z,-73.8803,40.7794,72.86,64.94,76.21,260,7,NA,29.84,1010.5,7,NA,BKN,OVC,   ,   ,5000,12000,NA,NA,-SHRA,NA,NA,NA,NA,NA,NA,72.86,METAR KLGA 130700Z 26007KT 7SM -SHRA BKN050 OVC120 23/18 A2984 RMK RB15 SLP105 T02270183,NA
LGA,1973-06-13T08:00:00Z,-73.8803,40.7794,72.86,64.94,76.21,250,5,NA,29.82,1009.8,6,NA,SCT,BKN,OVC,   ,2400,4000,12000,NA,-SHRA DZ,NA,NA,NA,NA,NA,NA,72.86,METAR KLGA 130800Z 25005KT 6SM -SHRA DZ SCT024 BKN040 OVC120 23/18 A2982 RMK SLP098 T02270183,NA
LGA,1973-06-13T09:00:00Z,-73.8803,40.7794,73.04,64.94,75.75,230,11,0.01,29.83,1010.2,6,NA,SCT,OVC,   ,   ,4000,13000,NA,NA,DZ,NA,NA,NA,NA,NA,NA,73.04,METAR KLGA 130900Z 23011KT 6SM DZ SCT040 OVC130 23/18 A2983 RMK RE30 BINOVC/ VA SLP102 P0001 8/53/ T02280183 55008,NA
LGA,1973-06-13T10:00:00Z,-73.8803,40.7794,72.86,64.94,76.21,270,13,NA,29.85,1010.8,4,NA,BKN,OVC,   ,   ,10000,15000,NA,NA,DZ,NA,NA,NA,NA,NA,NA,72.86,METAR KLGA 131000Z 27013KT 4SM DZ BKN100 OVC150 23/18 A2985 RMK OCNL BINOVC WND 250V290 VA SLP108 T02270183,NA
LGA,1973-06-13T11:00:00Z,-73.8803,40.7794,72.86,64.94,76.21,260,13,NA,29.87,1011.5,3,NA,BKN,OVC,   ,   ,10000,15000,NA,NA,-DZ DZ,NA,NA,NA,NA,NA,NA,72.86,METAR KLGA 131100Z 26013KT 3SM -DZ DZ BKN100 OVC150 23/18 A2987 RMK LB35 VA SLP115 T02270183,NA
LGA,1973-06-13T12:00:00Z,-73.8803,40.7794,73.04,66.02,78.65,220,8,NA,29.88,1011.9,3,NA,BKN,OVC,   ,   ,10000,15000,NA,NA,-SHRA DZ,NA,NA,NA,NA,NA,NA,73.04,METAR KLGA 131200Z 22008KT 3SM -SHRA DZ BKN100 OVC150 23/19 A2988 RMK / LE10RB35 VA SLP119 70008 T02280189,NA
LGA,1973-06-13T14:00:00Z,-73.8803,40.7794,74.84,65.84,73.58,250,4,NA,29.86,1011.2,3,NA,SCT,BKN,BKN,   ,6000,10000,15000,NA,DZ,NA,NA,NA,NA,NA,NA,74.84,METAR KLGA 131400Z 25004KT 3SM DZ SCT060 BKN100 BKN150 24/19 A2986 RMK / RB25E30 VA SLP112 T02380188,NA
LGA,1973-06-13T15:00:00Z,-73.8803,40.7794,79,66,64.45,330,6,NA,29.85,NA,4,NA,   ,   ,   ,   ,NA,NA,NA,NA,NA,NA,NA,NA,NA,NA,NA,81.01,METAR KLGA 131500Z 33006KT 4SM -SHRA FUDZ SCT050 BKN100 BKN180 26/19 A2985 RMK / VA SLP108 8/170 T02610189 58010,NA
LGA,1973-06-13T16:00:00Z,-73.8803,40.7794,79,64.9,62.03,300,5.04,NA,29.84,NA,5,NA,   ,   ,   ,   ,NA,NA,NA,NA,NA,NA,NA,NA,NA,NA,NA,80.83,METAR KLGA 131600Z 30005KT 5SM FUDZ SCT050 BKN100 BKN180 26/18 A2984 RMK VA SLP105 T02610183,NA
LGA,1973-06-13T17:00:00Z,-73.8803,40.7794,79.9,64.9,60.22,300,9.04,NA,29.83,NA,5,NA,   ,   ,   ,   ,NA,NA,NA,NA,NA,NA,NA,NA,NA,NA,NA,81.72,METAR KLGA 131700Z 30009KT 5SM FUDZ SCT050 BKN090 OVC180 27/18 A2983 RMK B NOVC VA SLP102 T02660183,NA
LGA,1973-06-13T18:00:00Z,-73.8803,40.7794,82.04,64.94,56.24,320,5,NA,29.81,1009.5,7,NA,SCT,BKN,OVC,   ,3900,4500,9000,NA,NA,NA,NA,NA,NA,NA,NA,83.82,METAR KLGA 131800Z 32005KT 7SM SCT039 BKN045 OVC090 28/18 A2981 RMK BINOVC VA SLP095 T02780183,NA
LGA,1973-06-13T18:20:00Z,-73.8803,40.7794,NA,NA,NA,180,5,NA,29.79,NA,7,NA,BKN,BKN,BKN,NA,3800,4900,8900,NA,NA,NA,NA,NA,NA,NA,NA,NA,KLGA 131820Z AUTO 18005KT 7SM BKN038 BKN049 BKN089 A2979 RMK IEM_DS3505,NA
LGA,1973-06-13T19:00:00Z,-73.8803,40.7794,69.98,65.84,86.71,340,14,1,29.83,1010.2,1,NA,OVC,OVC,   ,   ,NA,1500,NA,NA,TSRA,NA,NA,NA,NA,NA,NA,69.98,METAR KLGA 131900Z 34014KT 1SM TSRA OVC/// OVC015 21/19 A2983 RMK R22VR36V60& R4 TB18 OVHD MOVG E RB28 PCPN PK WND 32/32 29 SLP102 P0100 T02110188,NA
LGA,1973-06-13T19:04:00Z,-73.8803,40.7794,NA,NA,NA,360,8,NA,29.83,NA,7,NA,SCT,BKN,OVC,NA,1500,3000,6900,NA,NA,NA,NA,NA,NA,NA,NA,NA,KLGA 131904Z AUTO 36008KT 7SM SCT015 BKN030 OVC069 A2983 RMK IEM_DS3505,NA
LGA,1973-06-13T19:18:00Z,-73.8803,40.7794,NA,NA,NA,20,7,NA,29.83,NA,8,NA,SCT,SCT,BKN,BKN,1500,3000,5900,11800,NA,NA,NA,NA,NA,NA,NA,NA,KLGA 131918Z AUTO 02007KT 8SM SCT015 SCT030 BKN059 BKN118 A2983 RMK IEM_DS3505,NA
LGA,1973-06-13T20:00:00Z,-73.8803,40.7794,74.84,65.84,73.58,30,6,NA,29.82,1009.8,10,NA,SCT,SCT,BKN,   ,2500,6000,14000,NA,NA,NA,NA,NA,NA,NA,NA,74.84,METAR KLGA 132000Z 03006KT 10SM SCT025 SCT060 BKN140 24/19 A2982 RMK TE16 MOVD E RE02 PK WND SLP098 T02380188 5001/,NA
LGA,1973-06-13T21:00:00Z,-73.8803,40.7794,78.08,66.92,68.59,340,7,NA,29.81,1009.5,9,NA,SCT,SCT,BKN,   ,3000,14000,25000,NA,NA,NA,NA,NA,NA,NA,NA,78.08,METAR KLGA 132100Z 34007KT 9SM SCT030 SCT140 BKN250 26/19 A2981 RMK / ONE 1131 VA SLP095 T02560194 50000,NA
LGA,1973-06-13T22:00:00Z,-73.8803,40.7794,77.9,64.94,64.41,320,11,NA,29.81,1009.5,15,NA,SCT,BKN,   ,   ,3000,20000,NA,NA,NA,NA,NA,NA,NA,NA,NA,77.9,METAR KLGA 132200Z 32011KT 15SM SCT030 BKN200 25/18 A2981 RMK VA SLP095 T02550183,NA
LGA,1973-06-13T23:00:00Z,-73.8803,40.7794,77.9,59.9,53.93,330,13,NA,29.81,1009.5,15,NA,SCT,SCT,SCT,   ,4000,12000,20000,NA,NA,NA,NA,NA,NA,NA,NA,77.9,METAR KLGA 132300Z 33013KT 15SM SCT040 SCT120 SCT200 25/16 A2981 RMK VA SLP095 T02550155,NA
LGA,1973-06-14T00:00:00Z,-73.8803,40.7794,77,57.92,51.76,320,11,NA,29.85,1010.8,15,NA,SCT,SCT,SCT,   ,4500,12000,20000,NA,NA,NA,NA,NA,NA,NA,NA,77,METAR KLGA 140000Z 32011KT 15SM SCT045 SCT120 SCT200 25/14 A2985 RMK SLP108 60098 T02500144,NA
LGA,1973-06-14T01:00:00Z,-73.8803,40.7794,74.84,56.84,53.49,310,9,NA,29.86,1011.2,15,NA,CLR,   ,   ,   ,NA,NA,NA,NA,NA,NA,NA,NA,NA,NA,NA,74.84,METAR KLGA 140100Z 31009KT 15SM CLR 24/14 A2986 RMK SLP112 T02380138,NA
LGA,1973-06-14T02:00:00Z,-73.8803,40.7794,73.94,57.92,57.32,300,10,NA,29.88,1011.9,15,NA,CLR,   ,   ,   ,NA,NA,NA,NA,NA,NA,NA,NA,NA,NA,NA,73.94,METAR KLGA 140200Z 30010KT 15SM CLR 23/14 A2988 RMK SLP119 T02330144,NA
LGA,1973-06-14T03:00:00Z,-73.8803,40.7794,73.04,55.94,55.01,290,10,NA,29.89,1012.2,15,NA,CLR,   ,   ,   ,NA,NA,NA,NA,NA,NA,NA,NA,NA,NA,NA,73.04,METAR KLGA 140300Z 29010KT 15SM CLR 23/13 A2989 RMK / SLP122 T02280133 52014,NA
LGA,1973-06-14T04:00:00Z,-73.8803,40.7794,71.96,54.86,54.86,300,9,NA,29.9,1012.5,15,NA,CLR,   ,   ,   ,NA,NA,NA,NA,NA,NA,NA,NA,NA,NA,NA,71.96,METAR KLGA 140400Z 30009KT 15SM CLR 22/13 A2990 RMK SLP125 T02220127,NA
LGA,1973-06-14T05:00:00Z,-73.8803,40.7794,70.88,52.88,52.93,300,8,NA,29.9,1012.5,15,NA,CLR,   ,   ,   ,NA,NA,NA,NA,NA,NA,NA,NA,NA,NA,NA,70.88,METAR KLGA 140500Z 30008KT 15SM CLR 22/12 A2990 RMK SLP125 T02160116,NA
LGA,1973-06-14T06:00:00Z,-73.8803,40.7794,69.08,53.06,56.66,310,8,NA,29.91,1012.9,15,NA,CLR,   ,   ,   ,NA,NA,NA,NA,NA,NA,NA,NA,NA,NA,NA,69.08,METAR KLGA 140600Z 31008KT 15SM CLR 21/12 A2991 RMK SLP129 T02060117,NA
LGA,1973-06-14T07:00:00Z,-73.8803,40.7794,68,54.86,62.8,320,10,NA,29.9,1012.5,15,NA,CLR,   ,   ,   ,NA,NA,NA,NA,NA,NA,NA,NA,NA,NA,NA,68,METAR KLGA 140700Z 32010KT 15SM CLR 20/13 A2990 RMK SLP125 T02000127,NA
LGA,1973-06-14T08:00:00Z,-73.8803,40.7794,66.92,54.86,65.18,330,9,NA,29.91,1012.9,15,NA,CLR,   ,   ,   ,NA,NA,NA,NA,NA,NA,NA,NA,NA,NA,NA,66.92,METAR KLGA 140800Z 33009KT 15SM CLR 19/13 A2991 RMK WND 310V350 SLP129 T01940127,NA
LGA,1973-06-14T09:00:00Z,-73.8803,40.7794,66.92,55.04,65.61,310,11,NA,29.92,1013.2,15,NA,CLR,   ,   ,   ,NA,NA,NA,NA,NA,NA,NA,NA,NA,NA,NA,66.92,METAR KLGA 140900Z 31011KT 15SM CLR 19/13 A2992 RMK SLP132 T01940128 53003,NA
LGA,1973-06-14T10:00:00Z,-73.8803,40.7794,66.92,52.88,60.63,300,14,NA,29.93,1013.5,15,NA,CLR,   ,   ,   ,NA,NA,NA,NA,NA,NA,NA,NA,NA,NA,NA,66.92,METAR KLGA 141000Z 30014KT 15SM CLR 19/12 A2993 RMK WND 270V330 SLP135 T01940116,NA
LGA,1973-06-14T11:00:00Z,-73.8803,40.7794,68,51.98,56.51,300,10,NA,29.94,1013.9,15,NA,CLR,   ,   ,   ,NA,NA,NA,NA,NA,NA,NA,NA,NA,NA,NA,68,METAR KLGA 141100Z 30010KT 15SM CLR 20/11 A2994 RMK SLP139 T02000111,NA
LGA,1973-06-14T12:00:00Z,-73.8803,40.7794,69.08,51.98,54.45,300,13,NA,29.96,1014.6,15,NA,CLR,   ,   ,   ,NA,NA,NA,NA,NA,NA,NA,NA,NA,NA,NA,69.08,METAR KLGA 141200Z 30013KT 15SM CLR 21/11 A2996 RMK VA SLP146 70098 T02060111,NA
LGA,1973-06-14T13:00:00Z,-73.8803,40.7794,69.98,51.98,52.8,300,12,NA,29.96,1014.6,15,21,CLR,   ,   ,   ,NA,NA,NA,NA,NA,NA,NA,NA,NA,NA,NA,69.98,METAR KLGA 141300Z 30012G21KT 15SM CLR 21/11 A2996 RMK VA SLP146 T02110111,NA
LGA,1973-06-14T14:00:00Z,-73.8803,40.7794,71.96,52.88,51.02,310,13,NA,29.95,1014.2,15,NA,CLR,   ,   ,   ,NA,NA,NA,NA,NA,NA,NA,NA,NA,NA,NA,71.96,METAR KLGA 141400Z 31013KT 15SM CLR 22/12 A2995 RMK VA SLP142 T02220116,NA
LGA,1973-06-14T15:00:00Z,-73.8803,40.7794,73.94,53.06,48.04,300,11,NA,29.95,1014.2,15,NA,CLR,   ,   ,   ,NA,NA,NA,NA,NA,NA,NA,NA,NA,NA,NA,73.94,METAR KLGA 141500Z 30011KT 15SM CLR 23/12 A2995 RMK / VA SLP142 T02330117 56003,NA
LGA,1973-06-14T16:00:00Z,-73.8803,40.7794,75.92,54.86,48.03,310,7,NA,29.95,1014.2,15,NA,CLR,   ,   ,   ,NA,NA,NA,NA,NA,NA,NA,NA,NA,NA,NA,75.92,METAR KLGA 141600Z 31007KT 15SM CLR 24/13 A2995 RMK FEW CI N VA SLP142 T02440127,NA
LGA,1973-06-14T17:00:00Z,-73.8803,40.7794,77,51.98,41.69,310,10,NA,29.95,1014.2,15,NA,SCT,SCT,   ,   ,5000,25000,NA,NA,NA,NA,NA,NA,NA,NA,NA,77,METAR KLGA 141700Z 31010KT 15SM SCT050 SCT250 25/11 A2995 RMK VA SLP142 T02500111,NA
LGA,1973-06-14T18:00:00Z,-73.8803,40.7794,77,55.04,46.64,320,9,NA,29.94,1013.9,15,NA,SCT,   ,   ,   ,5000,NA,NA,NA,NA,NA,NA,NA,NA,NA,NA,77,METAR KLGA 141800Z 32009KT 15SM SCT050 25/13 A2994 RMK VA SLP139 T02500128,NA
LGA,1973-06-14T21:00:00Z,-73.8803,40.7794,78.98,50,36.29,310,13,NA,29.91,1012.9,15,NA,SCT,   ,   ,   ,5000,NA,NA,NA,NA,NA,NA,NA,NA,NA,NA,78.98,METAR KLGA 142100Z 31013KT 15SM SCT050 26/10 A2991 RMK / SLP129 8/100 T02610100 57010,NA
LGA,1973-06-14T23:00:00Z,-73.8803,40.7794,74.84,47.84,38.4,320,12,NA,29.91,1012.9,15,NA,SCT,   ,   ,   ,6000,NA,NA,NA,NA,NA,NA,NA,NA,NA,NA,73.83,METAR KLGA 142300Z 32012KT 15SM SCT060 24/09 A2991 RMK VA SLP129 T02380088,NA
LGA,1973-06-15T00:00:00Z,-73.8803,40.7794,75.02,48.02,38.43,310,12,NA,29.94,1013.9,15,NA,SCT,   ,   ,   ,25000,NA,NA,NA,NA,NA,NA,NA,NA,NA,NA,75.02,METAR KLGA 150000Z 31012KT 15SM SCT250 24/09 A2994 RMK / FEW CU W AC NE VA SLP139 T02390089,NA
LGA,1973-06-15T01:00:00Z,-73.8803,40.7794,72.86,47.84,41.05,310,10,NA,29.96,1014.6,15,NA,SCT,   ,   ,   ,25000,NA,NA,NA,NA,NA,NA,NA,NA,NA,NA,71.78,METAR KLGA 150100Z 31010KT 15SM SCT250 23/09 A2996 RMK / FEW CU AC VA SLP146 T02270088,NA
LGA,1973-06-15T02:00:00Z,-73.8803,40.7794,71.96,45.86,39.27,320,12,NA,29.98,1015.2,15,NA,CLR,   ,   ,   ,NA,NA,NA,NA,NA,NA,NA,NA,NA,NA,NA,70.7,METAR KLGA 150200Z 32012KT 15SM CLR 22/08 A2998 RMK FEW CI VALGA6/6 SLP152 T02220077,NA
LGA,1973-06-15T03:00:00Z,-73.8803,40.7794,69.98,46.94,43.75,310,9,NA,29.98,1015.2,15,NA,FEW,   ,   ,   ,25000,NA,NA,NA,NA,NA,NA,NA,NA,NA,NA,69.98,METAR KLGA 150300Z 31009KT 15SM FEW250 21/08 A2998 RMK VALGA6/7 SLP152 8/001 T02110083 51014,NA
LGA,1973-06-15T04:00:00Z,-73.8803,40.7794,69.98,46.94,43.75,320,10,NA,29.99,1015.6,15,NA,BKN,   ,   ,   ,25000,NA,NA,NA,NA,NA,NA,NA,NA,NA,NA,69.98,METAR KLGA 150400Z 32010KT 15SM BKN250 21/08 A2999 RMK LGA6/7 SLP156 T02110083,NA
LGA,1973-06-15T05:00:00Z,-73.8803,40.7794,68.9,45.86,43.58,330,10,NA,29.98,1015.2,15,NA,SCT,BKN,   ,   ,14000,22000,NA,NA,NA,NA,NA,NA,NA,NA,NA,68.9,METAR KLGA 150500Z 33010KT 15SM SCT140 BKN220 20/08 A2998 RMK LGA6/7 SLP152 T02050077,NA
LGA,1973-06-15T06:00:00Z,-73.8803,40.7794,69.08,46.04,43.61,310,13,NA,29.98,1015.2,15,NA,SCT,BKN,   ,   ,14000,22000,NA,NA,NA,NA,NA,NA,NA,NA,NA,69.08,METAR KLGA 150600Z 31013KT 15SM SCT140 BKN220 21/08 A2998 RMK 46/3113/998LGA6/7 SLP152 T02060078,NA
LGA,1973-06-15T07:00:00Z,-73.8803,40.7794,68,45.86,44.95,300,11,NA,29.98,1015.2,15,NA,BKN,   ,   ,   ,22000,NA,NA,NA,NA,NA,NA,NA,NA,NA,NA,68,METAR KLGA 150700Z 30011KT 15SM BKN220 20/08 A2998 RMK LGA6/7 SLP152 T02000077,NA
LGA,1973-06-15T08:00:00Z,-73.8803,40.7794,66.92,46.94,48.6,300,13,NA,30,1015.9,15,NA,SCT,   ,   ,   ,25000,NA,NA,NA,NA,NA,NA,NA,NA,NA,NA,66.92,METAR KLGA 150800Z 30013KT 15SM SCT250 19/08 A3000 RMK LGA6/7 SLP159 T01940083,NA
LGA,1973-06-15T09:00:00Z,-73.8803,40.7794,64.94,46.94,52.06,330,10,NA,30.01,1016.3,15,NA,SCT,BKN,   ,   ,10000,25000,NA,NA,NA,NA,NA,NA,NA,NA,NA,64.94,METAR KLGA 150900Z 33010KT 15SM SCT100 BKN250 18/08 A3001 RMK / 1078LGA6/7 SLP163 T01830083 53010,NA
LGA,1973-06-15T10:00:00Z,-73.8803,40.7794,63.86,47.84,55.93,290,8,NA,30.01,1016.3,15,NA,SCT,BKN,   ,   ,12000,25000,NA,NA,NA,NA,NA,NA,NA,NA,NA,63.86,METAR KLGA 151000Z 29008KT 15SM SCT120 BKN250 18/09 A3001 RMK LGA6/7 SLP163 T01770088,NA
LGA,1973-06-15T11:00:00Z,-73.8803,40.7794,64.94,47.84,53.86,330,9,NA,30.02,1016.6,15,NA,SCT,   ,   ,   ,25000,NA,NA,NA,NA,NA,NA,NA,NA,NA,NA,64.94,METAR KLGA 151100Z 33009KT 15SM SCT250 18/09 A3002 RMK VALGA6/7 SLP166 T01830088,NA
LGA,1973-06-15T12:00:00Z,-73.8803,40.7794,66.02,46.94,50.14,330,10,NA,30.03,1016.9,15,NA,FEW,   ,   ,   ,25000,NA,NA,NA,NA,NA,NA,NA,NA,NA,NA,66.02,METAR KLGA 151200Z 33010KT 15SM FEW250 19/08 A3003 RMK VALGA6/7 SLP169 T01890083,NA
LGA,1973-06-15T13:00:00Z,-73.8803,40.7794,66.92,46.94,48.6,320,8,NA,30.04,1017.3,15,NA,SCT,   ,   ,   ,25000,NA,NA,NA,NA,NA,NA,NA,NA,NA,NA,66.92,METAR KLGA 151300Z 32008KT 15SM SCT250 19/08 A3004 RMK VALGA6/7 SLP173 T01940083,NA
LGA,1973-06-15T14:00:00Z,-73.8803,40.7794,70.88,45.86,40.73,330,5,NA,30.04,1017.3,15,NA,SCT,   ,   ,   ,25000,NA,NA,NA,NA,NA,NA,NA,NA,NA,NA,69.58,METAR KLGA 151400Z 33005KT 15SM SCT250 22/08 A3004 RMK VALGA 13-31 CLS6/7 SLP173 T02160077 560/8,NA
LGA,1973-06-15T15:00:00Z,-73.8803,40.7794,73.04,46.94,39.44,320,10,NA,30.04,1017.3,15,NA,SCT,SCT,   ,   ,15000,25000,NA,NA,NA,NA,NA,NA,NA,NA,NA,71.9,METAR KLGA 151500Z 32010KT 15SM SCT150 SCT250 23/08 A3004 RMK VALGA6/7 6/8 SLP173 8/031 T02280083 51003,NA
LGA,1973-06-15T16:00:00Z,-73.8803,40.7794,73.94,48.92,41.21,300,10,NA,30.04,1017.3,15,NA,SCT,   ,   ,   ,30000,NA,NA,NA,NA,NA,NA,NA,NA,NA,NA,73.94,METAR KLGA 151600Z 30010KT 15SM SCT300 23/09 A3004 RMK FEW AC/VALGA6/7 SLP173 T02330094 560/8,NA
LGA,1973-06-15T17:00:00Z,-73.8803,40.7794,74.84,50.9,43.05,320,12,NA,30.04,1017.3,15,NA,SCT,SCT,   ,   ,15000,25000,NA,NA,NA,NA,NA,NA,NA,NA,NA,74.84,METAR KLGA 151700Z 32012KT 15SM SCT150 SCT250 24/11 A3004 RMK FEW CU/VALGA C6/86/7 SLP173 T02380105,NA
LGA,1973-06-15T18:00:00Z,-73.8803,40.7794,75.92,51.08,41.8,330,13,NA,30.02,1016.6,15,NA,SCT,FEW,   ,   ,4500,25000,NA,NA,NA,NA,NA,NA,NA,NA,NA,75.92,METAR KLGA 151800Z 33013KT 15SM SCT045 FEW250 24/11 A3002 RMK VALGA6/7 SLP166 T02440106,NA
LGA,1973-06-15T19:00:00Z,-73.8803,40.7794,77.9,50.9,38.88,310,5,NA,30.01,1016.3,15,NA,SCT,SCT,   ,   ,4500,25000,NA,NA,NA,NA,NA,NA,NA,NA,NA,77.9,METAR KLGA 151900Z 31005KT 15SM SCT045 SCT250 25/11 A3001 RMK SLP163 T02550105,NA
LGA,1973-06-15T20:00:00Z,-73.8803,40.7794,78.98,52.88,40.37,330,6,NA,30.01,1016.3,15,NA,SCT,SCT,BKN,   ,4500,12000,25000,NA,NA,NA,NA,NA,NA,NA,NA,78.98,METAR KLGA 152000Z 33006KT 15SM SCT045 SCT120 BKN250 26/12 A3001 RMK VALGA6/7 SLP163 T02610116,NA
LGA,1973-06-15T21:00:00Z,-73.8803,40.7794,78.98,51.08,37.78,260,9,NA,29.99,1015.6,15,NA,SCT,SCT,BKN,   ,4500,10000,25000,NA,NA,NA,NA,NA,NA,NA,NA,78.98,METAR KLGA 152100Z 26009KT 15SM SCT045 SCT100 BKN250 26/11 A2999 RMK / VALGA6/7 SLP156 8/141 T02610106 58010,NA
LGA,1973-06-15T22:00:00Z,-73.8803,40.7794,78.98,50.9,37.52,270,10,NA,29.98,1015.2,15,NA,SCT,BKN,BKN,   ,4500,10000,25000,NA,NA,NA,NA,NA,NA,NA,NA,78.98,METAR KLGA 152200Z 27010KT 15SM SCT045 BKN100 BKN250 26/11 A2998 RMK VALGA6/7 SLP152 T02610105,NA
LGA,1973-06-15T23:00:00Z,-73.8803,40.7794,75.92,47.84,37.04,160,10,NA,29.98,1015.2,15,NA,SCT,BKN,   ,   ,5000,25000,NA,NA,NA,NA,NA,NA,NA,NA,NA,75.92,METAR KLGA 152300Z 16010KT 15SM SCT050 BKN250 24/09 A2998 RMK VALGA6/7 SLP152 T02440088,NA
LGA,1973-06-16T00:00:00Z,-73.8803,40.7794,75.02,48.92,39.75,140,10,NA,29.98,1015.2,15,NA,SCT,SCT,   ,   ,5000,25000,NA,NA,NA,NA,NA,NA,NA,NA,NA,75.02,METAR KLGA 160000Z 14010KT 15SM SCT050 SCT250 24/09 A2998 RMK LGA6/7 SLP152 T02390094,NA
LGA,1973-06-16T01:00:00Z,-73.8803,40.7794,70.88,53.96,55.07,150,8,NA,29.98,1015.2,10,NA,SCT,SCT,   ,   ,5000,25000,NA,NA,NA,NA,NA,NA,NA,NA,NA,70.88,METAR KLGA 160100Z 15008KT 10SM SCT050 SCT250 22/12 A2998 RMK LGA6/7 SLP152 T02160122,NA
LGA,1973-06-16T02:00:00Z,-73.8803,40.7794,69.98,55.94,61.02,130,7,NA,29.98,1015.2,10,NA,BKN,   ,   ,   ,10000,NA,NA,NA,NA,NA,NA,NA,NA,NA,NA,69.98,METAR KLGA 160200Z 13007KT 10SM BKN100 21/13 A2998 RMK LGA6/7 SLP152 T02110133,NA
LGA,1973-06-16T03:00:00Z,-73.8803,40.7794,69.98,57.02,63.45,130,7,NA,29.98,1015.2,15,NA,SCT,SCT,   ,   ,10000,25000,NA,NA,NA,NA,NA,NA,NA,NA,NA,69.98,METAR KLGA 160300Z 13007KT 15SM SCT100 SCT250 21/14 A2998 RMK 1071LGA6/7 SLP152 T02110139 54000,NA
LGA,1973-06-16T04:00:00Z,-73.8803,40.7794,70.88,51.98,51.2,NA,NA,NA,29.97,1014.9,15,NA,SCT,   ,   ,   ,25000,NA,NA,NA,NA,NA,NA,NA,NA,NA,NA,70.88,METAR KLGA 160400Z /////KT 15SM SCT250 22/11 A2997 RMK 2109/997LGA6/7 SLP149 T02160111 560/9,NA
LGA,1973-06-16T05:00:00Z,-73.8803,40.7794,70.88,50.9,49.2,220,14,NA,29.97,1014.9,10,NA,SCT,   ,   ,   ,25000,NA,NA,NA,NA,NA,NA,NA,NA,NA,NA,70.88,METAR KLGA 160500Z 22014KT 10SM SCT250 22/11 A2997 RMK LGA6/7 SLP149 T02160105 560/9,NA
LGA,1973-06-16T06:00:00Z,-73.8803,40.7794,69.98,50,49.07,230,12,NA,29.95,1014.2,10,NA,SCT,   ,   ,   ,16000,NA,NA,NA,NA,NA,NA,NA,NA,NA,NA,69.98,METAR KLGA 160600Z 23012KT 10SM SCT160 21/10 A2995 RMK LGA6/7 SLP142 T02110100 560/9,NA
LGA,1973-06-16T07:00:00Z,-73.8803,40.7794,69.98,48.92,47.13,220,15,NA,29.94,1013.9,10,NA,BKN,   ,   ,   ,10000,NA,NA,NA,NA,NA,NA,NA,NA,NA,NA,69.98,METAR KLGA 160700Z 22015KT 10SM BKN100 21/09 A2994 RMK LGA6/7 SLP139 T02110094 560/9,NA
LGA,1973-06-16T08:00:00Z,-73.8803,40.7794,69.98,50.9,50.73,240,16,NA,29.91,1012.9,10,NA,SCT,   ,   ,   ,10000,NA,NA,NA,NA,NA,NA,NA,NA,NA,NA,69.98,METAR KLGA 160800Z 24016KT 10SM SCT100 21/11 A2991 RMK LGA6/7 SLP129 T02110105 560/9,NA
LGA,1973-06-16T09:00:00Z,-73.8803,40.7794,68,53.06,58.8,240,12,NA,29.9,1012.5,10,NA,SCT,SCT,   ,   ,12000,25000,NA,NA,NA,NA,NA,NA,NA,NA,NA,68,METAR KLGA 160900Z 24012KT 10SM SCT120 SCT250 20/12 A2990 RMK / 7 1071LGA6/7 SLP125 T02000117 560/9,NA
LGA,1973-06-16T10:00:00Z,-73.8803,40.7794,68,53.96,60.77,200,9,NA,29.89,1012.2,9,NA,SCT,SCT,BKN,   ,8000,14000,25000,NA,NA,NA,NA,NA,NA,NA,NA,68,METAR KLGA 161000Z 20009KT 9SM SCT080 SCT140 BKN250 20/12 A2989 RMK LGA6/7 SLP122 T02000122 560/9,NA
LGA,1973-06-16T12:00:00Z,-73.8803,40.7794,71.06,53.06,52.95,230,12,NA,29.87,1011.5,10,NA,SCT,SCT,SCT,   ,5000,12000,25000,NA,NA,NA,NA,NA,NA,NA,NA,71.06,METAR KLGA 161200Z 23012KT 10SM SCT050 SCT120 SCT250 22/12 A2987 RMK VALGA6/7 SLP115 T02170117,NA
LGA,1973-06-16T13:00:00Z,-73.8803,40.7794,72.86,56.84,57.17,220,13,NA,29.86,1011.2,9,NA,SCT,SCT,   ,   ,12000,25000,NA,NA,NA,NA,NA,NA,NA,NA,NA,72.86,METAR KLGA 161300Z 22013KT 9SM SCT120 SCT250 23/14 A2986 RMK VALGA6/7 SLP112 T02270138,NA
LGA,1973-06-16T14:00:00Z,-73.8803,40.7794,73.94,60.98,63.94,230,14,NA,29.84,1010.5,10,NA,BKN,OVC,   ,   ,5000,25000,NA,NA,NA,NA,NA,NA,NA,NA,NA,73.94,METAR KLGA 161400Z 23014KT 10SM BKN050 OVC250 23/16 A2984 RMK VALGA6/7 SLP105 T02330161,NA
LGA,1973-06-16T15:00:00Z,-73.8803,40.7794,75.02,62.06,64.07,220,14,NA,29.82,1009.8,8,NA,SCT,BKN,   ,   ,4000,12000,NA,NA,NA,NA,NA,NA,NA,NA,NA,75.02,METAR KLGA 161500Z 22014KT 8SM SCT040 BKN120 24/17 A2982 RMK / 15070 VALGA6/7 SLP098 T02390167 57017,NA
LGA,1973-06-16T16:00:00Z,-73.8803,40.7794,77,63.86,63.9,230,17,NA,29.79,1008.8,6,24,SCT,BKN,BKN,   ,2600,4000,12000,NA,DZ,NA,NA,NA,NA,NA,NA,77,METAR KLGA 161600Z 23017G24KT 6SM DZ SCT026 BKN040 BKN120 25/18 A2979 RMK LGA6/7 SLP088 T02500177,NA
LGA,1973-06-16T17:00:00Z,-73.8803,40.7794,77,63.86,63.9,240,12,NA,29.78,1008.5,6,18,SCT,BKN,OVC,   ,2500,4000,12000,NA,-SHRA DZ,NA,NA,NA,NA,NA,NA,77,METAR KLGA 161700Z 24012G18KT 6SM -SHRA DZ SCT025 BKN040 OVC120 25/18 A2978 RMK RB46LGA6/7 SLP085 T02500177,NA
LGA,1973-06-16T18:00:00Z,-73.8803,40.7794,75.02,66.92,75.93,230,12,0.03,29.76,1007.8,4,NA,SCT,OVC,   ,   ,3000,5000,NA,NA,-SHRA DZ,NA,NA,NA,NA,NA,NA,75.02,METAR KLGA 161800Z 23012KT 4SM -SHRA DZ SCT030 OVC050 24/19 A2976 RMK LGA6/7 SLP078 P0003 60001 T02390194,NA
LGA,1973-06-16T18:02:00Z,-73.8803,40.7794,NA,NA,NA,240,14,NA,29.77,NA,2.5,NA,SCT,OVC,NA,NA,2500,4900,NA,NA,NA,NA,NA,NA,NA,NA,NA,NA,KLGA 161802Z AUTO 24014KT 2 1/2SM SCT025 OVC049 A2977 RMK IEM_DS3505,NA
LGA,1973-06-16T19:00:00Z,-73.8803,40.7794,68.9,61.88,78.32,280,10,0.09,29.75,1007.5,3,NA,SCT,OVC,   ,   ,2000,5000,NA,NA,-SHRA DZ,NA,NA,NA,NA,NA,NA,68.9,METAR KLGA 161900Z 28010KT 3SM -SHRA DZ SCT020 OVC050 20/17 A2975 RMK LGA6/7 SLP075 P0009 T02050166,NA
LGA,1973-06-16T20:00:00Z,-73.8803,40.7794,70.88,64.94,81.5,140,5,0.01,29.72,1006.4,3,NA,SCT,OVC,   ,   ,2000,5000,NA,NA,-SHRA DZ,NA,NA,NA,NA,NA,NA,70.88,METAR KLGA 162000Z 14005KT 3SM -SHRA DZ SCT020 OVC050 22/18 A2972 RMK VALGA6/7 SLP064 P0001 T02160183,NA
LGA,1973-06-16T21:00:00Z,-73.8803,40.7794,73.04,68,84.22,190,6,NA,29.7,1005.8,2.5,NA,BKN,OVC,   ,   ,2300,5000,NA,NA,-SHRA DZ,NA,NA,NA,NA,NA,NA,73.04,METAR KLGA 162100Z 19006KT 21/2SM -SHRA DZ BKN023 OVC050 23/20 A2970 RMK / 15//L SLP058 T02280200 57020,NA
LGA,1973-06-16T22:00:00Z,-73.8803,40.7794,71.96,68,87.35,160,8,NA,29.68,1005.1,2.5,NA,SCT,BKN,OVC,   ,1000,2300,5000,NA,-SHRA DZ,NA,NA,NA,NA,NA,NA,72.96,METAR KLGA 162200Z 16008KT 21/2SM -SHRA DZ SCT010 BKN023 OVC050 22/20 A2968 RMK LGA6/7 SLP051 T02220200,NA
LGA,1973-06-16T23:00:00Z,-73.8803,40.7794,72,68,87.24,230,11.04,NA,29.67,NA,2,NA,   ,   ,   ,   ,NA,NA,NA,NA,NA,NA,NA,NA,NA,NA,NA,73,METAR KLGA 162300Z 23011KT 2SM FGDZ OVC/// SCT010 SCT020 OVC060 22/20 A2967 RMK / FH2 RE30L SLP047 T02220200,NA
LGA,1973-06-16T23:09:00Z,-73.8803,40.7794,NA,NA,NA,230,8,NA,29.66,NA,3,NA,SCT,SCT,OVC,NA,1000,2000,5900,NA,NA,NA,NA,NA,NA,NA,NA,NA,KLGA 162309Z AUTO 23008KT 3SM SCT010 SCT020 OVC059 A2966 RMK IEM_DS3505,NA
LGA,1973-06-17T00:00:00Z,-73.8803,40.7794,73,66.9,81.2,250,9.04,NA,29.66,NA,3,NA,   ,   ,   ,   ,NA,NA,NA,NA,NA,NA,NA,NA,NA,NA,NA,73,METAR KLGA 170000Z 24009KT 3SM FGDZ SCT010 BKN689 BKN/// 23/19 A2966 RMK LGA6/7 SLP044 60012 T02280194,NA
LGA,1973-06-17T01:00:00Z,-73.8803,40.7794,72.9,66.9,81.47,220,8,NA,29.66,NA,10.5,NA,   ,   ,   ,   ,NA,NA,NA,NA,NA,NA,NA,NA,NA,NA,NA,72.9,METAR KLGA 170100Z 22008KT 21/2SM FGDZ SCT014 BKN018 OVC070 23/19 A2966 RMK LGA6/7 SLP044 T02270194,NA
LGA,1973-06-17T01:13:00Z,-73.8803,40.7794,NA,NA,NA,230,7,NA,29.66,NA,3,NA,BKN,OVC,NA,NA,1900,6900,NA,NA,NA,NA,NA,NA,NA,NA,NA,NA,KLGA 170113Z AUTO 23007KT 3SM BKN019 OVC069 A2966 RMK IEM_DS3505,NA
LGA,1973-06-17T02:00:00Z,-73.8803,40.7794,72.9,66.9,81.47,220,8,NA,29.65,NA,3,NA,   ,   ,   ,   ,NA,NA,NA,NA,NA,NA,NA,NA,NA,NA,NA,72.9,METAR KLGA 170200Z 22008KT 3SM FUDZ BKN022 BKN070 23/19 A2965 RMK LGA6/7 SLP041 T02270194,NA
LGA,1973-06-17T03:00:00Z,-73.8803,40.7794,73,68,84.34,230,9.04,NA,29.64,NA,3,NA,   ,   ,   ,   ,NA,NA,NA,NA,NA,NA,NA,NA,NA,NA,NA,73,METAR KLGA 170300Z 23009KT 3SM FUDZ BKN030 BKN080 23/20 A2964 RMK / VALGA6/7 SLP037 8/540 T02280200 58007,NA
LGA,1973-06-17T03:31:00Z,-73.8803,40.7794,NA,NA,NA,270,10,NA,29.64,NA,4,NA,BKN,BKN,NA,NA,3400,9800,NA,NA,NA,NA,NA,NA,NA,NA,NA,NA,KLGA 170331Z AUTO 27010KT 4SM BKN034 BKN098 A2964 RMK IEM_DS3505,NA
LGA,1973-06-17T04:00:00Z,-73.8803,40.7794,72.9,66.9,81.47,270,11.04,NA,29.64,NA,4,NA,   ,   ,   ,   ,NA,NA,NA,NA,NA,NA,NA,NA,NA,NA,NA,72.9,METAR KLGA 170400Z 26011KT 4SM FUDZ SCT035 BKN100 23/19 A2964 RMK LGA6/7 6/10 SLP037 T02270194,NA
LGA,1973-06-17T04:20:00Z,-73.8803,40.7794,NA,NA,NA,260,9,NA,29.64,NA,4,NA,BKN,OVC,NA,NA,2900,9800,NA,NA,NA,NA,NA,NA,NA,NA,NA,NA,KLGA 170420Z AUTO 26009KT 4SM BKN029 OVC098 A2964 RMK IEM_DS3505,NA
LGA,1973-06-17T05:00:00Z,-73.8803,40.7794,72,65.8,80.84,290,9.04,NA,29.64,NA,5,NA,   ,   ,   ,   ,NA,NA,NA,NA,NA,NA,NA,NA,NA,NA,NA,72,METAR KLGA 170500Z 29009KT 5SM FUDZ BKN018 BKN033 OVC070 22/19 A2964 RMK VALGA6/7 6/10 SLP037 T02220188,NA
LGA,1973-06-17T06:00:00Z,-73.8803,40.7794,71.1,63,75.58,360,18,NA,29.67,NA,6,NA,   ,   ,   ,   ,NA,NA,NA,NA,NA,NA,NA,NA,NA,NA,NA,71.1,METAR KLGA 170600Z 01018KT 6SM FUDZ BKN018 BKN026 OVC037 22/17 A2967 RMK VALGA6/7 6/10 SLP047 T02170172,NA
LGA,1973-06-17T07:00:00Z,-73.8803,40.7794,63.86,55.94,75.41,10,14,NA,29.7,1005.8,15,NA,BKN,OVC,   ,   ,2400,9000,NA,NA,NA,NA,NA,NA,NA,NA,NA,63.86,METAR KLGA 170700Z 01014KT 15SM BKN024 OVC090 18/13 A2970 RMK LGA6/7 6/10 SLP058 T01770133,NA
LGA,1973-06-17T07:18:00Z,-73.8803,40.7794,NA,NA,NA,10,14,NA,29.71,NA,15,NA,BKN,OVC,NA,NA,3000,8900,NA,NA,NA,NA,NA,NA,NA,NA,NA,NA,KLGA 170718Z AUTO 01014KT 15SM BKN030 OVC089 A2971 RMK IEM_DS3505,NA
LGA,1973-06-17T08:00:00Z,-73.8803,40.7794,61.88,51.98,69.95,10,16,NA,29.73,1006.8,15,NA,OVC,   ,   ,   ,3000,NA,NA,NA,NA,NA,NA,NA,NA,NA,NA,61.88,METAR KLGA 170800Z 01016KT 15SM OVC030 17/11 A2973 RMK LGA6/7 6/10 SLP068 T01660111,NA
LGA,1973-06-17T09:00:00Z,-73.8803,40.7794,60.08,48.92,66.56,30,17,NA,29.76,1007.8,15,NA,SCT,SCT,BKN,   ,3000,9000,15000,NA,NA,NA,NA,NA,NA,NA,NA,60.08,METAR KLGA 170900Z 03017KT 15SM SCT030 SCT090 BKN150 16/09 A2976 RMK VALGA6/7 6/10 SLP078 8/530 T01560094 52030,NA
LGA,1973-06-17T10:00:00Z,-73.8803,40.7794,59,46.94,64.22,30,17,NA,29.81,1009.5,15,NA,SCT,SCT,BKN,   ,3000,14000,25000,NA,NA,NA,NA,NA,NA,NA,NA,59,METAR KLGA 171000Z 03017KT 15SM SCT030 SCT140 BKN250 15/08 A2981 RMK VALGA6/7 6/10 SLP095 T01500083,NA
LGA,1973-06-17T11:00:00Z,-73.8803,40.7794,59,45.86,61.65,30,18,NA,29.84,1010.5,15,NA,SCT,SCT,BKN,   ,3000,9000,25000,NA,NA,NA,NA,NA,NA,NA,NA,59,METAR KLGA 171100Z 03018KT 15SM SCT030 SCT090 BKN250 15/08 A2984 RMK VALGA C6/106/7 Z SLP105 T01500077,NA
LGA,1973-06-17T12:00:00Z,-73.8803,40.7794,60.08,46.94,61.79,30,20,NA,29.85,1010.8,15,NA,SCT,BKN,   ,   ,3500,25000,NA,NA,NA,NA,NA,NA,NA,NA,NA,60.08,METAR KLGA 171200Z 03020KT 15SM SCT035 BKN250 16/08 A2985 RMK VALGA C6/7 SLP108 70012 T01560083,NA
LGA,1973-06-17T13:00:00Z,-73.8803,40.7794,62.96,47.84,57.72,30,15,NA,29.89,1012.2,15,NA,SCT,BKN,   ,   ,3500,25000,NA,NA,NA,NA,NA,NA,NA,NA,NA,62.96,METAR KLGA 171300Z 03015KT 15SM SCT035 BKN250 17/09 A2989 RMK VA SLP122 T01720088,NA
LGA,1973-06-17T14:00:00Z,-73.8803,40.7794,63.86,46.94,54.07,30,14,NA,29.9,1012.5,15,NA,SCT,SCT,   ,   ,3500,25000,NA,NA,NA,NA,NA,NA,NA,NA,NA,63.86,METAR KLGA 171400Z 03014KT 15SM SCT035 SCT250 18/08 A2990 RMK VA SLP125 T01770083,NA
LGA,1973-06-17T15:00:00Z,-73.8803,40.7794,64.94,48.92,56.08,30,16,NA,29.92,1013.2,15,NA,BKN,   ,   ,   ,3600,NA,NA,NA,NA,NA,NA,NA,NA,NA,NA,64.94,METAR KLGA 171500Z 03016KT 15SM BKN036 18/09 A2992 RMK / VA SLP132 8/500 T01830094 52024,NA
LGA,1973-06-17T16:00:00Z,-73.8803,40.7794,64.94,50,58.39,30,11,NA,29.93,1013.5,15,NA,BKN,BKN,   ,   ,3500,25000,NA,NA,NA,NA,NA,NA,NA,NA,NA,64.94,METAR KLGA 171600Z 03011KT 15SM BKN035 BKN250 18/10 A2993 RMK VA SLP135 T01830100,NA
LGA,1973-06-17T17:00:00Z,-73.8803,40.7794,65.84,50,56.58,30,9,NA,29.95,1014.2,15,NA,SCT,BKN,   ,   ,3500,25000,NA,NA,NA,NA,NA,NA,NA,NA,NA,65.84,METAR KLGA 171700Z 03009KT 15SM SCT035 BKN250 19/10 A2995 RMK VA SLP142 T01880100,NA
LGA,1973-06-17T18:00:00Z,-73.8803,40.7794,68,51.08,54.66,70,8,NA,29.95,1014.2,15,NA,SCT,BKN,   ,   ,3500,25000,NA,NA,NA,NA,NA,NA,NA,NA,NA,68,METAR KLGA 171800Z 07008KT 15SM SCT035 BKN250 20/11 A2995 RMK VA SLP142 T02000106,NA
LGA,1973-06-17T19:00:00Z,-73.8803,40.7794,68.9,50,50.91,60,8,NA,29.94,1013.9,15,NA,SCT,SCT,   ,   ,3500,25000,NA,NA,NA,NA,NA,NA,NA,NA,NA,68.9,METAR KLGA 171900Z 06008KT 15SM SCT035 SCT250 20/10 A2994 RMK VA SLP139 T02050100,NA
LGA,1973-06-17T20:00:00Z,-73.8803,40.7794,69.98,50.9,50.73,70,8,NA,29.94,1013.9,15,NA,SCT,SCT,SCT,   ,4000,12000,25000,NA,NA,NA,NA,NA,NA,NA,NA,69.98,METAR KLGA 172000Z 07008KT 15SM SCT040 SCT120 SCT250 21/11 A2994 RMK VA SLP139 T02110105,NA
LGA,1973-06-17T21:00:00Z,-73.8803,40.7794,68,53.06,58.8,170,13,NA,29.94,1013.9,15,NA,SCT,SCT,SCT,   ,4000,12000,25000,NA,NA,NA,NA,NA,NA,NA,NA,68,METAR KLGA 172100Z 17013KT 15SM SCT040 SCT120 SCT250 20/12 A2994 RMK / VA SLP139 8/131 T02000117 56002,NA
LGA,1973-06-17T22:00:00Z,-73.8803,40.7794,63.86,50,60.63,180,13,NA,29.95,1014.2,15,NA,SCT,   ,   ,   ,10000,NA,NA,NA,NA,NA,NA,NA,NA,NA,NA,63.86,METAR KLGA 172200Z 18013KT 15SM SCT100 18/10 A2995 RMK VA SLP142 T01770100,NA
LGA,1973-06-17T23:00:00Z,-73.8803,40.7794,63.86,50,60.63,190,16,NA,29.96,1014.6,15,NA,SCT,   ,   ,   ,12000,NA,NA,NA,NA,NA,NA,NA,NA,NA,NA,63.86,METAR KLGA 172300Z 19016KT 15SM SCT120 18/10 A2996 RMK VA SLP146 T01770100,NA
LGA,1973-06-18T00:00:00Z,-73.8803,40.7794,62.96,50,62.58,160,12,NA,29.97,1014.9,15,NA,SCT,   ,   ,   ,12000,NA,NA,NA,NA,NA,NA,NA,NA,NA,NA,62.96,METAR KLGA 180000Z 16012KT 15SM SCT120 17/10 A2997 RMK VA SLP149 T01720100,NA
LGA,1973-06-18T01:00:00Z,-73.8803,40.7794,60.98,48.92,64.46,210,15,NA,29.99,1015.6,15,NA,SCT,   ,   ,   ,12000,NA,NA,NA,NA,NA,NA,NA,NA,NA,NA,60.98,METAR KLGA 180100Z 21015KT 15SM SCT120 16/09 A2999 RMK VA SLP156 T01610094,NA
LGA,1973-06-18T02:00:00Z,-73.8803,40.7794,59.9,50,69.74,180,10,NA,30.01,1016.3,15,NA,SCT,   ,   ,   ,12000,NA,NA,NA,NA,NA,NA,NA,NA,NA,NA,59.9,METAR KLGA 180200Z 18010KT 15SM SCT120 16/10 A3001 RMK VA SLP163 T01550100,NA
LGA,1973-06-18T03:00:00Z,-73.8803,40.7794,60.98,51.08,69.86,190,11,NA,30.02,1016.6,15,NA,SCT,   ,   ,   ,12000,NA,NA,NA,NA,NA,NA,NA,NA,NA,NA,60.98,METAR KLGA 180300Z 19011KT 15SM SCT120 16/11 A3002 RMK VA SLP166 8/050 T01610106 51017,NA
LGA,1973-06-18T04:00:00Z,-73.8803,40.7794,60.98,50,67.11,180,12,NA,30.03,1016.9,15,NA,OVC,   ,   ,   ,11000,NA,NA,NA,NA,NA,NA,NA,NA,NA,NA,60.98,METAR KLGA 180400Z 18012KT 15SM OVC110 16/10 A3003 RMK VA SLP169 T01610100,NA
LGA,1973-06-18T04:13:00Z,-73.8803,40.7794,NA,NA,NA,190,14,NA,30.03,NA,15,NA,BKN,BKN,NA,NA,2200,10800,NA,NA,NA,NA,NA,NA,NA,NA,NA,NA,KLGA 180413Z AUTO 19014KT 15SM BKN022 BKN108 A3003 RMK IEM_DS3505,NA
LGA,1973-06-18T05:00:00Z,-73.8803,40.7794,60.98,50,67.11,200,8,NA,30.03,1016.9,15,NA,BKN,OVC,   ,   ,2200,11000,NA,NA,NA,NA,NA,NA,NA,NA,NA,60.98,METAR KLGA 180500Z 20008KT 15SM BKN022 OVC110 16/10 A3003 RMK VA SLP169 T01610100,NA
LGA,1973-06-18T06:00:00Z,-73.8803,40.7794,60.98,51.08,69.86,170,9,NA,30.04,1017.3,15,NA,BKN,OVC,   ,   ,2200,8000,NA,NA,NA,NA,NA,NA,NA,NA,NA,60.98,METAR KLGA 180600Z 17009KT 15SM BKN022 OVC080 16/11 A3004 RMK VA SLP173 T01610106,NA
LGA,1973-06-18T07:00:00Z,-73.8803,40.7794,59.9,51.98,75.04,180,10,NA,30.04,1017.3,15,NA,SCT,OVC,   ,   ,2200,8000,NA,NA,NA,NA,NA,NA,NA,NA,NA,59.9,METAR KLGA 180700Z 18010KT 15SM SCT022 OVC080 16/11 A3004 RMK RB05E42/VA SLP173 T01550111,NA
LGA,1973-06-18T08:00:00Z,-73.8803,40.7794,59.9,51.98,75.04,160,7,NA,30.03,1016.9,15,NA,SCT,OVC,   ,   ,2200,7000,NA,NA,NA,NA,NA,NA,NA,NA,NA,59.9,METAR KLGA 180800Z 16007KT 15SM SCT022 OVC070 16/11 A3003 RMK VA SLP169 T01550111,NA
LGA,1973-06-18T09:00:00Z,-73.8803,40.7794,60.98,51.98,72.22,160,9,NA,30.04,1017.3,15,NA,BKN,OVC,   ,   ,2300,7000,NA,NA,NA,NA,NA,NA,NA,NA,NA,60.98,METAR KLGA 180900Z 16009KT 15SM BKN023 OVC070 16/11 A3004 RMK / V% / SLP173 8/57/ T01610111 55000,NA
LGA,1973-06-18T10:00:00Z,-73.8803,40.7794,61.88,52.88,72.31,140,9,NA,30.05,1017.6,15,NA,SCT,OVC,   ,   ,2300,7000,NA,NA,NA,NA,NA,NA,NA,NA,NA,61.88,METAR KLGA 181000Z 14009KT 15SM SCT023 OVC070 17/12 A3005 RMK VA SLP176 T01660116,NA
LGA,1973-06-18T11:00:00Z,-73.8803,40.7794,60.98,52.88,74.65,180,7,0.01,30.06,1018,9,NA,SCT,OVC,   ,   ,2300,7000,NA,NA,-SHRA,NA,NA,NA,NA,NA,NA,60.98,METAR KLGA 181100Z 18007KT 9SM -SHRA SCT023 OVC070 16/12 A3006 RMK / RB29 VA SLP180 P0001 T01610116,NA
LGA,1973-06-18T12:00:00Z,-73.8803,40.7794,60.98,55.04,80.78,140,8,0.02,30.05,1017.6,10,NA,SCT,OVC,   ,   ,2300,7000,NA,NA,-SHRA,NA,NA,NA,NA,NA,NA,60.98,METAR KLGA 181200Z 14008KT 10SM -SHRA SCT023 OVC070 16/13 A3005 RMK VA SLP176 P0002 60004 70004 T01610128,NA
LGA,1973-06-18T13:00:00Z,-73.8803,40.7794,60.98,55.94,83.47,80,8,NA,30.06,1018,10,NA,SCT,BKN,OVC,   ,2000,5000,7000,NA,NA,NA,NA,NA,NA,NA,NA,60.98,METAR KLGA 181300Z 08008KT 10SM SCT020 BKN050 OVC070 16/13 A3006 RMK RE06 VA SLP180 T01610133,NA
LGA,1973-06-18T14:00:00Z,-73.8803,40.7794,60.98,54.86,80.26,130,9,NA,30.07,1018.3,10,NA,SCT,OVC,   ,   ,2000,6000,NA,NA,-SHRA,NA,NA,NA,NA,NA,NA,60.98,METAR KLGA 181400Z 13009KT 10SM -SHRA SCT020 OVC060 16/13 A3007 RMK RB20E38B50 VA SLP183 T01610127,NA
LGA,1973-06-18T15:00:00Z,-73.8803,40.7794,62.06,55.94,80.34,90,8,NA,30.08,1018.6,10,NA,SCT,BKN,OVC,   ,1200,5000,8000,NA,-SHRA,NA,NA,NA,NA,NA,NA,62.06,METAR KLGA 181500Z 09008KT 10SM -SHRA SCT012 BKN050 OVC080 17/13 A3008 RMK 157/ VA SLP186 71000 T01670133 52010,NA
LGA,1973-06-18T16:00:00Z,-73.8803,40.7794,63.86,54.86,72.51,120,7,NA,30.07,1018.3,10,NA,SCT,BKN,OVC,   ,1700,2500,5000,NA,NA,NA,NA,NA,NA,NA,NA,63.86,METAR KLGA 181600Z 12007KT 10SM SCT017 BKN025 OVC050 18/13 A3007 RMK RE20VA SLP183 T01770127,NA
LGA,1973-06-18T17:00:00Z,-73.8803,40.7794,62.96,50.9,64.7,160,13,NA,30.07,1018.3,10,NA,SCT,SCT,OVC,   ,2500,3500,4100,NA,NA,NA,NA,NA,NA,NA,NA,62.96,METAR KLGA 181700Z 16013KT 10SM SCT025 SCT035 OVC041 17/11 A3007 RMK VA SLP183 T01720105,NA
LGA,1973-06-18T18:00:00Z,-73.8803,40.7794,62.96,50,62.58,170,12,NA,30.08,1018.6,15,NA,SCT,BKN,OVC,   ,2500,3100,3700,NA,NA,NA,NA,NA,NA,NA,NA,62.96,METAR KLGA 181800Z 17012KT 15SM SCT025 BKN031 OVC037 17/10 A3008 RMK VA SLP186 T01720100,NA
LGA,1973-06-18T19:00:00Z,-73.8803,40.7794,63.86,51.98,65.25,150,6,NA,30.07,1018.3,15,NA,SCT,OVC,   ,   ,2500,4400,NA,NA,NA,NA,NA,NA,NA,NA,NA,63.86,METAR KLGA 181900Z 15006KT 15SM SCT025 OVC044 18/11 A3007 RMK VA SLP183 T01770111,NA
LGA,1973-06-18T20:00:00Z,-73.8803,40.7794,64.94,48.92,56.08,190,10,NA,30.07,1018.3,15,NA,SCT,BKN,OVC,   ,2500,3100,3900,NA,NA,NA,NA,NA,NA,NA,NA,64.94,METAR KLGA 182000Z 19010KT 15SM SCT025 BKN031 OVC039 18/09 A3007 RMK VA SLP183 T01830094,NA
LGA,1973-06-18T21:00:00Z,-73.8803,40.7794,64.04,48.02,55.95,170,8,NA,30.07,1018.3,15,NA,BKN,OVC,   ,   ,2200,4000,NA,NA,NA,NA,NA,NA,NA,NA,NA,64.04,METAR KLGA 182100Z 17008KT 15SM BKN022 OVC040 18/09 A3007 RMK VA/ SLP183 8/5// T01780089 56003,NA
LGA,1973-06-18T22:00:00Z,-73.8803,40.7794,63.86,50,60.63,120,9,NA,30.08,1018.6,15,NA,BKN,OVC,   ,   ,2200,3500,NA,NA,NA,NA,NA,NA,NA,NA,NA,63.86,METAR KLGA 182200Z 12009KT 15SM BKN022 OVC035 18/10 A3008 RMK VA SLP186 T01770100,NA
LGA,1973-06-18T23:00:00Z,-73.8803,40.7794,63.86,50.9,62.69,110,6,NA,30.09,1019,15,NA,BKN,OVC,   ,   ,2300,3500,NA,NA,NA,NA,NA,NA,NA,NA,NA,63.86,METAR KLGA 182300Z 11006KT 15SM BKN023 OVC035 18/11 A3009 RMK VA SLP190 T01770105,NA
LGA,1973-06-19T00:00:00Z,-73.8803,40.7794,64.04,51.98,64.84,140,7,NA,30.1,1019.3,15,NA,BKN,OVC,   ,   ,2000,3000,NA,NA,NA,NA,NA,NA,NA,NA,NA,64.04,METAR KLGA 190000Z 14007KT 15SM BKN020 OVC030 18/11 A3010 RMK VA SLP193 T01780111,NA
LGA,1973-06-19T01:00:00Z,-73.8803,40.7794,63.86,52.88,67.44,130,8,NA,30.1,1019.3,15,NA,BKN,OVC,   ,   ,1800,3000,NA,NA,NA,NA,NA,NA,NA,NA,NA,63.86,METAR KLGA 190100Z 13008KT 15SM BKN018 OVC030 18/12 A3010 RMK VA SLP193 T01770116,NA
LGA,1973-06-19T02:00:00Z,-73.8803,40.7794,63.86,54.86,72.51,100,6,NA,30.11,1019.6,15,NA,BKN,OVC,   ,   ,1700,3000,NA,NA,NA,NA,NA,NA,NA,NA,NA,63.86,METAR KLGA 190200Z 10006KT 15SM BKN017 OVC030 18/13 A3011 RMK SLP196 T01770127,NA
LGA,1973-06-19T03:00:00Z,-73.8803,40.7794,62.96,55.04,75.33,60,5,NA,30.11,1019.6,15,NA,BKN,OVC,   ,   ,1600,2800,NA,NA,NA,NA,NA,NA,NA,NA,NA,62.96,METAR KLGA 190300Z 06005KT 15SM BKN016 OVC028 17/13 A3011 RMK / SLP196 8/5// T01720128 51003,NA
LGA,1973-06-19T04:00:00Z,-73.8803,40.7794,62.96,55.94,77.83,70,5,NA,30.11,1019.6,10,NA,BKN,OVC,   ,   ,1800,2500,NA,NA,NA,NA,NA,NA,NA,NA,NA,62.96,METAR KLGA 190400Z 07005KT 10SM BKN018 OVC025 17/13 A3011 RMK VA SLP196 T01720133,NA
LGA,1973-06-19T05:00:00Z,-73.8803,40.7794,62.96,55.94,77.83,80,5,NA,30.11,1019.6,10,NA,BKN,OVC,   ,   ,1700,2400,NA,NA,NA,NA,NA,NA,NA,NA,NA,62.96,METAR KLGA 190500Z 08005KT 10SM BKN017 OVC024 17/13 A3011 RMK VA SLP196 T01720133,NA
LGA,1973-06-19T06:00:00Z,-73.8803,40.7794,62.96,57.02,80.93,60,5,NA,30.11,1019.6,10,NA,OVC,   ,   ,   ,1600,NA,NA,NA,NA,NA,NA,NA,NA,NA,NA,62.96,METAR KLGA 190600Z 06005KT 10SM OVC016 17/14 A3011 RMK SLP196 T01720139,NA
LGA,1973-06-19T07:00:00Z,-73.8803,40.7794,61.88,56.84,83.53,40,9,NA,30.11,1019.6,10,NA,OVC,   ,   ,   ,1400,NA,NA,NA,NA,NA,NA,NA,NA,NA,NA,61.88,METAR KLGA 190700Z 04009KT 10SM OVC014 17/14 A3011 RMK SLP196 T01660138,NA
LGA,1973-06-19T08:00:00Z,-73.8803,40.7794,61.88,56.84,83.53,50,8,NA,30.11,1019.6,9,NA,OVC,   ,   ,   ,1300,NA,NA,NA,NA,NA,NA,NA,NA,NA,NA,61.88,METAR KLGA 190800Z 05008KT 9SM OVC013 17/14 A3011 RMK VA SLP196 T01660138,NA
LGA,1973-06-19T09:00:00Z,-73.8803,40.7794,62.06,57.02,83.54,60,7,NA,30.12,1020,9,NA,BKN,OVC,   ,   ,1600,4400,NA,NA,NA,NA,NA,NA,NA,NA,NA,62.06,METAR KLGA 190900Z 06007KT 9SM BKN016 OVC044 17/14 A3012 RMK VA SLP200 8/5// T01670139 53003,NA
LGA,1973-06-19T10:00:00Z,-73.8803,40.7794,61.88,57.92,86.84,50,8,NA,30.14,1020.7,8,NA,OVC,   ,   ,   ,1200,NA,NA,NA,NA,NA,NA,NA,NA,NA,NA,61.88,METAR KLGA 191000Z 05008KT 8SM OVC012 17/14 A3014 RMK VA SLP207 T01660144,NA
LGA,1973-06-19T11:00:00Z,-73.8803,40.7794,61.88,57.92,86.84,50,9,NA,30.15,1021,10,NA,OVC,   ,   ,   ,1200,NA,NA,NA,NA,NA,NA,NA,NA,NA,NA,61.88,METAR KLGA 191100Z 05009KT 10SM OVC012 17/14 A3015 RMK VA SLP210 T01660144,NA
LGA,1973-06-19T12:00:00Z,-73.8803,40.7794,62.96,59,86.9,50,8,NA,30.16,1021.3,9,NA,SCT,OVC,   ,   ,1200,1800,NA,NA,NA,NA,NA,NA,NA,NA,NA,62.96,METAR KLGA 191200Z 05008KT 9SM SCT012 OVC018 17/15 A3016 RMK SLP213 T01720150,NA
LGA,1973-06-19T13:00:00Z,-73.8803,40.7794,63.86,59.9,86.94,50,8,NA,30.18,1022,7,NA,SCT,BKN,OVC,   ,1700,2500,3900,NA,-DZ,NA,NA,NA,NA,NA,NA,63.86,METAR KLGA 191300Z 05008KT 7SM -DZ SCT017 BKN025 OVC039 18/16 A3018 RMK LB40 SLP220 T01770155,NA
LGA,1973-06-19T14:00:00Z,-73.8803,40.7794,62.96,60.98,93.25,40,10,0.01,30.19,1022.4,2,NA,BKN,OVC,   ,   ,1200,3500,NA,NA,-DZRA FG,NA,NA,NA,NA,NA,NA,62.96,METAR KLGA 191400Z 04010KT 2SM -DZRA FG BKN012 OVC035 17/16 A3019 RMK SLP224 P0001 T01720161,NA
LGA,1973-06-19T14:28:00Z,-73.8803,40.7794,NA,NA,NA,50,13,NA,30.19,NA,3,NA,SCT,SCT,OVC,NA,400,1200,3300,NA,NA,NA,NA,NA,NA,NA,NA,NA,KLGA 191428Z AUTO 05013KT 3SM SCT004 SCT012 OVC033 A3019 RMK IEM_DS3505,NA
LGA,1973-06-19T15:00:00Z,-73.8803,40.7794,64.9,62.1,90.64,50,12,NA,30.19,NA,5,NA,   ,   ,   ,   ,NA,NA,NA,NA,NA,NA,NA,NA,NA,NA,NA,64.9,METAR KLGA 191500Z 05012KT 5SM FUDZ SCT010 OVC035 18/17 A3019 RMK BINOVC RE40/11001 SLP224 8/5// T01830167,NA
LGA,1973-06-19T16:00:00Z,-73.8803,40.7794,65.84,61.88,87.04,40,10,NA,30.19,1022.4,7,NA,SCT,OVC,   ,   ,1000,4000,NA,NA,NA,NA,NA,NA,NA,NA,NA,65.84,METAR KLGA 191600Z 04010KT 7SM SCT010 OVC040 19/17 A3019 RMK SLP224 T01880166,NA
LGA,1973-06-19T17:00:00Z,-73.8803,40.7794,68,61.88,80.78,50,11,NA,30.19,1022.4,7,NA,SCT,OVC,   ,   ,1000,4000,NA,NA,NA,NA,NA,NA,NA,NA,NA,68,METAR KLGA 191700Z 05011KT 7SM SCT010 OVC040 20/17 A3019 RMK VA SLP224 T02000166,NA
LGA,1973-06-19T18:00:00Z,-73.8803,40.7794,69.98,62.96,78.41,40,10,NA,30.19,1022.4,7,NA,SCT,OVC,   ,   ,1800,4400,NA,NA,NA,NA,NA,NA,NA,NA,NA,69.98,METAR KLGA 191800Z 04010KT 7SM SCT018 OVC044 21/17 A3019 RMK VA SLP224 60001 T02110172,NA
LGA,1973-06-19T19:00:00Z,-73.8803,40.7794,68,60.98,78.25,50,14,NA,30.19,1022.4,8,NA,SCT,BKN,OVC,   ,2300,2900,4400,NA,NA,NA,NA,NA,NA,NA,NA,68,METAR KLGA 191900Z 05014KT 8SM SCT023 BKN029 OVC044 20/16 A3019 RMK VA SLP224 T02000161,NA
LGA,1973-06-19T20:00:00Z,-73.8803,40.7794,69.98,61.88,75.48,50,12,NA,30.18,1022,10,NA,SCT,BKN,OVC,   ,2500,3600,4900,NA,NA,NA,NA,NA,NA,NA,NA,69.98,METAR KLGA 192000Z 05012KT 10SM SCT025 BKN036 OVC049 21/17 A3018 RMK / BINOVC VA SLP220 T02110166,NA
LGA,1973-06-19T20:25:00Z,-73.8803,40.7794,NA,NA,NA,140,13,NA,30.18,NA,10,NA,BKN,BKN,OVC,NA,2300,3500,4800,NA,NA,NA,NA,NA,NA,NA,NA,NA,KLGA 192025Z AUTO 14013KT 10SM BKN023 BKN035 OVC048 A3018 RMK IEM_DS3505,NA
LGA,1973-06-19T21:00:00Z,-73.8803,40.7794,71.96,62.06,71.01,110,7,NA,30.19,1022.4,10,NA,SCT,OVC,   ,   ,2500,5000,NA,NA,NA,NA,NA,NA,NA,NA,NA,71.96,METAR KLGA 192100Z 11007KT 10SM SCT025 OVC050 22/17 A3019 RMK BINOVC NE /502 VA SLP224 8/8// T02220167,NA
LGA,1973-06-19T22:00:00Z,-73.8803,40.7794,69.98,61.88,75.48,50,11,NA,30.17,1021.7,15,NA,SCT,BKN,OVC,   ,2500,5000,8000,NA,NA,NA,NA,NA,NA,NA,NA,69.98,METAR KLGA 192200Z 05011KT 15SM SCT025 BKN050 OVC080 21/17 A3017 RMK BINOVC NE VA SLP217 T02110166,NA
LGA,1973-06-19T23:00:00Z,-73.8803,40.7794,66.92,60.98,81.22,50,9,NA,30.18,1022,15,NA,BKN,BKN,OVC,   ,2500,5000,7000,NA,NA,NA,NA,NA,NA,NA,NA,66.92,METAR KLGA 192300Z 05009KT 15SM BKN025 BKN050 OVC070 19/16 A3018 RMK 25%V BINOVC NE RB00E32 VA Z SLP220 T01940161,NA
LGA,1973-06-20T00:00:00Z,-73.8803,40.7794,68,62.06,81.29,40,9,NA,30.18,1022,15,NA,SCT,BKN,OVC,   ,2500,5000,7000,NA,NA,NA,NA,NA,NA,NA,NA,68,METAR KLGA 200000Z 04009KT 15SM SCT025 BKN050 OVC070 20/17 A3018 RMK BINOVC SLP220 T02000167,NA
LGA,1973-06-20T01:00:00Z,-73.8803,40.7794,68,61.88,80.78,50,7,NA,30.17,1021.7,10,NA,SCT,BKN,   ,   ,5000,6000,NA,NA,NA,NA,NA,NA,NA,NA,NA,68,METAR KLGA 200100Z 05007KT 10SM SCT050 BKN060 20/17 A3017 RMK SLP217 T02000166,NA
LGA,1973-06-20T02:00:00Z,-73.8803,40.7794,65.84,60.98,84.32,50,7,NA,30.19,1022.4,15,NA,OVC,   ,   ,   ,6000,NA,NA,NA,NA,NA,NA,NA,NA,NA,NA,65.84,METAR KLGA 200200Z 05007KT 15SM OVC060 19/16 A3019 RMK BINOVC SLP224 T01880161,NA
LGA,1973-06-20T03:00:00Z,-73.8803,40.7794,64.94,60.98,87,50,9,NA,30.19,1022.4,15,NA,BKN,BKN,   ,   ,2400,6000,NA,NA,NA,NA,NA,NA,NA,NA,NA,64.94,METAR KLGA 200300Z 05009KT 15SM BKN024 BKN060 18/16 A3019 RMK / VA SLP224 8/500 T01830161 51003,NA
LGA,1973-06-20T04:00:00Z,-73.8803,40.7794,64.94,61.88,89.82,40,7,NA,30.2,1022.7,15,NA,BKN,BKN,   ,   ,2200,3400,NA,NA,NA,NA,NA,NA,NA,NA,NA,64.94,METAR KLGA 200400Z 04007KT 15SM BKN022 BKN034 18/17 A3020 RMK SLP227 T01830166,NA
LGA,1973-06-20T05:00:00Z,-73.8803,40.7794,63.86,60.98,90.35,60,8,NA,30.2,1022.7,15,NA,BKN,BKN,   ,   ,2400,4000,NA,NA,NA,NA,NA,NA,NA,NA,NA,63.86,METAR KLGA 200500Z 06008KT 15SM BKN024 BKN040 18/16 A3020 RMK SLP227 T01770161,NA
LGA,1973-06-20T06:00:00Z,-73.8803,40.7794,64.04,60.98,89.78,50,6,NA,30.18,1022,10,NA,BKN,BKN,   ,   ,2500,4000,NA,NA,NA,NA,NA,NA,NA,NA,NA,64.04,METAR KLGA 200600Z 05006KT 10SM BKN025 BKN040 18/16 A3018 RMK SLP220 T01780161,NA
LGA,1973-06-20T07:00:00Z,-73.8803,40.7794,63.86,60.98,90.35,50,9,NA,30.19,1022.4,10,NA,BKN,   ,   ,   ,2400,NA,NA,NA,NA,NA,NA,NA,NA,NA,NA,63.86,METAR KLGA 200700Z 05009KT 10SM BKN024 18/16 A3019 RMK SLP224 T01770161,NA
LGA,1973-06-20T08:00:00Z,-73.8803,40.7794,63.86,60.98,90.35,40,8,NA,30.19,1022.4,10,NA,BKN,   ,   ,   ,2500,NA,NA,NA,NA,NA,NA,NA,NA,NA,NA,63.86,METAR KLGA 200800Z 04008KT 10SM BKN025 18/16 A3019 RMK VA SLP224 T01770161,NA
LGA,1973-06-20T09:00:00Z,-73.8803,40.7794,62.96,60.98,93.25,60,7,NA,30.2,1022.7,9,NA,BKN,BKN,   ,   ,900,2500,NA,NA,NA,NA,NA,NA,NA,NA,NA,62.96,METAR KLGA 200900Z 06007KT 9SM BKN009 BKN025 17/16 A3020 RMK SLP227 8/500 T01720161 52007,NA
LGA,1973-06-20T11:00:00Z,-73.8803,40.7794,63.86,60.98,90.35,40,10,NA,30.2,1022.7,7,NA,SCT,OVC,   ,   ,400,600,NA,NA,NA,NA,NA,NA,NA,NA,NA,63.86,METAR KLGA 201100Z 04010KT 7SM SCT004 OVC006 18/16 A3020 RMK SLP227 T01770161,NA
LGA,1973-06-20T12:00:00Z,-73.8803,40.7794,64.04,60.98,89.78,50,10,NA,30.19,1022.4,5,NA,OVC,   ,   ,   ,400,NA,NA,NA,FG,NA,NA,NA,NA,NA,NA,64.04,METAR KLGA 201200Z 05010KT 5SM FG OVC004 18/16 A3019 RMK VA SLP224 70001 T01780161,NA
LGA,1973-06-20T13:00:00Z,-73.8803,40.7794,64.94,61.88,89.82,50,9,NA,30.19,1022.4,5,NA,OVC,   ,   ,   ,500,NA,NA,NA,FG,NA,NA,NA,NA,NA,NA,64.94,METAR KLGA 201300Z 05009KT 5SM FG OVC005 18/17 A3019 RMK SLP224 T01830166,NA
LGA,1973-06-20T14:00:00Z,-73.8803,40.7794,66.92,62.96,87.1,50,10,NA,30.18,1022,5,NA,BKN,OVC,   ,   ,800,1200,NA,NA,DZ,NA,NA,NA,NA,NA,NA,66.92,METAR KLGA 201400Z 05010KT 5SM DZ BKN008 OVC012 19/17 A3018 RMK SLP220 T01940172,NA
LGA,1973-06-20T15:00:00Z,-73.8803,40.7794,69.98,64.04,81.44,40,8,NA,30.19,1022.4,4,NA,BKN,OVC,   ,   ,800,1200,NA,NA,DZ,NA,NA,NA,NA,NA,NA,69.98,METAR KLGA 201500Z 04008KT 4SM DZ BKN008 OVC012 21/18 A3019 RMK / SLP224 8/6// T02110178 55000,NA
LGA,1973-06-20T15:14:00Z,-73.8803,40.7794,NA,NA,NA,30,7,NA,30.19,NA,4,NA,SCT,OVC,NA,NA,800,1100,NA,NA,NA,NA,NA,NA,NA,NA,NA,NA,KLGA 201514Z AUTO 03007KT 4SM SCT008 OVC011 A3019 RMK IEM_DS3505,NA
LGA,1973-06-20T16:00:00Z,-73.8803,40.7794,71.96,65.84,81.07,40,7,NA,30.2,1022.7,5,NA,BKN,OVC,   ,   ,1200,1500,NA,NA,DZ,NA,NA,NA,NA,NA,NA,71.96,METAR KLGA 201600Z 04007KT 5SM DZ BKN012 OVC015 22/19 A3020 RMK SLP227 T02220188,NA
LGA,1973-06-20T17:00:00Z,-73.8803,40.7794,73.94,63.86,70.77,60,7,NA,30.2,1022.7,5,NA,OVC,   ,   ,   ,1200,NA,NA,NA,DZ,NA,NA,NA,NA,NA,NA,73.94,METAR KLGA 201700Z 06007KT 5SM DZ OVC012 23/18 A3020 RMK SLP227 T02330177,NA
LGA,1973-06-20T18:00:00Z,-73.8803,40.7794,71.06,64.94,81,50,9,NA,30.19,1022.4,4,NA,BKN,OVC,   ,   ,1500,2100,NA,NA,DZ,NA,NA,NA,NA,NA,NA,71.06,METAR KLGA 201800Z 05009KT 4SM DZ BKN015 OVC021 22/18 A3019 RMK INOBVC SLP224 T02170183,NA
LGA,1973-06-20T19:00:00Z,-73.8803,40.7794,72.86,66.92,81.64,60,7,NA,30.19,1022.4,4,NA,SCT,BKN,OVC,   ,1200,1600,2000,NA,DZ,NA,NA,NA,NA,NA,NA,72.86,METAR KLGA 201900Z 06007KT 4SM DZ SCT012 BKN016 OVC020 23/19 A3019 RMK BINOVC SLP224 T02270194,NA
LGA,1973-06-20T21:00:00Z,-73.8803,40.7794,75.02,68,78.81,50,10,NA,30.16,1021.3,5,NA,SCT,SCT,SCT,   ,1500,3500,25000,NA,DZ,NA,NA,NA,NA,NA,NA,75.02,METAR KLGA 202100Z 05010KT 5SM DZ SCT015 SCT035 SCT250 24/20 A3016 RMK / VA SLP213 8/101 T02390200 58010,NA
LGA,1973-06-20T22:00:00Z,-73.8803,40.7794,75.92,68,76.48,50,11,NA,30.14,1020.7,5,NA,SCT,SCT,SCT,   ,1500,3500,25000,NA,DZ,NA,NA,NA,NA,NA,NA,75.92,METAR KLGA 202200Z 05011KT 5SM DZ SCT015 SCT035 SCT250 24/20 A3014 RMK VA SLP207 T02440200,NA
LGA,1973-06-20T23:00:00Z,-73.8803,40.7794,72.86,66.92,81.64,50,10,NA,30.13,1020.3,6,NA,SCT,   ,   ,   ,2000,NA,NA,NA,DZ,NA,NA,NA,NA,NA,NA,72.86,METAR KLGA 202300Z 05010KT 6SM DZ SCT020 23/19 A3013 RMK VA SLP203 T02270194,NA
LGA,1973-06-21T00:00:00Z,-73.8803,40.7794,71.96,66.92,84.16,50,6,NA,30.13,1020.3,6,NA,SCT,   ,   ,   ,2000,NA,NA,NA,DZ,NA,NA,NA,NA,NA,NA,71.96,METAR KLGA 210000Z 05006KT 6SM DZ SCT020 22/19 A3013 RMK SLP203 T02220194,NA
LGA,1973-06-21T01:00:00Z,-73.8803,40.7794,69.98,65.84,86.71,50,5,NA,30.14,1020.7,5,NA,CLR,   ,   ,   ,NA,NA,NA,NA,DZ,NA,NA,NA,NA,NA,NA,69.98,METAR KLGA 210100Z 05005KT 5SM DZ CLR 21/19 A3014 RMK FEW SC 15HND SLP207 T02110188,NA
LGA,1973-06-21T02:00:00Z,-73.8803,40.7794,68.9,65.84,89.98,50,6,NA,30.15,1021,5,NA,CLR,   ,   ,   ,NA,NA,NA,NA,DZ,NA,NA,NA,NA,NA,NA,68.9,METAR KLGA 210200Z 05006KT 5SM DZ CLR 20/19 A3015 RMK SLP210 T02050188,NA
LGA,1973-06-21T03:00:00Z,-73.8803,40.7794,69.08,66.02,89.98,240,4,NA,30.16,1021.3,5,NA,CLR,   ,   ,   ,NA,NA,NA,NA,DZ,NA,NA,NA,NA,NA,NA,69.08,METAR KLGA 210300Z 24004KT 5SM DZ CLR 21/19 A3016 RMK / VA SLP213 T02060189 52010,NA
LGA,1973-06-21T04:00:00Z,-73.8803,40.7794,68,64.9,89.81,180,6,NA,30.16,NA,3,NA,   ,   ,   ,   ,NA,NA,NA,NA,NA,NA,NA,NA,NA,NA,NA,68,METAR KLGA 210400Z 19006KT 3SM FGDZ CLR 20/18 A3016 RMK SLP213 T02000183,NA
LGA,1973-06-21T04:11:00Z,-73.8803,40.7794,NA,NA,NA,190,5,NA,30.16,NA,2,NA,NA,NA,NA,NA,NA,NA,NA,NA,NA,NA,NA,NA,NA,NA,NA,NA,KLGA 210411Z AUTO 19005KT 2SM POB000 A3016 RMK IEM_DS3505,NA
LGA,1973-06-21T04:30:00Z,-73.8803,40.7794,NA,NA,NA,180,7,NA,30.17,NA,1.5,NA,NA,NA,NA,NA,NA,NA,NA,NA,NA,NA,NA,NA,NA,NA,NA,NA,KLGA 210430Z AUTO 18007KT 1 1/2SM OBS003 A3017 RMK IEM_DS3505,NA
LGA,1973-06-21T05:00:00Z,-73.8803,40.7794,66.92,63.86,89.9,180,6,NA,30.17,1021.7,0.5,NA,OVC,   ,   ,   ,200,NA,NA,NA,FG,NA,NA,NA,NA,NA,NA,66.92,METAR KLGA 210500Z 18006KT 1/2SM FG OVC002 19/18 A3017 RMK R22VR60& SFC VSBY SLP217 T01940177 530/4,NA
LGA,1973-06-21T05:08:00Z,-73.8803,40.7794,NA,NA,NA,180,8,NA,30.16,NA,0.5,NA,NA,NA,NA,NA,NA,NA,NA,NA,NA,NA,NA,NA,NA,NA,NA,NA,KLGA 210508Z AUTO 18008KT 1/2SM OBS001 A3016 RMK IEM_DS3505,NA
LGA,1973-06-21T05:32:00Z,-73.8803,40.7794,NA,NA,NA,150,6,NA,30.16,NA,1,NA,NA,NA,NA,NA,NA,NA,NA,NA,NA,NA,NA,NA,NA,NA,NA,NA,KLGA 210532Z AUTO 15006KT 1SM OBS003 A3016 RMK IEM_DS3505,NA
LGA,1973-06-21T06:00:00Z,-73.8803,40.7794,66.02,64.04,93.33,140,7,NA,30.16,1021.3,1,NA,OVC,   ,   ,   ,300,NA,NA,NA,FG,NA,NA,NA,NA,NA,NA,66.02,METAR KLGA 210600Z 14007KT 1SM FG OVC003 19/18 A3016 RMK R22VR24V60& SLP213 T01890178,NA
LGA,1973-06-21T06:06:00Z,-73.8803,40.7794,NA,NA,NA,130,4,NA,30.16,NA,1,NA,NA,NA,NA,NA,NA,NA,NA,NA,NA,NA,NA,NA,NA,NA,NA,NA,KLGA 210606Z AUTO 13004KT 1SM OBS004 A3016 RMK IEM_DS3505,NA
LGA,1973-06-21T07:00:00Z,-73.8803,40.7794,66.92,64.94,93.35,200,5,NA,30.14,1020.7,2,NA,OVC,   ,   ,   ,400,NA,NA,NA,FG,NA,NA,NA,NA,NA,NA,66.92,METAR KLGA 210700Z 20005KT 2SM FG OVC004 19/18 A3014 RMK SLP207 T01940183,NA
LGA,1973-06-21T07:07:00Z,-73.8803,40.7794,NA,NA,NA,140,6,NA,30.14,NA,2,NA,NA,NA,NA,NA,NA,NA,NA,NA,NA,NA,NA,NA,NA,NA,NA,NA,KLGA 210707Z AUTO 14006KT 2SM OBS003 A3014 RMK IEM_DS3505,NA
LGA,1973-06-21T07:19:00Z,-73.8803,40.7794,NA,NA,NA,170,5,NA,30.14,NA,1,NA,NA,NA,NA,NA,NA,NA,NA,NA,NA,NA,NA,NA,NA,NA,NA,NA,KLGA 210719Z AUTO 17005KT 1SM OBS001 A3014 RMK IEM_DS3505,NA
LGA,1973-06-21T08:00:00Z,-73.8803,40.7794,65.84,64.94,96.92,200,5,NA,30.14,1020.7,1,NA,OVC,   ,   ,   ,100,NA,NA,NA,FG,NA,NA,NA,NA,NA,NA,65.84,METAR KLGA 210800Z 20005KT 1SM FG OVC001 19/18 A3014 RMK R22VR36V60& SFC VSBY SLP207 T01880183 550/8,NA
LGA,1973-06-21T08:03:00Z,-73.8803,40.7794,NA,NA,NA,180,5,NA,30.14,NA,1,NA,NA,NA,NA,NA,NA,NA,NA,NA,NA,NA,NA,NA,NA,NA,NA,NA,KLGA 210803Z AUTO 18005KT 1SM OBS003 A3014 RMK IEM_DS3505,NA
LGA,1973-06-21T09:00:00Z,-73.8803,40.7794,66.92,64.94,93.35,0,0,NA,30.14,1020.7,1,NA,OVC,   ,   ,   ,300,NA,NA,NA,FG,NA,NA,NA,NA,NA,NA,66.92,METAR KLGA 210900Z 00000KT 1SM FG OVC003 19/18 A3014 RMK / R22VR60& /607 SLP207 T01940183,NA
LGA,1973-06-21T10:00:00Z,-73.8803,40.7794,66.92,64.94,93.35,70,7,NA,30.14,1020.7,1,NA,OVC,   ,   ,   ,300,NA,NA,NA,FG,NA,NA,NA,NA,NA,NA,66.92,METAR KLGA 211000Z 07007KT 1SM FG OVC003 19/18 A3014 RMK / R22VR28V32 SFC VSBY SLP207 T01940183 530/4,NA
LGA,1973-06-21T12:00:00Z,-73.8803,40.7794,69.98,66.92,90.02,120,4,NA,30.15,1021,1.5,NA,OVC,OVC,   ,   ,NA,400,NA,NA,FG,NA,NA,NA,NA,NA,NA,69.98,METAR KLGA 211200Z 12004KT 11/2SM FG OVC/// OVC004 21/19 A3015 RMK F1 VNA SLP210 T02110194,NA
LGA,1973-06-21T13:00:00Z,-73.8803,40.7794,72,66.9,83.99,30,8,NA,30.15,NA,5.5,NA,   ,   ,   ,   ,NA,NA,NA,NA,NA,NA,NA,NA,NA,NA,NA,72,METAR KLGA 211300Z 03008KT 11/2SM FGDZ OVC/// BKN005 OVC009 22/19 A3015 RMK FH1 OCNL THN SPOTS IOVC SLP210 T02220194,NA
LGA,1973-06-21T14:00:00Z,-73.8803,40.7794,74.8,68,79.39,230,3.04,NA,30.14,NA,5.5,NA,   ,   ,   ,   ,NA,NA,NA,NA,NA,NA,NA,NA,NA,NA,NA,74.8,METAR KLGA 211400Z 23003KT 11/2SM FUDZ OVC/// SCT006 BKN010 OVC020 24/20 A3014 RMK HK1 BINOVC SLP207 T02380200,NA
LGA,1973-06-21T14:13:00Z,-73.8803,40.7794,NA,NA,NA,200,6,NA,30.14,NA,1.5,NA,SCT,BKN,NA,NA,1000,3000,NA,NA,NA,NA,NA,NA,NA,NA,NA,NA,KLGA 211413Z AUTO 20006KT 1 1/2SM POB000 SCT010 BKN030 A3014 RMK IEM_DS3505,NA
LGA,1973-06-21T15:00:00Z,-73.8803,40.7794,75.9,68,76.53,180,7.04,NA,30.13,NA,10.5,NA,   ,   ,   ,   ,NA,NA,NA,NA,NA,NA,NA,NA,NA,NA,NA,75.9,METAR KLGA 211500Z 17007KT 21/2SM FUDZ OVC/// SCT010 OVC035 24/20 A3013 RMK HK1 BINOVC/808 SLP203 8/5// T02440200,NA
LGA,1973-06-21T16:00:00Z,-73.8803,40.7794,73.9,66.9,78.77,180,10,NA,30.12,NA,5,NA,   ,   ,   ,   ,NA,NA,NA,NA,NA,NA,NA,NA,NA,NA,NA,73.9,METAR KLGA 211600Z 18010KT 5SM FUDZ SCT015 OVC037 23/19 A3012 RMK RB43E49 SLP200 T02330194,NA
LGA,1973-06-21T17:00:00Z,-73.8803,40.7794,77,68,73.78,180,11.04,NA,30.12,NA,5,NA,   ,   ,   ,   ,NA,NA,NA,NA,NA,NA,NA,NA,NA,NA,NA,77,METAR KLGA 211700Z 19011KT 5SM FUDZ SCT015 OVC035 25/20 A3012 RMK SML BINOVC OVHD SLP200 T02500200,NA
LGA,1973-06-21T18:00:00Z,-73.8803,40.7794,73,66.9,81.2,200,8,NA,30.11,NA,4,NA,   ,   ,   ,   ,NA,NA,NA,NA,NA,NA,NA,NA,NA,NA,NA,73,METAR KLGA 211800Z 20008KT 4SM -SHRA FUDZ SCT015 OVC036 23/19 A3011 RMK RB30 SLP196 T02280194,NA
LGA,1973-06-21T19:00:00Z,-73.8803,40.7794,73.9,68.9,84.39,160,11.04,NA,30.09,NA,4,NA,   ,   ,   ,   ,NA,NA,NA,NA,NA,NA,NA,NA,NA,NA,NA,74.96,METAR KLGA 211900Z 16011KT 4SM FUDZ BKN009 OVC035 23/20 A3009 RMK RE05 SLP190 T02330205,NA
LGA,1973-06-21T20:00:00Z,-73.8803,40.7794,74.8,68.9,81.88,150,11.04,NA,30.07,NA,5,NA,   ,   ,   ,   ,NA,NA,NA,NA,NA,NA,NA,NA,NA,NA,NA,75.83,METAR KLGA 212000Z 15011KT 5SM FUDZ SCT008 OVC035 24/20 A3007 RMK TCU N/BINOVC/VA SLP183 T02380205,NA
LGA,1973-06-21T20:08:00Z,-73.8803,40.7794,NA,NA,NA,140,12,NA,30.06,NA,5,NA,BKN,OVC,NA,NA,900,3400,NA,NA,NA,NA,NA,NA,NA,NA,NA,NA,KLGA 212008Z AUTO 14012KT 5SM BKN009 OVC034 A3006 RMK IEM_DS3505,NA
LGA,1973-06-21T21:00:00Z,-73.8803,40.7794,73,68,84.34,180,10,NA,30.07,NA,4,NA,   ,   ,   ,   ,NA,NA,NA,NA,NA,NA,NA,NA,NA,NA,NA,73,METAR KLGA 212100Z 18010KT 4SM -SHRA FUDZ OVC006 23/20 A3007 RMK RB47/ VNA/ SLP183 8/6// T02280200 56014,NA
LGA,1973-06-21T22:00:00Z,-73.8803,40.7794,72,68,87.24,160,10,NA,30.06,NA,4,NA,   ,   ,   ,   ,NA,NA,NA,NA,NA,NA,NA,NA,NA,NA,NA,73,METAR KLGA 212200Z 16010KT 4SM -DZ FUDZ OVC005 22/20 A3006 RMK VNA SLP180 T02220200,NA
LGA,1973-06-21T23:00:00Z,-73.8803,40.7794,72,68,87.24,180,9.04,NA,30.04,NA,4,NA,   ,   ,   ,   ,NA,NA,NA,NA,NA,NA,NA,NA,NA,NA,NA,73,METAR KLGA 212300Z 17009KT 4SM -SHRA FUDZ OVC005 22/20 A3004 RMK LR15RB46/VNA SLP173 T02220200,NA
LGA,1973-06-22T00:00:00Z,-73.8803,40.7794,69.98,66.92,90.02,170,8,NA,30.04,1017.3,4,NA,OVC,   ,   ,   ,500,NA,NA,NA,-SHRA FG,NA,NA,NA,NA,NA,NA,69.98,METAR KLGA 220000Z 17008KT 4SM -SHRA FG OVC005 21/19 A3004 RMK RE10B50 SLP173 T02110194,NA
LGA,1973-06-22T01:00:00Z,-73.8803,40.7794,68.9,65.84,89.98,140,6,0.01,30.04,1017.3,3,NA,OVC,   ,   ,   ,400,NA,NA,NA,-SHRA FG,NA,NA,NA,NA,NA,NA,68.9,METAR KLGA 220100Z 14006KT 3SM -SHRA FG OVC004 20/19 A3004 RMK SLP173 P0001 T02050188,NA
LGA,1973-06-22T01:58:00Z,-73.8803,40.7794,NA,NA,NA,170,5,NA,30.06,NA,3,NA,OVC,NA,NA,NA,400,NA,NA,NA,NA,NA,NA,NA,NA,NA,NA,NA,KLGA 220158Z AUTO 17005KT 3SM OVC004 A3006 RMK IEM_DS3505,NA
LGA,1973-06-22T02:00:00Z,-73.8803,40.7794,69.98,66.92,90.02,150,6,0.08,30.06,1018,3,NA,OVC,   ,   ,   ,400,NA,NA,NA,-SHRA FG,NA,NA,NA,NA,NA,NA,69.98,METAR KLGA 220200Z 15006KT 3SM -SHRA FG OVC004 21/19 A3006 RMK SLP180 P0008 T02110194,NA
LGA,1973-06-22T03:00:00Z,-73.8803,40.7794,71.06,68,90.06,110,6,0.15,30.04,1017.3,3,NA,OVC,   ,   ,   ,400,NA,NA,NA,-SHRA FG,NA,NA,NA,NA,NA,NA,72.1,METAR KLGA 220300Z 11006KT 3SM -SHRA FG OVC004 22/20 A3004 RMK TE50 MOVD E PK WND 00024 15// SLP173 P0015 T02170200 5101/,NA
LGA,1973-06-22T04:00:00Z,-73.8803,40.7794,69.98,66.92,90.02,190,4,NA,30.03,1016.9,3,NA,SCT,OVC,   ,   ,400,3400,NA,NA,FG,NA,NA,NA,NA,NA,NA,69.98,METAR KLGA 220400Z 19004KT 3SM FG SCT004 OVC034 21/19 A3003 RMK / RE20 SLP169 T02110194,NA
LGA,1973-06-22T05:00:00Z,-73.8803,40.7794,69.98,66.92,90.02,180,7,NA,30.02,1016.6,3,NA,SCT,OVC,   ,   ,1000,3700,NA,NA,FG,NA,NA,NA,NA,NA,NA,69.98,METAR KLGA 220500Z 18007KT 3SM FG SCT010 OVC037 21/19 A3002 RMK SLP166 T02110194,NA
LGA,1973-06-22T06:00:00Z,-73.8803,40.7794,69.98,66.92,90.02,180,7,NA,30.02,1016.6,2,NA,SCT,OVC,   ,   ,600,3500,NA,NA,FG,NA,NA,NA,NA,NA,NA,69.98,METAR KLGA 220600Z 18007KT 2SM FG SCT006 OVC035 21/19 A3002 RMK THIN SPOTS IOVC SLP166 60024 T02110194,NA
LGA,1973-06-22T06:19:00Z,-73.8803,40.7794,NA,NA,NA,190,6,NA,30.01,NA,2,NA,SCT,OVC,NA,NA,400,2400,NA,NA,NA,NA,NA,NA,NA,NA,NA,NA,KLGA 220619Z AUTO 19006KT 2SM SCT004 OVC024 A3001 RMK IEM_DS3505,NA
LGA,1973-06-22T07:00:00Z,-73.8803,40.7794,69.98,66.92,90.02,190,4,NA,30.01,1016.3,2,NA,SCT,BKN,   ,   ,400,2500,NA,NA,FG,NA,NA,NA,NA,NA,NA,69.98,METAR KLGA 220700Z 19004KT 2SM FG SCT004 BKN025 21/19 A3001 RMK R22VR16V50 SLP163 T02110194,NA
LGA,1973-06-22T08:00:00Z,-73.8803,40.7794,69.98,68,93.44,0,0,NA,30,1015.9,2,NA,SCT,BKN,OVC,   ,400,1100,2500,NA,FG,NA,NA,NA,NA,NA,NA,69.98,METAR KLGA 220800Z 00000KT 2SM FG SCT004 BKN011 OVC025 21/20 A3000 RMK SLP159 T02110200,NA
LGA,1973-06-22T08:32:00Z,-73.8803,40.7794,NA,NA,NA,50,4,NA,30,NA,1,NA,SCT,BKN,OVC,NA,400,1000,2500,NA,NA,NA,NA,NA,NA,NA,NA,NA,KLGA 220832Z AUTO 05004KT 1SM SCT004 BKN010 OVC025 A3000 RMK IEM_DS3505,NA
LGA,1973-06-22T09:00:00Z,-73.8803,40.7794,69.08,66.92,92.83,50,5,NA,30,1015.9,1,NA,OVC,SCT,BKN,   ,NA,400,1000,NA,FG,NA,NA,NA,NA,NA,NA,69.08,METAR KLGA 220900Z 05005KT 1SM FG OVC/// SCT004 BKN010 21/19 A3000 RMK R22VR10-V38 R04VV3/4V13/8 F2/605 SLP159 8/600 T02060194,NA
LGA,1973-06-22T09:24:00Z,-73.8803,40.7794,NA,NA,NA,50,4,NA,30.01,NA,1,NA,SCT,BKN,NA,NA,700,1500,NA,NA,NA,NA,NA,NA,NA,NA,NA,NA,KLGA 220924Z AUTO 05004KT 1SM POB000 SCT007 BKN015 A3001 RMK IEM_DS3505,NA
LGA,1973-06-22T10:00:00Z,-73.8803,40.7794,69.98,68,93.44,40,4,NA,30.01,1016.3,1,NA,OVC,BKN,BKN,   ,NA,600,4000,NA,FG,NA,NA,NA,NA,NA,NA,69.98,METAR KLGA 221000Z 04004KT 1SM FG OVC/// BKN006 BKN040 21/20 A3001 RMK R22VR22V34 R04VV11/2 F2 SLP163 T02110200,NA
LGA,1973-06-22T11:00:00Z,-73.8803,40.7794,68.9,66.92,93.41,0,0,NA,30.02,1016.6,1,NA,OVC,OVC,   ,   ,NA,700,NA,NA,FG,NA,NA,NA,NA,NA,NA,68.9,METAR KLGA 221100Z 00000KT 1SM FG OVC/// OVC007 20/19 A3002 RMK R22VR55V60& R04VV11/8 SLP166 T02050194,NA
LGA,1973-06-22T12:00:00Z,-73.8803,40.7794,71.06,69.08,93.47,0,0,NA,30.03,1016.9,2,NA,BKN,OVC,   ,   ,800,3000,NA,NA,FG,NA,NA,NA,NA,NA,NA,72.26,METAR KLGA 221200Z 00000KT 2SM FG BKN008 OVC030 22/21 A3003 RMK SLP169 70024 T02170206,NA
LGA,1973-06-22T12:07:00Z,-73.8803,40.7794,NA,NA,NA,200,4,NA,30.03,NA,1.5,NA,BKN,OVC,NA,NA,800,3900,NA,NA,NA,NA,NA,NA,NA,NA,NA,NA,KLGA 221207Z AUTO 20004KT 1 1/2SM BKN008 OVC039 A3003 RMK IEM_DS3505,NA
LGA,1973-06-22T13:00:00Z,-73.8803,40.7794,74.8,70.9,87.67,220,5.04,NA,30.03,NA,5.5,NA,   ,   ,   ,   ,NA,NA,NA,NA,NA,NA,NA,NA,NA,NA,NA,76.1,METAR KLGA 221300Z 22005KT 11/2SM FUDZ OVC010 24/22 A3003 RMK SLP169 T02380216,NA
LGA,1973-06-22T14:00:00Z,-73.8803,40.7794,75.9,70,81.96,NA,0,NA,30.02,NA,5.5,NA,   ,   ,   ,   ,NA,NA,NA,NA,NA,NA,NA,NA,NA,NA,NA,77.04,METAR KLGA 221400Z 00000KT 11/2SM FUDZ BKN012 OVC040 24/21 A3002 RMK SLP166 T02440211,NA
LGA,1973-06-22T15:00:00Z,-73.8803,40.7794,75,70,84.46,310,3.04,NA,30.02,NA,2,NA,   ,   ,   ,   ,NA,NA,NA,NA,NA,NA,NA,NA,NA,NA,NA,76.17,METAR KLGA 221500Z 31003KT 2SM FUDZ SCT012 BKN018 OVC040 24/21 A3002 RMK / SLP166 8/5// T02390211 56003,NA
LGA,1973-06-22T16:00:00Z,-73.8803,40.7794,74.8,70.9,87.67,320,3.04,NA,30.02,NA,2,NA,   ,   ,   ,   ,NA,NA,NA,NA,NA,NA,NA,NA,NA,NA,NA,76.1,METAR KLGA 221600Z 32003KT 2SM -SHRA FUDZ BKN014 OVC018 24/22 A3002 RMK RB09 SLP166 T02380216,NA
LGA,1973-06-22T17:00:00Z,-73.8803,40.7794,72.9,70,90.63,NA,0,0.05,30.01,NA,5.5,NA,   ,   ,   ,   ,NA,NA,NA,NA,NA,NA,NA,NA,NA,NA,NA,74.15,METAR KLGA 221700Z 00000KT 11/2SM -SHRA FUDZ SCT012 BKN016 OVC022 23/21 A3001 RMK SLP163 P0005 T02270211,NA
LGA,1973-06-22T17:24:00Z,-73.8803,40.7794,NA,NA,NA,240,4,NA,30.01,NA,1,NA,BKN,OVC,NA,NA,1000,2100,NA,NA,NA,NA,NA,NA,NA,NA,NA,NA,KLGA 221724Z AUTO 24004KT 1SM BKN010 OVC021 A3001 RMK IEM_DS3505,NA
LGA,1973-06-22T18:00:00Z,-73.8803,40.7794,73,69.1,87.59,NA,0,1.1,30,NA,1,NA,   ,   ,   ,   ,NA,NA,NA,NA,NA,NA,NA,NA,NA,NA,NA,74.12,METAR KLGA 221800Z 00000KT 1SM SHRA FUDZ SCT009 BKN015 OVC028 23/21 A3000 RMK / R22VR 18V36 PCPN SLP159 P0110 60098 T02280206,NA
LGA,1973-06-22T18:32:00Z,-73.8803,40.7794,NA,NA,NA,330,10,NA,30,NA,1,NA,BKN,OVC,NA,NA,400,1500,NA,NA,NA,NA,NA,NA,NA,NA,NA,NA,KLGA 221832Z AUTO 33010KT 1SM BKN004 OVC015 A3000 RMK IEM_DS3505,NA
LGA,1973-06-22T19:00:00Z,-73.8803,40.7794,70.88,68.9,93.46,310,5,1.12,30.01,1016.3,0.75,NA,BKN,BKN,OVC,   ,400,900,2000,NA,TSRA,NA,NA,NA,NA,NA,NA,72.06,METAR KLGA 221900Z 31005KT 3/4SM TSRA BKN004 BKN009 OVC020 22/20 A3001 RMK R22VR36V40 TB50 SE SLP163 P0112 T02160205,NA
LGA,1973-06-22T19:16:00Z,-73.8803,40.7794,NA,NA,NA,290,14,NA,30.01,NA,1.5,NA,SCT,BKN,OVC,NA,400,1100,2500,NA,NA,NA,NA,NA,NA,NA,NA,NA,KLGA 221916Z AUTO 29014KT 1 1/2SM SCT004 BKN011 OVC025 A3001 RMK IEM_DS3505,NA
LGA,1973-06-22T20:00:00Z,-73.8803,40.7794,68,63.86,86.61,320,10,0.86,30.02,1016.6,2,NA,SCT,BKN,OVC,   ,1400,2400,4400,NA,SHRA,NA,NA,NA,NA,NA,NA,68,METAR KLGA 222000Z 32010KT 2SM SHRA SCT014 BKN024 OVC044 20/18 A3002 RMK TE32 MOVD E PKWND 28 PCPN 60 SLP166 P0086 79/19 T02000177 5209/,NA
LGA,1973-06-22T21:00:00Z,-73.8803,40.7794,68,64.94,89.94,70,10,0.3,29.98,1015.2,4,NA,SCT,BKN,OVC,   ,1500,2500,5000,NA,-SHRA,NA,NA,NA,NA,NA,NA,68,METAR KLGA 222100Z 07010KT 4SM -SHRA SCT015 BKN025 OVC050 20/18 A2998 RMK BINOVC W/ TWO 15// SLP152 P0030 T02000183 58007,NA
LGA,1973-06-22T21:32:00Z,-73.8803,40.7794,NA,NA,NA,360,8,NA,29.98,NA,7,NA,SCT,SCT,OVC,OVC,1500,2800,5900,10800,NA,NA,NA,NA,NA,NA,NA,NA,KLGA 222132Z AUTO 36008KT 7SM SCT015 SCT028 OVC059 OVC108 A2998 RMK IEM_DS3505,NA
LGA,1973-06-22T22:00:00Z,-73.8803,40.7794,69.98,64.94,84.04,310,7,NA,29.99,1015.6,5,NA,SCT,BKN,BKN,OVC,1300,4000,6000,11000,DZ,NA,NA,NA,NA,NA,NA,69.98,METAR KLGA 222200Z 31007KT 5SM DZ SCT013 BKN040 BKN060 OVC110 21/18 A2999 RMK RE12 VA SLP156 T02110183,NA
LGA,1973-06-22T23:00:00Z,-73.8803,40.7794,69.98,64.94,84.04,290,4,NA,30.01,1016.3,5,NA,SCT,BKN,BKN,   ,1500,4000,10000,NA,DZ,NA,NA,NA,NA,NA,NA,69.98,METAR KLGA 222300Z 29004KT 5SM DZ SCT015 BKN040 BKN100 21/18 A3001 RMK VA SLP163 T02110183,NA
LGA,1973-06-23T00:00:00Z,-73.8803,40.7794,71.06,64.94,81,330,4,NA,30.01,1016.3,4,NA,SCT,BKN,BKN,   ,4000,7000,12000,NA,DZ,NA,NA,NA,NA,NA,NA,71.06,METAR KLGA 230000Z 33004KT 4SM DZ SCT040 BKN070 BKN120 22/18 A3001 RMK VA SLP163 60244 T02170183,NA
LGA,1973-06-23T01:00:00Z,-73.8803,40.7794,69.98,63.86,80.92,230,5,NA,30.03,1016.9,4,NA,SCT,BKN,BKN,   ,7000,12000,20000,NA,DZ,NA,NA,NA,NA,NA,NA,69.98,METAR KLGA 230100Z 23005KT 4SM DZ SCT070 BKN120 BKN200 21/18 A3003 RMK VA SLP169 T02110177,NA
LGA,1973-06-23T02:00:00Z,-73.8803,40.7794,68.9,64.94,87.2,220,7,NA,30.04,1017.3,4,NA,SCT,BKN,   ,   ,7000,12000,NA,NA,DZ,NA,NA,NA,NA,NA,NA,68.9,METAR KLGA 230200Z 22007KT 4SM DZ SCT070 BKN120 20/18 A3004 RMK VA SLP173 T02050183,NA
LGA,1973-06-23T03:00:00Z,-73.8803,40.7794,69.08,64.94,86.66,220,5,NA,30.04,1017.3,5,NA,SCT,   ,   ,   ,12000,NA,NA,NA,DZ,NA,NA,NA,NA,NA,NA,69.08,METAR KLGA 230300Z 22005KT 5SM DZ SCT120 21/18 A3004 RMK / VA SLP173 8/030 T02060183 51012,NA
LGA,1973-06-23T04:00:00Z,-73.8803,40.7794,68,63.86,86.61,220,6,NA,30.04,1017.3,6,NA,SCT,   ,   ,   ,12000,NA,NA,NA,DZ,NA,NA,NA,NA,NA,NA,68,METAR KLGA 230400Z 22006KT 6SM DZ SCT120 20/18 A3004 RMK SLP173 T02000177,NA
LGA,1973-06-23T05:00:00Z,-73.8803,40.7794,68,63.86,86.61,200,5,NA,30.03,1016.9,5,NA,SCT,   ,   ,   ,12000,NA,NA,NA,DZ,NA,NA,NA,NA,NA,NA,68,METAR KLGA 230500Z 20005KT 5SM DZ SCT120 20/18 A3003 RMK SLP169 T02000177,NA
LGA,1973-06-23T06:00:00Z,-73.8803,40.7794,68,64.04,87.16,220,6,NA,30.03,1016.9,5,NA,SCT,   ,   ,   ,12000,NA,NA,NA,DZ,NA,NA,NA,NA,NA,NA,68,METAR KLGA 230600Z 22006KT 5SM DZ SCT120 20/18 A3003 RMK SLP169 T02000178,NA
LGA,1973-06-23T07:00:00Z,-73.8803,40.7794,68,63.86,86.61,220,6,NA,30.03,1016.9,5,NA,BKN,   ,   ,   ,12000,NA,NA,NA,DZ,NA,NA,NA,NA,NA,NA,68,METAR KLGA 230700Z 22006KT 5SM DZ BKN120 20/18 A3003 RMK SLP169 T02000177,NA
LGA,1973-06-23T08:00:00Z,-73.8803,40.7794,68,63.86,86.61,200,5,NA,30.02,1016.6,4,NA,BKN,   ,   ,   ,12000,NA,NA,NA,DZ,NA,NA,NA,NA,NA,NA,68,METAR KLGA 230800Z 20005KT 4SM DZ BKN120 20/18 A3002 RMK SLP166 T02000177,NA
LGA,1973-06-23T09:00:00Z,-73.8803,40.7794,68,64.04,87.16,190,4,NA,30.03,1016.9,4,NA,BKN,   ,   ,   ,12000,NA,NA,NA,DZ,NA,NA,NA,NA,NA,NA,68,METAR KLGA 230900Z 19004KT 4SM DZ BKN120 20/18 A3003 RMK / SLP169 8/070 T02000178 55000,NA
LGA,1973-06-23T10:00:00Z,-73.8803,40.7794,68.9,63.9,84.09,150,5.04,NA,30.03,NA,2,NA,   ,   ,   ,   ,NA,NA,NA,NA,NA,NA,NA,NA,NA,NA,NA,68.9,METAR KLGA 231000Z 15005KT 2SM FUDZ OVC120 20/18 A3003 RMK SLP169 T02050177,NA
LGA,1973-06-23T11:00:00Z,-73.8803,40.7794,68.9,63.9,84.09,210,7.04,NA,30.05,NA,2,NA,   ,   ,   ,   ,NA,NA,NA,NA,NA,NA,NA,NA,NA,NA,NA,68.9,METAR KLGA 231100Z 21007KT 2SM FUDZ OVC120 20/18 A3005 RMK SLP176 T02050177,NA
LGA,1973-06-23T12:00:00Z,-73.8803,40.7794,69.1,64.9,86.48,180,4,NA,30.05,NA,2,NA,   ,   ,   ,   ,NA,NA,NA,NA,NA,NA,NA,NA,NA,NA,NA,69.1,METAR KLGA 231200Z 18004KT 2SM FUDZ OVC100 21/18 A3005 RMK SLP176 70370 T02060183,NA
LGA,1973-06-23T13:00:00Z,-73.8803,40.7794,NA,NA,NA,230,5.04,NA,30.05,NA,2,NA,   ,   ,   ,   ,NA,NA,NA,NA,NA,NA,NA,NA,NA,NA,NA,NA,METAR KLGA 231300Z 23005KT 2SM FUDZ OVC100 M/M A3005 RMK SLP176 T////////,NA
LGA,1973-06-23T14:00:00Z,-73.8803,40.7794,72,64.9,78.35,220,5.04,NA,30.05,NA,2,NA,   ,   ,   ,   ,NA,NA,NA,NA,NA,NA,NA,NA,NA,NA,NA,72,METAR KLGA 231400Z 22005KT 2SM FUDZ OVC100 22/18 A3005 RMK SLP176 T02220183,NA
LGA,1973-06-23T15:00:00Z,-73.8803,40.7794,73,66,78.7,250,4,NA,30.06,NA,2,NA,   ,   ,   ,   ,NA,NA,NA,NA,NA,NA,NA,NA,NA,NA,NA,73,METAR KLGA 231500Z 25004KT 2SM FUDZ OVC100 23/19 A3006 RMK / SLP180 8/03/ T02280189 53003,NA
LGA,1973-06-23T16:00:00Z,-73.8803,40.7794,73.9,66.9,78.77,50,4,NA,30.06,NA,2,NA,   ,   ,   ,   ,NA,NA,NA,NA,NA,NA,NA,NA,NA,NA,NA,73.9,METAR KLGA 231600Z 05004KT 2SM FUDZ OVC/// OVC100 23/19 A3006 RMK HK2 SLP180 T02330194,NA
LGA,1973-06-23T17:00:00Z,-73.8803,40.7794,75.9,66.9,73.68,120,4,NA,30.05,NA,2,NA,   ,   ,   ,   ,NA,NA,NA,NA,NA,NA,NA,NA,NA,NA,NA,75.9,METAR KLGA 231700Z 12004KT 2SM FUDZ OVC/// OVC100 24/19 A3005 RMK SLP176 T02440194,NA
LGA,1973-06-23T18:00:00Z,-73.8803,40.7794,75.9,66,71.41,130,8,NA,30.04,NA,3,NA,   ,   ,   ,   ,NA,NA,NA,NA,NA,NA,NA,NA,NA,NA,NA,75.9,METAR KLGA 231800Z 13008KT 3SM FUDZ OVC100 24/19 A3004 RMK SLP173 T02440189,NA
LGA,1973-06-23T19:00:00Z,-73.8803,40.7794,74.8,64.9,71.3,180,8,NA,30.03,NA,3,NA,   ,   ,   ,   ,NA,NA,NA,NA,NA,NA,NA,NA,NA,NA,NA,74.8,METAR KLGA 231900Z 18008KT 3SM FUDZ BKN100 OVC250 24/18 A3003 RMK SLP169 T02380183,NA
LGA,1973-06-23T20:00:00Z,-73.8803,40.7794,73.9,63.9,70.96,180,9.04,NA,30.03,NA,3,NA,   ,   ,   ,   ,NA,NA,NA,NA,NA,NA,NA,NA,NA,NA,NA,73.9,METAR KLGA 232000Z 17009KT 3SM FUDZ BKN100 OVC250 23/18 A3003 RMK VA SLP169 T02330177,NA
LGA,1973-06-23T21:00:00Z,-73.8803,40.7794,73,64.9,75.75,180,12,NA,30.02,NA,3,NA,   ,   ,   ,   ,NA,NA,NA,NA,NA,NA,NA,NA,NA,NA,NA,73,METAR KLGA 232100Z 18012KT 3SM FUDZ BKN100 OVC250 23/18 A3002 RMK 1071VALGA6/12 SLP166 T02280183 57005,NA
LGA,1973-06-23T23:00:00Z,-73.8803,40.7794,70,63,78.46,180,10,NA,30.03,NA,3,NA,   ,   ,   ,   ,NA,NA,NA,NA,NA,NA,NA,NA,NA,NA,NA,70,METAR KLGA 232300Z 17010KT 3SM FUDZ SCT100 OVC200 21/17 A3003 RMK VALGA C6/12 SLP169 T02110172,NA
LGA,1973-06-24T00:00:00Z,-73.8803,40.7794,66.9,63,87.28,180,11.04,NA,30.03,NA,10.5,NA,   ,   ,   ,   ,NA,NA,NA,NA,NA,NA,NA,NA,NA,NA,NA,66.9,METAR KLGA 240000Z 18011KT 21/2SM FUDZ SCT100 OVC200 19/17 A3003 RMK VA SLP169 T01940172,NA
LGA,1973-06-24T01:00:00Z,-73.8803,40.7794,66.9,63,87.28,150,11.04,NA,30.02,NA,10.5,NA,   ,   ,   ,   ,NA,NA,NA,NA,NA,NA,NA,NA,NA,NA,NA,66.9,METAR KLGA 240100Z 15011KT 21/2SM FUDZ SCT100 OVC200 19/17 A3002 RMK SLP166 T01940172,NA
LGA,1973-06-24T02:00:00Z,-73.8803,40.7794,65.8,63,90.68,70,7.04,NA,30.04,NA,10.5,NA,   ,   ,   ,   ,NA,NA,NA,NA,NA,NA,NA,NA,NA,NA,NA,65.8,METAR KLGA 240200Z 06007KT 21/2SM FUDZ OVC/// SCT100 BKN200 19/17 A3004 RMK HK2 SLP173 T01880172,NA
LGA,1973-06-24T03:00:00Z,-73.8803,40.7794,66,63,90.05,320,4,NA,30.05,NA,4,NA,   ,   ,   ,   ,NA,NA,NA,NA,NA,NA,NA,NA,NA,NA,NA,66,METAR KLGA 240300Z 32004KT 4SM FUDZ OVC/// SCT100 BKN200 19/17 A3005 RMK HK1/ SLP176 8/078 T01890172 53008,NA
LGA,1973-06-24T04:00:00Z,-73.8803,40.7794,66.9,63,87.28,120,7.04,NA,30.04,NA,5,NA,   ,   ,   ,   ,NA,NA,NA,NA,NA,NA,NA,NA,NA,NA,NA,66.9,METAR KLGA 240400Z 12007KT 5SM FUDZ BKN100 BKN200 19/17 A3004 RMK SLP173 T01940172,NA
LGA,1973-06-24T05:00:00Z,-73.8803,40.7794,66.9,63,87.28,130,7.04,NA,30.04,NA,4,NA,   ,   ,   ,   ,NA,NA,NA,NA,NA,NA,NA,NA,NA,NA,NA,66.9,METAR KLGA 240500Z 13007KT 4SM FUDZ BKN100 BKN200 19/17 A3004 RMK SLP173 T01940172,NA
LGA,1973-06-24T06:00:00Z,-73.8803,40.7794,64.9,62.1,90.64,180,8,NA,30.04,NA,3,NA,   ,   ,   ,   ,NA,NA,NA,NA,NA,NA,NA,NA,NA,NA,NA,64.9,METAR KLGA 240600Z 18008KT 3SM FUDZ SCT007 BKN100 18/17 A3004 RMK SLP173 T01830167,NA
LGA,1973-06-24T07:00:00Z,-73.8803,40.7794,64.9,61.9,90,130,5.04,NA,30.03,NA,3,NA,   ,   ,   ,   ,NA,NA,NA,NA,NA,NA,NA,NA,NA,NA,NA,64.9,METAR KLGA 240700Z 13005KT 3SM FUDZ BKN100 18/17 A3003 RMK SLP169 T01830166,NA
LGA,1973-06-24T08:00:00Z,-73.8803,40.7794,63.9,61.9,93.21,50,3.04,NA,30.03,NA,3,NA,   ,   ,   ,   ,NA,NA,NA,NA,NA,NA,NA,NA,NA,NA,NA,63.9,METAR KLGA 240800Z 05003KT 3SM FUDZ SCT007 BKN100 18/17 A3003 RMK SLP169 T01770166,NA
LGA,1973-06-24T08:14:00Z,-73.8803,40.7794,NA,NA,NA,100,5,NA,30.03,NA,3,NA,BKN,OVC,NA,NA,700,9800,NA,NA,NA,NA,NA,NA,NA,NA,NA,NA,KLGA 240814Z AUTO 10005KT 3SM BKN007 OVC098 A3003 RMK IEM_DS3505,NA
LGA,1973-06-24T09:00:00Z,-73.8803,40.7794,64,61,89.97,120,7.04,NA,30.03,NA,3,NA,   ,   ,   ,   ,NA,NA,NA,NA,NA,NA,NA,NA,NA,NA,NA,64,METAR KLGA 240900Z 12007KT 3SM FUDZ BKN007 OVC100 18/16 A3003 RMK 167 SLP169 T01780161 56003,NA
LGA,1973-06-24T10:00:00Z,-73.8803,40.7794,63.9,61,90.28,90,4,NA,30.04,NA,2,NA,   ,   ,   ,   ,NA,NA,NA,NA,NA,NA,NA,NA,NA,NA,NA,63.9,METAR KLGA 241000Z 09004KT 2SM FUDZ BKN004 OVC100 18/16 A3004 RMK SLP173 T01770161,NA
LGA,1973-06-24T11:00:00Z,-73.8803,40.7794,63.9,61,90.28,210,4,NA,30.05,NA,2,NA,   ,   ,   ,   ,NA,NA,NA,NA,NA,NA,NA,NA,NA,NA,NA,63.9,METAR KLGA 241100Z 21004KT 2SM FUDZ BKN004 OVC100 18/16 A3005 RMK SLP176 T01770161,NA
LGA,1973-06-24T12:00:00Z,-73.8803,40.7794,64,61,89.97,180,5.04,NA,30.05,NA,2,NA,   ,   ,   ,   ,NA,NA,NA,NA,NA,NA,NA,NA,NA,NA,NA,64,METAR KLGA 241200Z 19005KT 2SM FGFU OVC004 18/16 A3005 RMK SLP176 T01780161,NA
LGA,1973-06-24T13:00:00Z,-73.8803,40.7794,66.9,61.9,83.96,180,4,NA,30.05,NA,3,NA,   ,   ,   ,   ,NA,NA,NA,NA,NA,NA,NA,NA,NA,NA,NA,66.9,METAR KLGA 241300Z 19004KT 3SM FUDZ BKN007 19/17 A3005 RMK VA SLP176 T01940166,NA
LGA,1973-06-24T14:00:00Z,-73.8803,40.7794,68,61.9,80.84,70,3.04,NA,30.06,NA,3,NA,   ,   ,   ,   ,NA,NA,NA,NA,NA,NA,NA,NA,NA,NA,NA,68,METAR KLGA 241400Z 06003KT 3SM FUDZ SCT008 20/17 A3006 RMK SLP180 T02000166,NA
LGA,1973-06-24T15:00:00Z,-73.8803,40.7794,71.1,63,75.58,50,6,NA,30.05,NA,5,NA,   ,   ,   ,   ,NA,NA,NA,NA,NA,NA,NA,NA,NA,NA,NA,71.1,METAR KLGA 241500Z 05006KT 5SM FUDZ SCT010 22/17 A3005 RMK SLP176 8/600 T02170172 50000,NA
LGA,1973-06-24T16:00:00Z,-73.8803,40.7794,73.94,62.96,68.57,200,6,NA,30.05,1017.6,6,NA,SCT,   ,   ,   ,25000,NA,NA,NA,DZ,NA,NA,NA,NA,NA,NA,73.94,METAR KLGA 241600Z 20006KT 6SM DZ SCT250 23/17 A3005 RMK SLP176 T02330172,NA
LGA,1973-06-24T17:00:00Z,-73.8803,40.7794,74.84,62.96,66.53,220,10,NA,30.05,1017.6,7,NA,SCT,   ,   ,   ,25000,NA,NA,NA,NA,NA,NA,NA,NA,NA,NA,74.84,METAR KLGA 241700Z 22010KT 7SM SCT250 24/17 A3005 RMK SLP176 T02380172,NA
LGA,1973-06-24T18:00:00Z,-73.8803,40.7794,75.92,60.98,59.84,160,8,NA,30.03,1016.9,8,NA,FEW,   ,   ,   ,25000,NA,NA,NA,NA,NA,NA,NA,NA,NA,NA,75.92,METAR KLGA 241800Z 16008KT 8SM FEW250 24/16 A3003 RMK SLP169 T02440161,NA
LGA,1973-06-24T19:00:00Z,-73.8803,40.7794,75.92,61.88,61.78,180,10,NA,30.02,1016.6,8,NA,BKN,   ,   ,   ,25000,NA,NA,NA,NA,NA,NA,NA,NA,NA,NA,75.92,METAR KLGA 241900Z 18010KT 8SM BKN250 24/17 A3002 RMK SLP166 T02440166,NA
LGA,1973-06-24T21:00:00Z,-73.8803,40.7794,73.04,62.06,68.47,170,10,NA,30.02,1016.6,8,NA,BKN,   ,   ,   ,NA,NA,NA,NA,NA,NA,NA,NA,NA,NA,NA,73.04,METAR KLGA 242100Z 17010KT 8SM BKN/// 23/17 A//// RMK SLP166 T02280167,NA
LGA,1973-06-25T00:00:00Z,-73.8803,40.7794,71.06,62.96,75.57,140,8,NA,30.01,1016.3,7,NA,SCT,BKN,   ,   ,8000,25000,NA,NA,NA,NA,NA,NA,NA,NA,NA,71.06,METAR KLGA 250000Z 14008KT 7SM SCT080 BKN250 22/17 A3001 RMK VA SLP163 T02170172,NA
LGA,1973-06-25T01:00:00Z,-73.8803,40.7794,68.9,61.88,78.32,170,5,NA,30.02,1016.6,7,NA,BKN,OVC,   ,   ,8000,20000,NA,NA,NA,NA,NA,NA,NA,NA,NA,68.9,METAR KLGA 250100Z 17005KT 7SM BKN080 OVC200 20/17 A3002 RMK VA SLP166 T02050166,NA
LGA,1973-06-25T02:00:00Z,-73.8803,40.7794,68,61.88,80.78,180,7,NA,30.03,1016.9,7,NA,BKN,OVC,   ,   ,8000,20000,NA,NA,NA,NA,NA,NA,NA,NA,NA,68,METAR KLGA 250200Z 18007KT 7SM BKN080 OVC200 20/17 A3003 RMK VA SLP169 T02000166,NA
LGA,1973-06-25T02:26:00Z,-73.8803,40.7794,NA,NA,NA,170,9,NA,30.03,NA,7,NA,BKN,BKN,OVC,NA,1200,4400,7900,NA,NA,NA,NA,NA,NA,NA,NA,NA,KLGA 250226Z AUTO 17009KT 7SM BKN012 BKN044 OVC079 A3003 RMK IEM_DS3505,NA
LGA,1973-06-25T03:00:00Z,-73.8803,40.7794,66.92,60.98,81.22,160,6,NA,30.03,1016.9,7,NA,BKN,OVC,   ,   ,1200,4500,NA,NA,NA,NA,NA,NA,NA,NA,NA,66.92,METAR KLGA 250300Z 16006KT 7SM BKN012 OVC045 19/16 A3003 RMK BINOVC 15//VA SLP169 T01940161 51007,NA
LGA,1973-06-25T04:00:00Z,-73.8803,40.7794,65.84,60.98,84.32,180,6,NA,30.03,1016.9,7,NA,BKN,BKN,   ,   ,1200,4500,NA,NA,NA,NA,NA,NA,NA,NA,NA,65.84,METAR KLGA 250400Z 18006KT 7SM BKN012 BKN045 19/16 A3003 RMK SLP169 T01880161,NA
LGA,1973-06-25T05:00:00Z,-73.8803,40.7794,65.84,59.9,81.14,190,6,NA,30.03,1016.9,7,NA,BKN,BKN,   ,   ,1100,8000,NA,NA,NA,NA,NA,NA,NA,NA,NA,65.84,METAR KLGA 250500Z 19006KT 7SM BKN011 BKN080 19/16 A3003 RMK LGA6/13 SLP169 T01880155,NA
LGA,1973-06-25T06:00:00Z,-73.8803,40.7794,66.02,60.08,81.15,240,3,NA,30.03,1016.9,7,NA,BKN,BKN,   ,   ,1100,8000,NA,NA,NA,NA,NA,NA,NA,NA,NA,66.02,METAR KLGA 250600Z 24003KT 7SM BKN011 BKN080 19/16 A3003 RMK LGA6/13 SLP169 T01890156,NA
LGA,1973-06-25T07:00:00Z,-73.8803,40.7794,64.94,60.98,87,60,5,NA,30.03,1016.9,7,NA,BKN,BKN,OVC,   ,1200,3000,8000,NA,NA,NA,NA,NA,NA,NA,NA,64.94,METAR KLGA 250700Z 06005KT 7SM BKN012 BKN030 OVC080 18/16 A3003 RMK LGA6/13 SLP169 T01830161,NA
LGA,1973-06-25T08:00:00Z,-73.8803,40.7794,64.94,60.98,87,50,4,NA,30.03,1016.9,6,NA,BKN,OVC,   ,   ,1100,3000,NA,NA,DZ,NA,NA,NA,NA,NA,NA,64.94,METAR KLGA 250800Z 05004KT 6SM DZ BKN011 OVC030 18/16 A3003 RMK LGA6/13 SLP169 T01830161,NA
LGA,1973-06-25T09:00:00Z,-73.8803,40.7794,64.94,60.98,87,60,5,NA,30.02,1016.6,6,NA,BKN,OVC,   ,   ,1100,3000,NA,NA,DZ,NA,NA,NA,NA,NA,NA,64.94,METAR KLGA 250900Z 06005KT 6SM DZ BKN011 OVC030 18/16 A3002 RMK / 15//LGA6/13 SLP166 T01830161 58003,NA
LGA,1973-06-25T12:00:00Z,-73.8803,40.7794,66,61,83.91,30,7.04,NA,30.04,NA,4,NA,   ,   ,   ,   ,NA,NA,NA,NA,NA,NA,NA,NA,NA,NA,NA,66,METAR KLGA 251200Z 03007KT 4SM FUDZ OVC/// 19/16 A3004 RMK SLP173 T01890161,NA
LGA,1973-06-25T13:00:00Z,-73.8803,40.7794,66.92,61.88,83.85,70,7,NA,30.05,1017.6,3,NA,OVC,   ,   ,   ,1200,NA,NA,NA,DZ,NA,NA,NA,NA,NA,NA,66.92,METAR KLGA 251300Z 07007KT 3SM DZ OVC012 19/17 A3005 RMK SLP176 T01940166,NA
LGA,1973-06-25T14:00:00Z,-73.8803,40.7794,66.92,61.88,83.85,30,10,NA,30.05,1017.6,2.5,NA,OVC,   ,   ,   ,1000,NA,NA,NA,DZ,NA,NA,NA,NA,NA,NA,66.92,METAR KLGA 251400Z 03010KT 21/2SM DZ OVC010 19/17 A3005 RMK SLP176 T01940166,NA
LGA,1973-06-25T15:00:00Z,-73.8803,40.7794,68,62.96,83.91,30,7,NA,30.04,1017.3,2.5,NA,OVC,   ,   ,   ,1100,NA,NA,NA,DZ,NA,NA,NA,NA,NA,NA,68,METAR KLGA 251500Z 03007KT 21/2SM DZ OVC011 20/17 A3004 RMK OCNL THN SPOTS IOVC/000 SLP173 8/6// T02000172,NA
LGA,1973-06-25T16:00:00Z,-73.8803,40.7794,68.9,62.96,81.36,40,8,NA,30.04,1017.3,2.5,NA,SCT,OVC,   ,   ,1100,1700,NA,NA,DZ,NA,NA,NA,NA,NA,NA,68.9,METAR KLGA 251600Z 04008KT 21/2SM DZ SCT011 OVC017 20/17 A3004 RMK VNA SLP173 T02050172,NA
LGA,1973-06-25T17:00:00Z,-73.8803,40.7794,70.88,62.96,76.04,50,9,NA,30.04,1017.3,2.5,NA,BKN,   ,   ,   ,1800,NA,NA,NA,DZ,NA,NA,NA,NA,NA,NA,70.88,METAR KLGA 251700Z 05009KT 21/2SM DZ BKN018 22/17 A3004 RMK VNA SLP173 T02160172,NA
LGA,1973-06-25T18:00:00Z,-73.8803,40.7794,73.04,64.04,73.41,60,6,NA,30.03,1016.9,3,NA,SCT,BKN,   ,   ,2200,25000,NA,NA,DZ,NA,NA,NA,NA,NA,NA,73.04,METAR KLGA 251800Z 06006KT 3SM DZ SCT022 BKN250 23/18 A3003 RMK SFC VSBY 3/VNA SLP169 T02280178,NA
LGA,1973-06-25T19:00:00Z,-73.8803,40.7794,73.94,63.86,70.77,60,6,NA,30.03,1016.9,2.5,NA,OVC,SCT,BKN,   ,NA,2400,25000,NA,DZ,NA,NA,NA,NA,NA,NA,73.94,METAR KLGA 251900Z 06006KT 21/2SM DZ OVC/// SCT024 BKN250 23/18 A3003 RMK H2/SFC VSBY 3/VNA SLP169 T02330177,NA
LGA,1973-06-25T20:00:00Z,-73.8803,40.7794,74.84,63.86,68.67,20,8,NA,30.02,1016.6,2.5,NA,BKN,BKN,   ,   ,2500,25000,NA,NA,DZ,NA,NA,NA,NA,NA,NA,74.84,METAR KLGA 252000Z 02008KT 21/2SM DZ BKN025 BKN250 24/18 A3002 RMK SFC VSBY3 SLP166 T02380177,NA
LGA,1973-06-25T20:15:00Z,-73.8803,40.7794,NA,NA,NA,280,6,NA,30.03,1016.9,4,NA,BKN,OVC,NA,NA,2500,24600,NA,NA,NA,NA,NA,NA,NA,NA,NA,NA,KLGA 252015Z AUTO 28006KT 4SM BKN025 OVC246 A3003 RMK SLP169 IEM_DS3505,NA
LGA,1973-06-25T21:00:00Z,-73.8803,40.7794,75.92,64.94,68.78,130,5,NA,30.01,1016.3,5,NA,SCT,OVC,   ,   ,NA,NA,NA,NA,DZ,NA,NA,NA,NA,NA,NA,75.92,METAR KLGA 252100Z 13005KT 5SM DZ SCT/// OVC/// 24/18 A//// RMK SLP163 T02440183,NA
LGA,1973-06-25T22:00:00Z,-73.8803,40.7794,72.86,63.86,73.39,150,9,NA,30.01,1016.3,7,NA,SCT,BKN,   ,   ,2500,25000,NA,NA,NA,NA,NA,NA,NA,NA,NA,72.86,METAR KLGA 252200Z 15009KT 7SM SCT025 BKN250 23/18 A3001 RMK SLP163 T02270177,NA
LGA,1973-06-25T23:00:00Z,-73.8803,40.7794,71.96,63.86,75.66,160,8,NA,30.01,1016.3,7,NA,BKN,   ,   ,   ,25000,NA,NA,NA,NA,NA,NA,NA,NA,NA,NA,71.96,METAR KLGA 252300Z 16008KT 7SM BKN250 22/18 A3001 RMK FEW SC SLP163 T02220177,NA
LGA,1973-06-26T00:00:00Z,-73.8803,40.7794,71.06,62.96,75.57,180,9,NA,30.01,1016.3,7,NA,BKN,   ,   ,   ,25000,NA,NA,NA,NA,NA,NA,NA,NA,NA,NA,71.06,METAR KLGA 260000Z 18009KT 7SM BKN250 22/17 A3001 RMK VA SLP163 T02170172,NA
LGA,1973-06-26T01:00:00Z,-73.8803,40.7794,69.98,61.88,75.48,180,8,NA,30.01,1016.3,7,NA,SCT,   ,   ,   ,25000,NA,NA,NA,NA,NA,NA,NA,NA,NA,NA,69.98,METAR KLGA 260100Z 18008KT 7SM SCT250 21/17 A3001 RMK VALGA 6/14 OM 4 OTS SLP163 T02110166,NA
LGA,1973-06-26T02:00:00Z,-73.8803,40.7794,66.92,61.88,83.85,180,9,NA,30.04,1017.3,7,NA,SCT,   ,   ,   ,25000,NA,NA,NA,NA,NA,NA,NA,NA,NA,NA,66.92,METAR KLGA 260200Z 18009KT 7SM SCT250 19/17 A3004 RMK VALGA6/14 SLP173 T01940166,NA
LGA,1973-06-26T03:00:00Z,-73.8803,40.7794,64.94,60.98,87,150,7,NA,30.04,1017.3,5,NA,BKN,   ,   ,   ,25000,NA,NA,NA,DZ,NA,NA,NA,NA,NA,NA,64.94,METAR KLGA 260300Z 15007KT 5SM DZ BKN250 18/16 A3004 RMK 1006LGA6/14 SLP173 T01830161 53010,NA
LGA,1973-06-26T04:00:00Z,-73.8803,40.7794,64.94,60.98,87,130,8,NA,30.04,1017.3,4,NA,BKN,OVC,   ,   ,600,25000,NA,NA,DZ,NA,NA,NA,NA,NA,NA,64.94,METAR KLGA 260400Z 13008KT 4SM DZ BKN006 OVC250 18/16 A3004 RMK LGA6/14 SLP173 T01830161,NA
LGA,1973-06-26T05:00:00Z,-73.8803,40.7794,64.94,60.98,87,130,7,NA,30.05,1017.6,4,NA,BKN,OVC,   ,   ,600,25000,NA,NA,DZ,NA,NA,NA,NA,NA,NA,64.94,METAR KLGA 260500Z 13007KT 4SM DZ BKN006 OVC250 18/16 A3005 RMK SLP176 T01830161,NA
LGA,1973-06-26T06:00:00Z,-73.8803,40.7794,64.04,60.98,89.78,150,6,NA,30.07,1018.3,4,NA,OVC,   ,   ,   ,600,NA,NA,NA,DZ,NA,NA,NA,NA,NA,NA,64.04,METAR KLGA 260600Z 15006KT 4SM DZ OVC006 18/16 A3007 RMK SLP183 T01780161,NA
LGA,1973-06-26T07:00:00Z,-73.8803,40.7794,63.86,60.98,90.35,0,0,NA,30.06,1018,4,NA,OVC,   ,   ,   ,600,NA,NA,NA,DZ,NA,NA,NA,NA,NA,NA,63.86,METAR KLGA 260700Z 00000KT 4SM DZ OVC006 18/16 A3006 RMK SLP180 T01770161,NA
LGA,1973-06-26T08:00:00Z,-73.8803,40.7794,63.86,60.98,90.35,40,6,NA,30.06,1018,4,NA,OVC,   ,   ,   ,500,NA,NA,NA,DZ,NA,NA,NA,NA,NA,NA,63.86,METAR KLGA 260800Z 04006KT 4SM DZ OVC005 18/16 A3006 RMK SLP180 T01770161,NA
LGA,1973-06-26T09:00:00Z,-73.8803,40.7794,64.04,60.98,89.78,20,5,NA,30.06,1018,4,NA,OVC,   ,   ,   ,500,NA,NA,NA,DZ,NA,NA,NA,NA,NA,NA,64.04,METAR KLGA 260900Z 02005KT 4SM DZ OVC005 18/16 A3006 RMK SLP180 8/6// T01780161 56003,NA
LGA,1973-06-26T10:00:00Z,-73.8803,40.7794,63.86,60.98,90.35,10,5,NA,30.08,1018.6,4,NA,OVC,   ,   ,   ,500,NA,NA,NA,DZ,NA,NA,NA,NA,NA,NA,63.86,METAR KLGA 261000Z 01005KT 4SM DZ OVC005 18/16 A3008 RMK SLP186 T01770161,NA
LGA,1973-06-26T10:33:00Z,-73.8803,40.7794,NA,NA,NA,60,5,NA,30.08,NA,3,NA,BKN,OVC,NA,NA,200,500,NA,NA,NA,NA,NA,NA,NA,NA,NA,NA,KLGA 261033Z AUTO 06005KT 3SM BKN002 OVC005 A3008 RMK IEM_DS3505,NA
LGA,1973-06-26T11:00:00Z,-73.8803,40.7794,63.9,61.9,93.21,50,6,NA,30.08,NA,2,NA,   ,   ,   ,   ,NA,NA,NA,NA,NA,NA,NA,NA,NA,NA,NA,63.9,METAR KLGA 261100Z 05006KT 2SM FGDZ SCT002 OVC005 18/17 A3008 RMK SLP186 T01770166,NA
LGA,1973-06-26T12:00:00Z,-73.8803,40.7794,64.9,62.1,90.64,20,5.04,NA,30.09,NA,2,NA,   ,   ,   ,   ,NA,NA,NA,NA,NA,NA,NA,NA,NA,NA,NA,64.9,METAR KLGA 261200Z 02005KT 2SM FGDZ SCT003 OVC006 18/17 A3009 RMK SLP190 T01830167,NA
LGA,1973-06-26T13:00:00Z,-73.8803,40.7794,66.9,63,87.28,70,7.04,NA,30.09,NA,2,NA,   ,   ,   ,   ,NA,NA,NA,NA,NA,NA,NA,NA,NA,NA,NA,66.9,METAR KLGA 261300Z 06007KT 2SM FGDZ SCT005 OVC010 19/17 A3009 RMK %V SLP190 T01940172,NA
LGA,1973-06-26T14:00:00Z,-73.8803,40.7794,68,61.9,80.84,40,9.04,NA,30.09,NA,2,NA,   ,   ,   ,   ,NA,NA,NA,NA,NA,NA,NA,NA,NA,NA,NA,68,METAR KLGA 261400Z 04009KT 2SM FGDZ OVC010 20/17 A3009 RMK FEW LWR CLDS SLP190 T02000166,NA
LGA,1973-06-26T15:00:00Z,-73.8803,40.7794,69.98,62.96,78.41,30,9,NA,30.09,1019,2,NA,OVC,   ,   ,   ,1500,NA,NA,NA,DZ,NA,NA,NA,NA,NA,NA,69.98,METAR KLGA 261500Z 03009KT 2SM DZ OVC015 21/17 A3009 RMK / SLP190 8/6// T02110172 54000,NA
LGA,1973-06-26T16:00:00Z,-73.8803,40.7794,70.88,63.86,78.48,60,7,NA,30.09,1019,2,NA,BKN,   ,   ,   ,1800,NA,NA,NA,DZ,NA,NA,NA,NA,NA,NA,70.88,METAR KLGA 261600Z 06007KT 2SM DZ BKN018 22/18 A3009 RMK / SUN DIMLY VSB SLP190 T02160177,NA
LGA,1973-06-26T17:00:00Z,-73.8803,40.7794,72.86,63.86,73.39,130,8,NA,30.1,1019.3,2,NA,BKN,OVC,   ,   ,2000,3000,NA,NA,DZ,NA,NA,NA,NA,NA,NA,72.86,METAR KLGA 261700Z 13008KT 2SM DZ BKN020 OVC030 23/18 A3010 RMK SFC VSBY 21/2 SLP193 T02270177,NA
LGA,1973-06-26T18:00:00Z,-73.8803,40.7794,73.94,64.94,73.49,120,6,NA,30.09,1019,2.5,NA,BKN,OVC,   ,   ,2500,25000,NA,NA,DZ,NA,NA,NA,NA,NA,NA,73.94,METAR KLGA 261800Z 12006KT 21/2SM DZ BKN025 OVC250 23/18 A3009 RMK SLP190 T02330183,NA
LGA,1973-06-26T19:00:00Z,-73.8803,40.7794,75.92,65.84,70.97,160,6,NA,30.08,1018.6,2.5,NA,OVC,SCT,BKN,   ,NA,2500,25000,NA,DZ,NA,NA,NA,NA,NA,NA,75.92,METAR KLGA 261900Z 16006KT 21/2SM DZ OVC/// SCT025 BKN250 24/19 A3008 RMK H2 SLP186 T02440188,NA
LGA,1973-06-26T20:00:00Z,-73.8803,40.7794,77,64.94,66.36,180,9,NA,30.07,1018.3,3,NA,OVC,SCT,   ,   ,NA,2500,NA,NA,DZ,NA,NA,NA,NA,NA,NA,77,METAR KLGA 262000Z 18009KT 3SM DZ OVC/// SCT025 25/18 A3007 RMK / H1 SLP183 T02500183,NA
LGA,1973-06-26T21:00:00Z,-73.8803,40.7794,78.08,64.94,64.03,210,10,NA,30.06,1018,3,NA,OVC,SCT,   ,   ,NA,2500,NA,NA,DZ,NA,NA,NA,NA,NA,NA,78.08,METAR KLGA 262100Z 21010KT 3SM DZ OVC/// SCT025 26/18 A3006 RMK H1/ SLP180 8/100 T02560183 57010,NA
LGA,1973-06-26T22:00:00Z,-73.8803,40.7794,73.94,63.86,70.77,170,10,NA,30.06,1018,6,NA,SCT,   ,   ,   ,25000,NA,NA,NA,DZ,NA,NA,NA,NA,NA,NA,73.94,METAR KLGA 262200Z 17010KT 6SM DZ SCT250 23/18 A3006 RMK VA SLP180 T02330177,NA
LGA,1973-06-26T23:00:00Z,-73.8803,40.7794,72.86,63.86,73.39,120,11,NA,30.05,1017.6,7,NA,OVC,   ,   ,   ,25000,NA,NA,NA,NA,NA,NA,NA,NA,NA,NA,72.86,METAR KLGA 262300Z 12011KT 7SM OVC250 23/18 A3005 RMK VA SLP176 T02270177,NA
LGA,1973-06-27T00:00:00Z,-73.8803,40.7794,69.98,62.96,78.41,170,9,NA,30.06,1018,7,NA,SCT,OVC,   ,   ,800,25000,NA,NA,NA,NA,NA,NA,NA,NA,NA,69.98,METAR KLGA 270000Z 17009KT 7SM SCT008 OVC250 21/17 A3006 RMK VA SLP180 T02110172,NA
LGA,1973-06-27T00:01:00Z,-73.8803,40.7794,NA,NA,NA,190,12,NA,30.06,NA,7,NA,BKN,OVC,NA,NA,800,24600,NA,NA,NA,NA,NA,NA,NA,NA,NA,NA,KLGA 270001Z AUTO 19012KT 7SM BKN008 OVC246 A3006 RMK IEM_DS3505,NA
LGA,1973-06-27T00:11:00Z,-73.8803,40.7794,NA,NA,NA,170,13,NA,30.06,NA,7,NA,SCT,BKN,OVC,NA,800,1100,24600,NA,NA,NA,NA,NA,NA,NA,NA,NA,KLGA 270011Z AUTO 17013KT 7SM SCT008 BKN011 OVC246 A3006 RMK IEM_DS3505,NA
LGA,1973-06-27T01:00:00Z,-73.8803,40.7794,68,63.86,86.61,160,9,NA,30.07,1018.4,6,NA,BKN,OVC,   ,   ,600,800,NA,NA,FG,NA,NA,NA,NA,NA,NA,68,METAR KLGA 270100Z 16009KT 6SM FG BKN006 OVC008 20/18 A3007 RMK UA 0030 SLP184 T02000177,NA
LGA,1973-06-27T02:00:00Z,-73.8803,40.7794,66.92,63.86,89.9,180,9,NA,30.08,1018.6,5,NA,OVC,   ,   ,   ,500,NA,NA,NA,-DZ FG,NA,NA,NA,NA,NA,NA,66.92,METAR KLGA 270200Z 18009KT 5SM -DZ FG OVC005 19/18 A3008 RMK CIG 5V4 LB45LGA 6/15 OM 4 OTS SLP186 T01940177,NA
LGA,1973-06-27T02:09:00Z,-73.8803,40.7794,NA,NA,NA,160,8,NA,30.08,NA,5,NA,SCT,OVC,NA,NA,300,400,NA,NA,NA,NA,NA,NA,NA,NA,NA,NA,KLGA 270209Z AUTO 16008KT 5SM SCT003 OVC004 A3008 RMK IEM_DS3505,NA
LGA,1973-06-27T03:00:00Z,-73.8803,40.7794,68,64.94,89.94,160,9,NA,30.09,1019,5,NA,SCT,OVC,   ,   ,300,500,NA,NA,FG,NA,NA,NA,NA,NA,NA,68,METAR KLGA 270300Z 16009KT 5SM FG SCT003 OVC005 20/18 A3009 RMK CIG5V4 LE30 16//LGA6/15 SLP190 71000 T02000183 52010,NA
LGA,1973-06-27T03:27:00Z,-73.8803,40.7794,NA,NA,NA,170,7,NA,30.1,NA,4,NA,OVC,NA,NA,NA,400,NA,NA,NA,NA,NA,NA,NA,NA,NA,NA,NA,KLGA 270327Z AUTO 17007KT 4SM OVC004 A3010 RMK IEM_DS3505,NA
LGA,1973-06-27T04:00:00Z,-73.8803,40.7794,68,64.94,89.94,160,7,NA,30.1,1019.3,3,NA,OVC,   ,   ,   ,400,NA,NA,NA,-DZ FG,NA,NA,NA,NA,NA,NA,68,METAR KLGA 270400Z 16007KT 3SM -DZ FG OVC004 20/18 A3010 RMK CIG4V3 LB25LGA C6/15 SLP193 T02000183,NA
LGA,1973-06-27T05:00:00Z,-73.8803,40.7794,68,64.94,89.94,160,5,NA,30.09,1019,4,NA,OVC,   ,   ,   ,400,NA,NA,NA,FG,NA,NA,NA,NA,NA,NA,68,METAR KLGA 270500Z 16005KT 4SM FG OVC004 20/18 A3009 RMK LE10 SLP190 T02000183,NA
LGA,1973-06-27T06:00:00Z,-73.8803,40.7794,68,64.94,89.94,120,7,NA,30.08,1018.6,3,NA,OVC,   ,   ,   ,200,NA,NA,NA,FG,NA,NA,NA,NA,NA,NA,68,METAR KLGA 270600Z 12007KT 3SM FG OVC002 20/18 A3008 RMK CIG 2V3 SLP186 T02000183,NA
LGA,1973-06-27T06:32:00Z,-73.8803,40.7794,NA,NA,NA,130,5,NA,30.06,NA,2,NA,OVC,NA,NA,NA,200,NA,NA,NA,NA,NA,NA,NA,NA,NA,NA,NA,KLGA 270632Z AUTO 13005KT 2SM OVC002 A3006 RMK IEM_DS3505,NA
LGA,1973-06-27T07:00:00Z,-73.8803,40.7794,68,65.84,92.8,80,5,NA,30.05,1017.6,2,NA,SCT,OVC,   ,   ,200,300,NA,NA,-DZ FG,NA,NA,NA,NA,NA,NA,68,METAR KLGA 270700Z 08005KT 2SM -DZ FG SCT002 OVC003 20/19 A3005 RMK LB45 SLP176 T02000188,NA
LGA,1973-06-27T08:00:00Z,-73.8803,40.7794,68,65.84,92.8,40,6,NA,30.05,1017.6,2,NA,SCT,OVC,   ,   ,200,300,NA,NA,-SHRA FG,NA,NA,NA,NA,NA,NA,68,METAR KLGA 270800Z 04006KT 2SM -SHRA FG SCT002 OVC003 20/19 A3005 RMK SLP176 T02000188,NA
LGA,1973-06-27T09:00:00Z,-73.8803,40.7794,68,66.02,93.38,40,7,NA,30.05,1017.6,2,NA,OVC,OVC,   ,   ,NA,200,NA,NA,-DZ FG,NA,NA,NA,NA,NA,NA,68,METAR KLGA 270900Z 04007KT 2SM -DZ FG OVC/// OVC002 20/19 A3005 RMK F2 CIG2V1/ SLP176 T02000189 56008,NA
LGA,1973-06-27T09:16:00Z,-73.8803,40.7794,NA,NA,NA,50,9,NA,30.05,NA,2,NA,OVC,NA,NA,NA,100,NA,NA,NA,NA,NA,NA,NA,NA,NA,NA,NA,KLGA 270916Z AUTO 05009KT 2SM POB000 OVC001 A3005 RMK IEM_DS3505,NA
LGA,1973-06-27T10:00:00Z,-73.8803,40.7794,66.92,65.84,96.33,40,8,0.03,30.05,1017.6,2,NA,OVC,OVC,   ,   ,NA,200,NA,NA,-DZ FG,NA,NA,NA,NA,NA,NA,66.92,METAR KLGA 271000Z 04008KT 2SM -DZ FG OVC/// OVC002 19/19 A3005 RMK F3 SFC VSBY SLP176 P0003 8/3/4 T01940188,NA
LGA,1973-06-27T11:00:00Z,-73.8803,40.7794,66.92,65.84,96.33,30,6,0.01,30.04,1017.3,2,NA,OVC,OVC,   ,   ,NA,200,NA,NA,FG,NA,NA,NA,NA,NA,NA,66.92,METAR KLGA 271100Z 03006KT 2SM FG OVC/// OVC002 19/19 A3004 RMK F3 LE20 SLP173 P0001 T01940188,NA
LGA,1973-06-27T11:09:00Z,-73.8803,40.7794,NA,NA,NA,40,6,NA,30.04,NA,1.5,NA,SCT,OVC,NA,NA,200,500,NA,NA,NA,NA,NA,NA,NA,NA,NA,NA,KLGA 271109Z AUTO 04006KT 1 1/2SM POB000 SCT002 OVC005 A3004 RMK IEM_DS3505,NA
LGA,1973-06-27T11:23:00Z,-73.8803,40.7794,NA,NA,NA,60,7,NA,30.04,NA,2,NA,OVC,NA,NA,NA,300,NA,NA,NA,NA,NA,NA,NA,NA,NA,NA,NA,KLGA 271123Z AUTO 06007KT 2SM OVC003 A3004 RMK IEM_DS3505,NA
LGA,1973-06-27T12:00:00Z,-73.8803,40.7794,68,66.92,96.34,50,7,NA,30.03,1016.9,2,NA,OVC,   ,   ,   ,300,NA,NA,NA,FG,NA,NA,NA,NA,NA,NA,68,METAR KLGA 271200Z 05007KT 2SM FG OVC003 20/19 A3003 RMK VNA SLP169 60004 70004 T02000194,NA
LGA,1973-06-27T12:13:00Z,-73.8803,40.7794,NA,NA,NA,50,7,NA,30.04,NA,2,NA,SCT,BKN,OVC,NA,300,900,2200,NA,NA,NA,NA,NA,NA,NA,NA,NA,KLGA 271213Z AUTO 05007KT 2SM SCT003 BKN009 OVC022 A3004 RMK IEM_DS3505,NA
LGA,1973-06-27T12:29:00Z,-73.8803,40.7794,NA,NA,NA,40,9,NA,30.04,NA,2.5,NA,BKN,BKN,OVC,NA,200,800,2200,NA,NA,NA,NA,NA,NA,NA,NA,NA,KLGA 271229Z AUTO 04009KT 2 1/2SM BKN002 BKN008 OVC022 A3004 RMK IEM_DS3505,NA
LGA,1973-06-27T13:00:00Z,-73.8803,40.7794,68.9,66.9,93.34,40,9.04,NA,30.03,NA,2,NA,   ,   ,   ,   ,NA,NA,NA,NA,NA,NA,NA,NA,NA,NA,NA,68.9,METAR KLGA 271300Z 04009KT 2SM FGDZ BKN004 OVC008 20/19 A3003 RMK CIG 3V5/VNA SLP169 T02050194,NA
LGA,1973-06-27T13:10:00Z,-73.8803,40.7794,NA,NA,NA,40,9,NA,30.03,NA,2,NA,SCT,BKN,OVC,NA,200,300,800,NA,NA,NA,NA,NA,NA,NA,NA,NA,KLGA 271310Z AUTO 04009KT 2SM SCT002 BKN003 OVC008 A3003 RMK IEM_DS3505,NA
LGA,1973-06-27T13:15:00Z,-73.8803,40.7794,NA,NA,NA,40,9,NA,30.03,NA,1.5,NA,SCT,BKN,OVC,NA,200,300,800,NA,NA,NA,NA,NA,NA,NA,NA,NA,KLGA 271315Z AUTO 04009KT 1 1/2SM SCT002 BKN003 OVC008 A3003 RMK IEM_DS3505,NA
LGA,1973-06-27T13:35:00Z,-73.8803,40.7794,NA,NA,NA,40,10,NA,30.03,NA,2.5,NA,BKN,BKN,OVC,NA,300,800,1300,NA,NA,NA,NA,NA,NA,NA,NA,NA,KLGA 271335Z AUTO 04010KT 2 1/2SM BKN003 BKN008 OVC013 A3003 RMK IEM_DS3505,NA
LGA,1973-06-27T14:18:00Z,-73.8803,40.7794,NA,NA,NA,40,13,NA,30.03,NA,0.5,NA,BKN,OVC,NA,NA,100,300,NA,NA,NA,NA,NA,NA,NA,NA,NA,NA,KLGA 271418Z AUTO 04013KT 1/2SM BKN001 OVC003 A3003 RMK IEM_DS3505,NA
LGA,1973-06-27T15:00:00Z,-73.8803,40.7794,66.92,64.94,93.35,40,11,0.02,30.03,1016.9,0.75,NA,BKN,OVC,   ,   ,100,200,NA,NA,FG,NA,NA,NA,NA,NA,NA,66.92,METAR KLGA 271500Z 04011KT 3/4SM FG BKN001 OVC002 19/18 A3003 RMK R22VR24V34/SFC VSBY 3/4/RB15E40 17// SLP169 P0002 T01940183 411781722 54000,NA
LGA,1973-06-27T15:34:00Z,-73.8803,40.7794,NA,NA,NA,40,11,NA,30.11,NA,2,NA,BKN,OVC,NA,NA,200,400,NA,NA,NA,NA,NA,NA,NA,NA,NA,NA,KLGA 271534Z AUTO 04011KT 2SM BKN002 OVC004 A3011 RMK IEM_DS3505,NA
LGA,1973-06-27T16:00:00Z,-73.8803,40.7794,66.92,64.94,93.35,50,11,0.04,30.01,1016.3,2,NA,BKN,OVC,   ,   ,200,400,NA,NA,-SHRA FG,NA,NA,NA,NA,NA,NA,66.92,METAR KLGA 271600Z 05011KT 2SM -SHRA FG BKN002 OVC004 19/18 A3001 RMK RB05E25B43 SLP163 P0004 T01940183,NA
LGA,1973-06-27T16:02:00Z,-73.8803,40.7794,NA,NA,NA,40,12,NA,30.01,NA,1,NA,BKN,OVC,NA,NA,100,300,NA,NA,NA,NA,NA,NA,NA,NA,NA,NA,KLGA 271602Z AUTO 04012KT 1SM BKN001 OVC003 A3001 RMK IEM_DS3505,NA
LGA,1973-06-27T16:15:00Z,-73.8803,40.7794,NA,NA,NA,60,10,NA,30,NA,2.5,NA,BKN,OVC,NA,NA,200,500,NA,NA,NA,NA,NA,NA,NA,NA,NA,NA,KLGA 271615Z AUTO 06010KT 2 1/2SM BKN002 OVC005 A3000 RMK IEM_DS3505,NA
LGA,1973-06-27T17:00:00Z,-73.8803,40.7794,68,65.84,92.8,50,13,0.02,29.99,1015.6,2.5,NA,BKN,OVC,   ,   ,300,600,NA,NA,FG,NA,NA,NA,NA,NA,NA,68,METAR KLGA 271700Z 05013KT 21/2SM FG BKN003 OVC006 20/19 A2999 RMK RE45 SLP156 P0002 T02000188,NA
LGA,1973-06-27T18:00:00Z,-73.8803,40.7794,68,66.02,93.38,50,12,0.02,29.97,1014.9,3,NA,BKN,OVC,   ,   ,500,700,NA,NA,-SHRA FG,NA,NA,NA,NA,NA,NA,68,METAR KLGA 271800Z 05012KT 3SM -SHRA FG BKN005 OVC007 20/19 A2997 RMK SFC VSBY 3 LB20RB33 SLP149 P0002 60008 T02000189,NA
LGA,1973-06-27T18:09:00Z,-73.8803,40.7794,NA,NA,NA,60,9,NA,29.97,NA,5,NA,SCT,BKN,OVC,NA,300,500,800,NA,NA,NA,NA,NA,NA,NA,NA,NA,KLGA 271809Z AUTO 06009KT 5SM SCT003 BKN005 OVC008 A2997 RMK IEM_DS3505,NA
LGA,1973-06-27T19:00:00Z,-73.8803,40.7794,70,66.9,89.9,70,10,NA,29.95,NA,5,NA,   ,   ,   ,   ,NA,NA,NA,NA,NA,NA,NA,NA,NA,NA,NA,70,METAR KLGA 271900Z 06010KT 5SM FGDZ SCT003 BKN004 OVC008 21/19 A2995 RMK RE05 SLP142 T02110194,NA
LGA,1973-06-27T19:19:00Z,-73.8803,40.7794,NA,NA,NA,70,10,NA,29.93,NA,5,NA,SCT,BKN,OVC,NA,200,300,500,NA,NA,NA,NA,NA,NA,NA,NA,NA,KLGA 271919Z AUTO 07010KT 5SM SCT002 BKN003 OVC005 A2993 RMK IEM_DS3505,NA
LGA,1973-06-27T20:00:00Z,-73.8803,40.7794,72,68.9,89.98,50,8,NA,29.93,NA,4,NA,   ,   ,   ,   ,NA,NA,NA,NA,NA,NA,NA,NA,NA,NA,NA,73.13,METAR KLGA 272000Z 05008KT 4SM -SHRA FGDZ BKN003 OVC005 22/20 A2993 RMK VSBY E21/2 SLP135 T02220205,NA
LGA,1973-06-27T20:15:00Z,-73.8803,40.7794,NA,NA,NA,30,8,NA,29.93,NA,2.5,NA,SCT,BKN,OVC,NA,300,500,7900,NA,NA,NA,NA,NA,NA,NA,NA,NA,KLGA 272015Z AUTO 03008KT 2 1/2SM SCT003 BKN005 OVC079 A2993 RMK IEM_DS3505,NA
LGA,1973-06-27T21:00:00Z,-73.8803,40.7794,72,68,87.24,40,7.04,NA,29.92,NA,3,NA,   ,   ,   ,   ,NA,NA,NA,NA,NA,NA,NA,NA,NA,NA,NA,73,METAR KLGA 272100Z 04007KT 3SM FGDZ SCT005 BKN008 OVC080 22/20 A2992 RMK SFC VSBY SLP132 8/62/ T02220200 57000,NA
LGA,1973-06-27T21:10:00Z,-73.8803,40.7794,NA,NA,NA,20,6,NA,29.92,NA,4,NA,SCT,BKN,OVC,NA,800,3400,7900,NA,NA,NA,NA,NA,NA,NA,NA,NA,KLGA 272110Z AUTO 02006KT 4SM SCT008 BKN034 OVC079 A2992 RMK IEM_DS3505,NA
LGA,1973-06-27T22:00:00Z,-73.8803,40.7794,71.96,66.92,84.16,30,8,NA,29.91,1012.9,8,NA,SCT,SCT,BKN,   ,800,1500,8000,NA,NA,NA,NA,NA,NA,NA,NA,71.96,METAR KLGA 272200Z 03008KT 8SM SCT008 SCT015 BKN080 22/19 A2991 RMK LN TCU SE-SW SLP129 T02220194,NA
LGA,1973-06-27T23:00:00Z,-73.8803,40.7794,70.88,66.92,87.3,30,9,NA,29.91,1012.9,10,NA,SCT,BKN,OVC,   ,600,4000,8000,NA,NA,NA,NA,NA,NA,NA,NA,70.88,METAR KLGA 272300Z 03009KT 10SM SCT006 BKN040 OVC080 22/19 A2991 RMK BINOVC SLP129 T02160194,NA
LGA,1973-06-28T00:00:00Z,-73.8803,40.7794,71.06,66.92,86.77,60,6,NA,29.9,1012.5,10,NA,SCT,SCT,BKN,BKN,NA,NA,NA,NA,NA,NA,NA,NA,NA,NA,NA,71.06,METAR KLGA 280000Z 06006KT 10SM SCT/// SCT/// BKN/// BKN/// 22/19 A2990 RMK SLP125 60001 T02170194,NA
LGA,1973-06-28T01:00:00Z,-73.8803,40.7794,68.9,65.8,89.85,50,5.04,NA,29.91,NA,4,NA,   ,   ,   ,   ,NA,NA,NA,NA,NA,NA,NA,NA,NA,NA,NA,68.9,METAR KLGA 280100Z 05005KT 4SM FGDZ SCT015 SCT100 BKN250 20/19 A2991 RMK VA SLP129 T02050188,NA
LGA,1973-06-28T01:15:00Z,-73.8803,40.7794,NA,NA,NA,360,4,NA,29.92,NA,6,NA,BKN,BKN,BKN,NA,1200,7900,19700,NA,NA,NA,NA,NA,NA,NA,NA,NA,KLGA 280115Z AUTO 36004KT 6SM BKN012 BKN079 BKN197 A2992 RMK IEM_DS3505,NA
LGA,1973-06-28T02:00:00Z,-73.8803,40.7794,70.9,66.9,87.18,180,6,NA,29.92,NA,5,NA,   ,   ,   ,   ,NA,NA,NA,NA,NA,NA,NA,NA,NA,NA,NA,70.9,METAR KLGA 280200Z 18006KT 5SM FGDZ BKN013 BKN080 BKN200 22/19 A2992 RMK VA SLP132 T02160194,NA
LGA,1973-06-28T03:00:00Z,-73.8803,40.7794,69.98,66.02,87.26,180,7,NA,29.92,1013.2,6,NA,SCT,   ,   ,   ,1300,NA,NA,NA,DZ,NA,NA,NA,NA,NA,NA,69.98,METAR KLGA 280300Z 18007KT 6SM DZ SCT013 21/19 A2992 RMK / VA SLP132 8/600 T02110189 51007,NA
LGA,1973-06-28T04:00:00Z,-73.8803,40.7794,68.9,65.84,89.98,170,6,NA,29.92,1013.2,7,NA,SCT,SCT,   ,   ,500,4000,NA,NA,NA,NA,NA,NA,NA,NA,NA,68.9,METAR KLGA 280400Z 17006KT 7SM SCT005 SCT040 20/19 A2992 RMK ST E-SE-S SLP132 T02050188,NA
LGA,1973-06-28T05:00:00Z,-73.8803,40.7794,68.9,65.84,89.98,170,6,NA,29.91,1012.9,7,NA,SCT,BKN,   ,   ,500,4400,NA,NA,NA,NA,NA,NA,NA,NA,NA,68.9,METAR KLGA 280500Z 17006KT 7SM SCT005 BKN044 20/19 A2991 RMK ST E-SE-S SLP129 T02050188,NA
LGA,1973-06-28T06:00:00Z,-73.8803,40.7794,69.08,64.94,86.66,130,6,NA,29.9,1012.5,4,NA,SCT,BKN,   ,   ,500,3400,NA,NA,DZ,NA,NA,NA,NA,NA,NA,69.08,METAR KLGA 280600Z 13006KT 4SM DZ SCT005 BKN034 21/18 A2990 RMK SLP125 T02060183,NA
LGA,1973-06-28T07:00:00Z,-73.8803,40.7794,66.92,64.94,93.35,190,8,NA,29.9,1012.5,4,NA,SCT,OVC,   ,   ,500,3400,NA,NA,DZ,NA,NA,NA,NA,NA,NA,66.92,METAR KLGA 280700Z 19008KT 4SM DZ SCT005 OVC034 19/18 A2990 RMK SLP125 T01940183,NA
LGA,1973-06-28T07:02:00Z,-73.8803,40.7794,NA,NA,NA,140,7,NA,29.9,NA,3,NA,OVC,NA,NA,NA,400,NA,NA,NA,NA,NA,NA,NA,NA,NA,NA,NA,KLGA 280702Z AUTO 14007KT 3SM OVC004 A2990 RMK IEM_DS3505,NA
LGA,1973-06-28T08:00:00Z,-73.8803,40.7794,66.92,65.84,96.33,140,5,NA,29.9,1012.5,3,NA,OVC,   ,   ,   ,400,NA,NA,NA,FG,NA,NA,NA,NA,NA,NA,66.92,METAR KLGA 280800Z 14005KT 3SM FG OVC004 19/19 A2990 RMK SLP125 T01940188,NA
LGA,1973-06-28T09:00:00Z,-73.8803,40.7794,68,66.02,93.38,190,6,0.01,29.89,1012.2,1,NA,OVC,   ,   ,   ,300,NA,NA,NA,FG,NA,NA,NA,NA,NA,NA,68,METAR KLGA 280900Z 19006KT 1SM FG OVC003 20/19 A2989 RMK / RB01E50 R22VR60& SLP122 P0001 8/7// T02000189 58003,NA
LGA,1973-06-28T10:00:00Z,-73.8803,40.7794,68.9,66.92,93.41,180,7,NA,29.9,1012.5,1,NA,OVC,   ,   ,   ,300,NA,NA,NA,FG,NA,NA,NA,NA,NA,NA,68.9,METAR KLGA 281000Z 18007KT 1SM FG OVC003 20/19 A2990 RMK / R22VR60& SLP125 T02050194,NA
LGA,1973-06-28T11:00:00Z,-73.8803,40.7794,69.98,68,93.44,130,7,NA,29.9,1012.5,1,NA,OVC,   ,   ,   ,300,NA,NA,NA,FG,NA,NA,NA,NA,NA,NA,69.98,METAR KLGA 281100Z 13007KT 1SM FG OVC003 21/20 A2990 RMK R22VR55V60& SLP125 T02110200,NA
LGA,1973-06-28T12:00:00Z,-73.8803,40.7794,69.98,69.08,96.97,160,7,NA,29.91,1012.9,2,NA,OVC,   ,   ,   ,300,NA,NA,NA,FG,NA,NA,NA,NA,NA,NA,69.98,METAR KLGA 281200Z 16007KT 2SM FG OVC003 21/21 A2991 RMK LB10 E35 SLP129 60001 70012 T02110206,NA
LGA,1973-06-28T12:29:00Z,-73.8803,40.7794,NA,NA,NA,170,9,NA,29.91,NA,3,NA,BKN,OVC,NA,NA,400,600,NA,NA,NA,NA,NA,NA,NA,NA,NA,NA,KLGA 281229Z AUTO 17009KT 3SM BKN004 OVC006 A2991 RMK IEM_DS3505,NA
LGA,1973-06-28T13:00:00Z,-73.8803,40.7794,71.96,68.9,90.1,170,8,NA,29.91,1012.9,4,NA,SCT,BKN,OVC,   ,500,700,900,NA,FG,NA,NA,NA,NA,NA,NA,73.09,METAR KLGA 281300Z 17008KT 4SM FG SCT005 BKN007 OVC009 22/20 A2991 RMK SLP129 T02220205,NA
LGA,1973-06-28T14:00:00Z,-73.8803,40.7794,73.9,70,87.63,180,9.04,NA,29.9,NA,5,NA,   ,   ,   ,   ,NA,NA,NA,NA,NA,NA,NA,NA,NA,NA,NA,75.11,METAR KLGA 281400Z 17009KT 5SM FGDZ SCT006 BKN008 OVC014 23/21 A2990 RMK SLP125 T02330211,NA
LGA,1973-06-28T14:21:00Z,-73.8803,40.7794,NA,NA,NA,160,10,NA,29.9,NA,2,NA,SCT,BKN,OVC,NA,600,900,1500,NA,NA,NA,NA,NA,NA,NA,NA,NA,KLGA 281421Z AUTO 16010KT 2SM SCT006 BKN009 OVC015 A2990 RMK IEM_DS3505,NA
LGA,1973-06-28T14:35:00Z,-73.8803,40.7794,NA,NA,NA,180,12,NA,29.9,NA,4,NA,BKN,BKN,OVC,NA,600,900,1500,NA,NA,NA,NA,NA,NA,NA,NA,NA,KLGA 281435Z AUTO 18012KT 4SM BKN006 BKN009 OVC015 A2990 RMK IEM_DS3505,NA
LGA,1973-06-28T15:00:00Z,-73.8803,40.7794,71.96,69.08,90.66,190,13,0.06,29.91,1012.9,4,NA,BKN,OVC,   ,   ,500,1000,NA,NA,-SHRA FG,NA,NA,NA,NA,NA,NA,73.12,METAR KLGA 281500Z 19013KT 4SM -SHRA FG BKN005 OVC010 22/21 A2991 RMK / SLP129 P0006 8/7// T02220206 55000,NA
LGA,1973-06-28T15:16:00Z,-73.8803,40.7794,NA,NA,NA,180,7,NA,29.91,NA,4,NA,SCT,BKN,OVC,NA,500,800,1500,NA,NA,NA,NA,NA,NA,NA,NA,NA,KLGA 281516Z AUTO 18007KT 4SM SCT005 BKN008 OVC015 A2991 RMK IEM_DS3505,NA
LGA,1973-06-28T16:00:00Z,-73.8803,40.7794,72.86,69.98,90.69,160,11,0.07,29.9,1012.5,4,NA,SCT,BKN,BKN,   ,900,1500,23000,NA,-SHRA DZ,NA,NA,NA,NA,NA,NA,74.11,METAR KLGA 281600Z 16011KT 4SM -SHRA DZ SCT009 BKN015 BKN230 23/21 A2990 RMK SLP125 P0007 T02270211,NA
LGA,1973-06-28T17:00:00Z,-73.8803,40.7794,74.84,70.88,87.5,180,14,NA,29.89,1012.2,6,NA,OVC,   ,   ,   ,1500,NA,NA,NA,DZ,NA,NA,NA,NA,NA,NA,76.14,METAR KLGA 281700Z 18014KT 6SM DZ OVC015 24/22 A2989 RMK RE1555 BINOVC SLP122 T02380216,NA
LGA,1973-06-28T18:00:00Z,-73.8803,40.7794,78.98,69.98,73.97,180,14,NA,29.86,1011.2,15,NA,SCT,SCT,   ,   ,2000,25000,NA,NA,NA,NA,NA,NA,NA,NA,NA,81.69,METAR KLGA 281800Z 18014KT 15SM SCT020 SCT250 26/21 A2986 RMK VA SLP112 60012 T02610211,NA
LGA,1973-06-28T19:00:00Z,-73.8803,40.7794,79.88,70.88,74.05,160,16,NA,29.85,1010.8,15,NA,SCT,BKN,   ,   ,2000,25000,NA,NA,NA,NA,NA,NA,NA,NA,NA,83.24,METAR KLGA 281900Z 16016KT 15SM SCT020 BKN250 27/22 A2985 RMK TCU E SLP108 T02660216,NA
LGA,1973-06-28T20:00:00Z,-73.8803,40.7794,79.88,70.88,74.05,180,17,NA,29.85,1010.8,15,NA,BKN,BKN,BKN,   ,1800,10000,25000,NA,NA,NA,NA,NA,NA,NA,NA,83.24,METAR KLGA 282000Z 18017KT 15SM BKN018 BKN100 BKN250 27/22 A2985 RMK SLP108 T02660216,NA
LGA,1973-06-28T21:00:00Z,-73.8803,40.7794,78.98,69.98,73.97,190,18,NA,29.84,1010.5,10,NA,BKN,OVC,   ,   ,1800,2500,NA,NA,NA,NA,NA,NA,NA,NA,NA,81.69,METAR KLGA 282100Z 19018KT 10SM BKN018 OVC025 26/21 A2984 RMK BINOVC/707 111111 SLP105 8/8// T02610211,NA
LGA,1973-06-28T22:00:00Z,-73.8803,40.7794,75.92,68.9,78.88,170,15,NA,29.83,1010.2,10,NA,SCT,BKN,   ,   ,1800,2500,NA,NA,NA,NA,NA,NA,NA,NA,NA,75.92,METAR KLGA 282200Z 17015KT 10SM SCT018 BKN025 24/20 A2983 RMK SLP102 T02440205,NA
LGA,1973-06-28T23:00:00Z,-73.8803,40.7794,74.84,68.9,81.77,160,15,NA,29.84,1010.5,10,NA,SCT,SCT,BKN,   ,1300,2500,15000,NA,NA,NA,NA,NA,NA,NA,NA,75.87,METAR KLGA 282300Z 16015KT 10SM SCT013 SCT025 BKN150 24/20 A2984 RMK SLP105 T02380205,NA
LGA,1973-06-29T00:00:00Z,-73.8803,40.7794,75.02,69.08,81.79,150,14,NA,29.83,1010.2,7,NA,BKN,BKN,BKN,   ,1200,2500,20000,NA,NA,NA,NA,NA,NA,NA,NA,76.07,METAR KLGA 290000Z 15014KT 7SM BKN012 BKN025 BKN200 24/21 A2983 RMK SLP102 T02390206,NA
LGA,1973-06-29T01:00:00Z,-73.8803,40.7794,75.92,68.9,78.88,180,13,NA,29.84,1010.5,6,NA,BKN,BKN,OVC,   ,900,1800,20000,NA,DZ,NA,NA,NA,NA,NA,NA,75.92,METAR KLGA 290100Z 18013KT 6SM DZ BKN009 BKN018 OVC200 24/20 A2984 RMK SLP105 T02440205,NA
LGA,1973-06-29T02:00:00Z,-73.8803,40.7794,74.84,68.9,81.77,130,13,NA,29.85,1010.8,5,NA,BKN,OVC,   ,   ,900,2000,NA,NA,DZ,NA,NA,NA,NA,NA,NA,75.87,METAR KLGA 290200Z 13013KT 5SM DZ BKN009 OVC020 24/20 A2985 RMK SLP108 T02380205,NA
LGA,1973-06-29T03:00:00Z,-73.8803,40.7794,73.94,68,81.71,160,12,NA,29.86,1011.2,5,NA,BKN,OVC,   ,   ,900,1600,NA,NA,DZ,NA,NA,NA,NA,NA,NA,73.94,METAR KLGA 290300Z 16012KT 5SM DZ BKN009 OVC016 23/20 A2986 RMK / SLP112 8/6// T02330200 51008,NA
LGA,1973-06-29T04:00:00Z,-73.8803,40.7794,73.94,68.9,84.28,120,8,NA,29.84,1010.5,5,NA,BKN,OVC,   ,   ,800,2000,NA,NA,DZ,NA,NA,NA,NA,NA,NA,75,METAR KLGA 290400Z 12008KT 5SM DZ BKN008 OVC020 23/20 A2984 RMK / CIG 7V9 SLP105 T02330205,NA
LGA,1973-06-29T05:00:00Z,-73.8803,40.7794,72.86,68.9,87.4,150,12,NA,29.84,1010.5,5,NA,BKN,OVC,   ,   ,700,2000,NA,NA,DZ,NA,NA,NA,NA,NA,NA,73.95,METAR KLGA 290500Z 15012KT 5SM DZ BKN007 OVC020 23/20 A2984 RMK SLP105 T02270205,NA
LGA,1973-06-29T06:00:00Z,-73.8803,40.7794,73.04,69.08,87.41,150,10,NA,29.83,1010.2,6,NA,BKN,OVC,   ,   ,700,2000,NA,NA,DZ,NA,NA,NA,NA,NA,NA,74.15,METAR KLGA 290600Z 15010KT 6SM DZ BKN007 OVC020 23/21 A2983 RMK BINOVC SLP102 T02280206,NA
LGA,1973-06-29T07:00:00Z,-73.8803,40.7794,72.86,68.9,87.4,150,10,NA,29.8,1009.1,5,NA,BKN,OVC,   ,   ,600,1500,NA,NA,DZ,NA,NA,NA,NA,NA,NA,73.95,METAR KLGA 290700Z 15010KT 5SM DZ BKN006 OVC015 23/20 A2980 RMK BINOVC SLP091 T02270205,NA
LGA,1973-06-29T08:00:00Z,-73.8803,40.7794,72.86,68.9,87.4,150,13,NA,29.79,1008.8,5,NA,BKN,OVC,   ,   ,600,1500,NA,NA,DZ,NA,NA,NA,NA,NA,NA,73.95,METAR KLGA 290800Z 15013KT 5SM DZ BKN006 OVC015 23/20 A2979 RMK BINOVC SLP088 T02270205,NA
LGA,1973-06-29T09:00:00Z,-73.8803,40.7794,73.04,69.08,87.41,160,11,NA,29.78,1008.5,5,NA,BKN,OVC,   ,   ,600,1500,NA,NA,DZ,NA,NA,NA,NA,NA,NA,74.15,METAR KLGA 290900Z 16011KT 5SM DZ BKN006 OVC015 23/21 A2978 RMK CIG 6V5 BINOVC/ 5 SLP085 8/6// T02280206,NA
LGA,1973-06-29T10:00:00Z,-73.8803,40.7794,72.86,69.98,90.69,170,11,NA,29.8,1009.1,4,NA,BKN,OVC,   ,   ,400,1000,NA,NA,FG,NA,NA,NA,NA,NA,NA,74.11,METAR KLGA 291000Z 17011KT 4SM FG BKN004 OVC010 23/21 A2980 RMK CIG4V5 SLP091 T02270211,NA
LGA,1973-06-29T10:33:00Z,-73.8803,40.7794,NA,NA,NA,180,13,NA,29.81,NA,5,NA,SCT,BKN,OVC,NA,400,700,1000,NA,NA,NA,NA,NA,NA,NA,NA,NA,KLGA 291033Z AUTO 18013KT 5SM SCT004 BKN007 OVC010 A2981 RMK IEM_DS3505,NA
LGA,1973-06-29T11:00:00Z,-73.8803,40.7794,72.86,69.98,90.69,160,15,NA,29.81,1009.5,5,NA,SCT,BKN,OVC,   ,500,800,2000,NA,FG,NA,NA,NA,NA,NA,NA,74.11,METAR KLGA 291100Z 16015KT 5SM FG SCT005 BKN008 OVC020 23/21 A2981 RMK SLP095 T02270211,NA
LGA,1973-06-29T12:00:00Z,-73.8803,40.7794,75.02,69.98,84.34,190,15,NA,29.82,1009.8,5,NA,SCT,OVC,   ,   ,500,700,NA,NA,FG,NA,NA,NA,NA,NA,NA,76.19,METAR KLGA 291200Z 19015KT 5SM FG SCT005 OVC007 24/21 A2982 RMK SLP098 70012 T02390211,NA
LGA,1973-06-29T13:00:00Z,-73.8803,40.7794,72.86,69.98,90.69,170,10,NA,29.82,1009.8,2,NA,SCT,OVC,   ,   ,400,500,NA,NA,-DZ FG,NA,NA,NA,NA,NA,NA,74.11,METAR KLGA 291300Z 17010KT 2SM -DZ FG SCT004 OVC005 23/21 A2982 RMK RB17 SLP098 T02270211,NA
LGA,1973-06-29T13:07:00Z,-73.8803,40.7794,NA,NA,NA,180,8,NA,29.83,NA,2,NA,OVC,NA,NA,NA,600,NA,NA,NA,NA,NA,NA,NA,NA,NA,NA,NA,KLGA 291307Z AUTO 18008KT 2SM OVC006 A2983 RMK IEM_DS3505,NA
LGA,1973-06-29T14:00:00Z,-73.8803,40.7794,72.86,66.92,81.64,270,6,NA,29.83,1010.2,4,NA,SCT,BKN,OVC,   ,600,1200,1900,NA,-SHRA DZ,NA,NA,NA,NA,NA,NA,72.86,METAR KLGA 291400Z 27006KT 4SM -SHRA DZ SCT006 BKN012 OVC019 23/19 A2983 RMK TWR VSBY 3 LE33RB44 SLP102 T02270194,NA
LGA,1973-06-29T15:00:00Z,-73.8803,40.7794,73.04,69.98,90.14,180,11,0.01,29.83,1010.2,2,NA,BKN,OVC,   ,   ,500,700,NA,NA,-DZ FG,NA,NA,NA,NA,NA,NA,74.28,METAR KLGA 291500Z 18011KT 2SM -DZ FG BKN005 OVC007 23/21 A2983 RMK / RE38LB49/00301 SLP102 P0001 T02280211,NA
LGA,1973-06-29T15:13:00Z,-73.8803,40.7794,NA,NA,NA,180,9,NA,29.83,NA,2,NA,SCT,OVC,NA,NA,500,700,NA,NA,NA,NA,NA,NA,NA,NA,NA,NA,KLGA 291513Z AUTO 18009KT 2SM SCT005 OVC007 A2983 RMK IEM_DS3505,NA
LGA,1973-06-29T16:00:00Z,-73.8803,40.7794,73.94,69.98,87.45,190,10,NA,29.83,1010.2,4,NA,SCT,OVC,   ,   ,500,900,NA,NA,FG,NA,NA,NA,NA,NA,NA,75.14,METAR KLGA 291600Z 19010KT 4SM FG SCT005 OVC009 23/21 A2983 RMK DARK N RB15E25 SLP102 T02330211,NA
LGA,1973-06-29T16:25:00Z,-73.8803,40.7794,NA,NA,NA,170,11,NA,29.83,NA,4,NA,SCT,OVC,NA,NA,600,900,NA,NA,NA,NA,NA,NA,NA,NA,NA,NA,KLGA 291625Z AUTO 17011KT 4SM SCT006 OVC009 A2983 RMK IEM_DS3505,NA
LGA,1973-06-29T17:00:00Z,-73.8803,40.7794,74.84,70.88,87.5,170,31,0.05,29.82,1009.8,4,NA,SCT,BKN,OVC,   ,700,1100,1500,NA,FG,NA,NA,NA,NA,NA,NA,76.14,METAR KLGA 291700Z 17031KT 4SM FG SCT007 BKN011 OVC015 24/22 A2982 RMK TB14E31 OVD N0 2 SLP098 P0005 T02380216 5107/,NA
LGA,1973-06-29T18:00:00Z,-73.8803,40.7794,75.92,71.06,84.92,180,15,NA,29.8,1009.1,5,NA,BKN,BKN,OVC,   ,1100,1400,2500,NA,DZ,NA,NA,NA,NA,NA,NA,77.2,METAR KLGA 291800Z 18015KT 5SM DZ BKN011 BKN014 OVC025 24/22 A2980 RMK LGA6/16 SLP091 60008 T02440217,NA
LGA,1973-06-29T19:00:00Z,-73.8803,40.7794,74.84,69.98,84.85,170,11,NA,29.81,1009.5,4,19,BKN,OVC,   ,   ,1200,3600,NA,NA,-SHRA DZ,NA,NA,NA,NA,NA,NA,76.01,METAR KLGA 291900Z 17011G19KT 4SM -SHRA DZ BKN012 OVC036 24/21 A2981 RMK RB16 SLP095 T02380211,NA
LGA,1973-06-29T20:00:00Z,-73.8803,40.7794,73.94,69.98,87.45,170,12,0.03,29.82,1009.8,4,NA,BKN,OVC,   ,   ,1100,1600,NA,NA,DZ,NA,NA,NA,NA,NA,NA,75.14,METAR KLGA 292000Z 17012KT 4SM DZ BKN011 OVC016 23/21 A2982 RMK RE24 SLP098 P0003 T02330211,NA
LGA,1973-06-29T21:00:00Z,-73.8803,40.7794,73.94,69.08,84.8,130,21,NA,29.82,1009.8,5,NA,BKN,OVC,   ,   ,1200,2000,NA,NA,-SHRA DZ,NA,NA,NA,NA,NA,NA,75.02,METAR KLGA 292100Z 13021KT 5SM -SHRA DZ BKN012 OVC020 23/21 A2982 RMK / RB50 SLP098 8/7// T02330206 51005,NA
LGA,1973-06-29T22:00:00Z,-73.8803,40.7794,72.86,68.9,87.4,140,13,0.01,29.8,1009.1,3,NA,SCT,BKN,BKN,   ,900,2000,10000,NA,DZ,NA,NA,NA,NA,NA,NA,73.95,METAR KLGA 292200Z 14013KT 3SM DZ SCT009 BKN020 BKN100 23/20 A2980 RMK / RE40 SLP091 P0001 T02270205,NA
LGA,1973-06-29T22:06:00Z,-73.8803,40.7794,NA,NA,NA,170,15,NA,29.81,NA,2,NA,BKN,BKN,OVC,NA,900,1600,2500,NA,NA,NA,NA,NA,NA,NA,NA,NA,KLGA 292206Z AUTO 17015KT 2SM BKN009 BKN016 OVC025 A2981 RMK IEM_DS3505,NA
LGA,1973-06-29T22:08:00Z,-73.8803,40.7794,NA,NA,NA,150,14,NA,29.81,NA,1.5,NA,BKN,BKN,OVC,NA,700,1600,2500,NA,NA,NA,NA,NA,NA,NA,NA,NA,KLGA 292208Z AUTO 15014KT 1 1/2SM BKN007 BKN016 OVC025 A2981 RMK IEM_DS3505,NA
LGA,1973-06-29T22:23:00Z,-73.8803,40.7794,NA,NA,NA,160,12,NA,29.81,NA,2,NA,BKN,BKN,OVC,NA,800,1600,2500,NA,NA,NA,NA,NA,NA,NA,NA,NA,KLGA 292223Z AUTO 16012KT 2SM BKN008 BKN016 OVC025 A2981 RMK IEM_DS3505,NA
LGA,1973-06-29T22:31:00Z,-73.8803,40.7794,NA,NA,NA,170,12,NA,29.82,NA,3,NA,SCT,BKN,OVC,NA,800,2000,3500,NA,NA,NA,NA,NA,NA,NA,NA,NA,KLGA 292231Z AUTO 17012KT 3SM SCT008 BKN020 OVC035 A2982 RMK IEM_DS3505,NA
LGA,1973-06-29T23:00:00Z,-73.8803,40.7794,72.9,68.9,87.28,150,8,0.22,29.82,NA,3,NA,   ,   ,   ,   ,NA,NA,NA,NA,NA,NA,NA,NA,NA,NA,NA,73.99,METAR KLGA 292300Z 15008KT 3SM -RA FGDZ BKN012 BKN016 OVC026 23/20 A2982 RMK SLP098 P0022 T02270205,NA
LGA,1973-06-29T23:23:00Z,-73.8803,40.7794,NA,NA,NA,140,12,NA,29.81,NA,2.5,NA,BKN,OVC,NA,NA,600,1500,NA,NA,NA,NA,NA,NA,NA,NA,NA,NA,KLGA 292323Z AUTO 14012KT 2 1/2SM BKN006 OVC015 A2981 RMK IEM_DS3505,NA
LGA,1973-06-30T00:00:00Z,-73.8803,40.7794,73,70,90.32,180,12,0.04,29.81,NA,10.5,NA,   ,   ,   ,   ,NA,NA,NA,NA,NA,NA,NA,NA,NA,NA,NA,74.25,METAR KLGA 300000Z 17012KT 21/2SM FGDZ BKN008 BKN015 OVC026 23/21 A2981 RMK / RE40 SLP095 P0004 60031 T02280211,NA
LGA,1973-06-30T01:00:00Z,-73.8803,40.7794,72.9,68.9,87.28,180,11.04,NA,29.83,NA,10.5,NA,   ,   ,   ,   ,NA,NA,NA,NA,NA,NA,NA,NA,NA,NA,NA,73.99,METAR KLGA 300100Z 17011KT 21/2SM FGDZ BKN008 BKN015 OVC025 23/20 A2983 RMK SLP102 T02270205,NA
LGA,1973-06-30T02:00:00Z,-73.8803,40.7794,72.9,68.9,87.28,180,10,NA,29.84,NA,10.5,NA,   ,   ,   ,   ,NA,NA,NA,NA,NA,NA,NA,NA,NA,NA,NA,73.99,METAR KLGA 300200Z 19010KT 21/2SM FGDZ BKN008 BKN025 OVC060 23/20 A2984 RMK SLP105 T02270205,NA
LGA,1973-06-30T03:00:00Z,-73.8803,40.7794,72,70,93.43,180,9.04,NA,29.84,NA,10.5,NA,   ,   ,   ,   ,NA,NA,NA,NA,NA,NA,NA,NA,NA,NA,NA,73.29,METAR KLGA 300300Z 18009KT 21/2SM -SHRA FGDZ BKN008 OVC025 22/21 A2984 RMK RB38 SLP105 8/7// T02220211 51010,NA
LGA,1973-06-30T04:00:00Z,-73.8803,40.7794,72.9,70,90.63,150,9.04,NA,29.84,NA,10.5,NA,   ,   ,   ,   ,NA,NA,NA,NA,NA,NA,NA,NA,NA,NA,NA,74.15,METAR KLGA 300400Z 15009KT 21/2SM FGDZ SCT005 BKN007 OVC020 23/21 A2984 RMK RE02 SLP105 T02270211,NA
LGA,1973-06-30T04:07:00Z,-73.8803,40.7794,NA,NA,NA,170,8,NA,29.84,NA,3,NA,BKN,BKN,OVC,NA,500,1500,2500,NA,NA,NA,NA,NA,NA,NA,NA,NA,KLGA 300407Z AUTO 17008KT 3SM BKN005 BKN015 OVC025 A2984 RMK IEM_DS3505,NA
LGA,1973-06-30T05:00:00Z,-73.8803,40.7794,72,68.9,89.98,180,8,0.02,29.84,NA,3,NA,   ,   ,   ,   ,NA,NA,NA,NA,NA,NA,NA,NA,NA,NA,NA,73.13,METAR KLGA 300500Z 19008KT 3SM TSRA FGDZ BKN005 OVC015 22/20 A2984 RMK TB40 OVHD LTGCC SLP105 P0002 T02220205,NA
LGA,1973-06-30T05:30:00Z,-73.8803,40.7794,NA,NA,NA,210,9,NA,29.83,NA,3,NA,OVC,NA,NA,NA,500,NA,NA,NA,NA,NA,NA,NA,NA,NA,NA,NA,KLGA 300530Z AUTO 21009KT 3SM OVC005 A2983 RMK IEM_DS3505,NA
LGA,1973-06-30T06:00:00Z,-73.8803,40.7794,71.1,68,89.94,120,8,0.22,29.83,NA,3,NA,   ,   ,   ,   ,NA,NA,NA,NA,NA,NA,NA,NA,NA,NA,NA,72.14,METAR KLGA 300600Z 12008KT 3SM TSRA FGDZ BKN005 OVC030 22/20 A2983 RMK TB06E36 MOVD N PK WND RB 0456 SLP102 P0022 60015 T02170200 5107/,NA
LGA,1973-06-30T08:00:00Z,-73.8803,40.7794,72,68.9,89.98,160,11.04,0.16,29.8,NA,3,NA,   ,   ,   ,   ,NA,NA,NA,NA,NA,NA,NA,NA,NA,NA,NA,73.13,METAR KLGA 300800Z 16011KT 3SM -SHRA FGDZ BKN009 OVC026 22/20 A2980 RMK SLP091 P0016 T02220205,NA
LGA,1973-06-30T08:05:00Z,-73.8803,40.7794,NA,NA,NA,140,14,NA,29.8,NA,3,NA,BKN,BKN,OVC,NA,700,1300,2600,NA,NA,NA,NA,NA,NA,NA,NA,NA,KLGA 300805Z AUTO 14014KT 3SM BKN007 BKN013 OVC026 A2980 RMK IEM_DS3505,NA
LGA,1973-06-30T09:00:00Z,-73.8803,40.7794,70,66,87.14,180,12,0.08,29.81,NA,3,NA,   ,   ,   ,   ,NA,NA,NA,NA,NA,NA,NA,NA,NA,NA,NA,70,METAR KLGA 300900Z 18012KT 3SM -SHRA FGDZ BKN009 OVC026 21/19 A2981 RMK TB03E34 MOVD N PK WND 50731 14// SLP095 P0008 T02110189 5104/,NA
LGA,1973-06-30T10:00:00Z,-73.8803,40.7794,70.88,66.92,87.3,180,7,0.08,29.83,1010.2,6,NA,SCT,BKN,OVC,   ,1100,2000,3500,NA,DZ,NA,NA,NA,NA,NA,NA,70.88,METAR KLGA 301000Z 18007KT 6SM DZ SCT011 BKN020 OVC035 22/19 A2983 RMK RE26 SLP102 P0008 T02160194,NA
LGA,1973-06-30T11:00:00Z,-73.8803,40.7794,70.88,66.92,87.3,160,7,NA,29.84,1010.5,3,NA,BKN,OVC,   ,   ,600,1300,NA,NA,DZ,NA,NA,NA,NA,NA,NA,70.88,METAR KLGA 301100Z 16007KT 3SM DZ BKN006 OVC013 22/19 A2984 RMK SLP105 T02160194,NA
LGA,1973-06-30T11:16:00Z,-73.8803,40.7794,NA,NA,NA,130,8,NA,29.84,NA,3,NA,SCT,BKN,OVC,NA,700,1500,3900,NA,NA,NA,NA,NA,NA,NA,NA,NA,KLGA 301116Z AUTO 13008KT 3SM SCT007 BKN015 OVC039 A2984 RMK IEM_DS3505,NA
LGA,1973-06-30T11:35:00Z,-73.8803,40.7794,NA,NA,NA,130,8,NA,29.84,NA,3,NA,BKN,BKN,OVC,NA,700,1500,3900,NA,NA,NA,NA,NA,NA,NA,NA,NA,KLGA 301135Z AUTO 13008KT 3SM BKN007 BKN015 OVC039 A2984 RMK IEM_DS3505,NA
LGA,1973-06-30T12:00:00Z,-73.8803,40.7794,71.96,68,87.35,170,6,NA,29.84,1010.5,3,NA,OVC,   ,   ,   ,500,NA,NA,NA,FG,NA,NA,NA,NA,NA,NA,72.96,METAR KLGA 301200Z 17006KT 3SM FG OVC005 22/20 A2984 RMK SLP105 60039 70098 T02220200,NA
LGA,1973-06-30T13:00:00Z,-73.8803,40.7794,74.84,68.9,81.77,220,8,NA,29.86,1011.2,3,NA,OVC,   ,   ,   ,500,NA,NA,NA,FG,NA,NA,NA,NA,NA,NA,75.87,METAR KLGA 301300Z 22008KT 3SM FG OVC005 24/20 A2986 RMK CIG RGD SLP112 T02380205,NA
LGA,1973-06-30T14:00:00Z,-73.8803,40.7794,71.96,68.9,90.1,140,6,NA,29.86,1011.2,3,NA,BKN,OVC,   ,   ,500,800,NA,NA,FG,NA,NA,NA,NA,NA,NA,73.09,METAR KLGA 301400Z 14006KT 3SM FG BKN005 OVC008 22/20 A2986 RMK SLP112 T02220205,NA
LGA,1973-06-30T15:00:00Z,-73.8803,40.7794,73.04,69.08,87.41,130,8,NA,29.87,1011.5,2.5,NA,BKN,OVC,   ,   ,600,1500,NA,NA,FG,NA,NA,NA,NA,NA,NA,74.15,METAR KLGA 301500Z 13008KT 21/2SM FG BKN006 OVC015 23/21 A2987 RMK / THIN SPOTS INOVC /210 SLP115 8/6// T02280206,NA
LGA,1973-06-30T15:05:00Z,-73.8803,40.7794,NA,NA,NA,120,7,NA,29.88,NA,2.5,NA,BKN,OVC,NA,NA,400,1500,NA,NA,NA,NA,NA,NA,NA,NA,NA,NA,KLGA 301505Z AUTO 12007KT 2 1/2SM BKN004 OVC015 A2988 RMK IEM_DS3505,NA
LGA,1973-06-30T16:00:00Z,-73.8803,40.7794,74.8,70,85.02,160,9.04,NA,29.89,NA,3,NA,   ,   ,   ,   ,NA,NA,NA,NA,NA,NA,NA,NA,NA,NA,NA,75.98,METAR KLGA 301600Z 16009KT 3SM FGDZ SCT008 BKN018 24/21 A2989 RMK SLP122 T02380211,NA
LGA,1973-06-30T17:00:00Z,-73.8803,40.7794,79.88,70.88,74.05,110,10,NA,29.88,1011.9,7,NA,BKN,BKN,   ,   ,2200,20000,NA,NA,NA,NA,NA,NA,NA,NA,NA,83.24,METAR KLGA 301700Z 11010KT 7SM BKN022 BKN200 27/22 A2988 RMK VA SLP119 T02660216,NA
LGA,1973-06-30T18:00:00Z,-73.8803,40.7794,80.96,69.98,69.32,180,9,NA,29.88,1011.9,7,NA,BKN,BKN,   ,   ,2500,20000,NA,NA,NA,NA,NA,NA,NA,NA,NA,84.44,METAR KLGA 301800Z 18009KT 7SM BKN025 BKN200 27/21 A2988 RMK VA SLP119 T02720211,NA
LGA,1973-06-30T19:00:00Z,-73.8803,40.7794,81.86,68.9,64.88,190,9,NA,29.88,1011.9,7,NA,SCT,BKN,   ,   ,3000,20000,NA,NA,NA,NA,NA,NA,NA,NA,NA,85.14,METAR KLGA 301900Z 19009KT 7SM SCT030 BKN200 28/20 A2988 RMK VA SLP119 T02770205,NA
LGA,1973-06-30T20:00:00Z,-73.8803,40.7794,81.86,68,62.9,160,8,NA,29.88,1011.9,7,NA,SCT,BKN,   ,   ,3200,20000,NA,NA,NA,NA,NA,NA,NA,NA,NA,84.76,METAR KLGA 302000Z 16008KT 7SM SCT032 BKN200 28/20 A2988 RMK VA SLP119 T02770200,NA
LGA,1973-06-30T21:00:00Z,-73.8803,40.7794,78.08,69.08,73.88,140,10,NA,29.89,1012.2,7,NA,SCT,BKN,   ,   ,12000,25000,NA,NA,NA,NA,NA,NA,NA,NA,NA,80.26,METAR KLGA 302100Z 14010KT 7SM SCT120 BKN250 26/21 A2989 RMK VA SLP122 8/576 T02560206 53003,NA
LGA,1973-06-30T22:00:00Z,-73.8803,40.7794,75.92,68,76.48,150,12,NA,29.89,1012.2,7,NA,SCT,BKN,   ,   ,12000,25000,NA,NA,NA,NA,NA,NA,NA,NA,NA,75.92,METAR KLGA 302200Z 15012KT 7SM SCT120 BKN250 24/20 A2989 RMK VA SLP122 T02440200,NA
LGA,1973-06-30T23:00:00Z,-73.8803,40.7794,75.92,68,76.48,170,10,NA,29.9,1012.5,7,NA,SCT,BKN,   ,   ,12000,25000,NA,NA,NA,NA,NA,NA,NA,NA,NA,75.92,METAR KLGA 302300Z 17010KT 7SM SCT120 BKN250 24/20 A2990 RMK FEW SC VA SLP125 T02440200,NA
LGA,1973-07-01T00:00:00Z,-73.8803,40.7794,73.04,69.08,87.41,170,8,NA,29.91,1012.9,2,NA,CLR,NA,NA,NA,NA,NA,NA,NA,NA,NA,NA,NA,NA,NA,NA,73.04,KLGA 010000Z AUTO 17008KT 2SM CLR 23/21 A2991 RMK 70059 SLP129 T02280206 53007 IEM_DS3505,NA
LGA,1973-07-01T00:08:00Z,-73.8803,40.7794,NA,NA,NA,130,11,NA,29.92,NA,2,NA,BKN,BKN,BKN,NA,600,2000,11800,NA,NA,NA,NA,NA,NA,NA,NA,NA,KLGA 010008Z AUTO 13011KT 2SM BKN006 BKN020 BKN118 A2992 RMK IEM_DS3505,NA
LGA,1973-07-01T01:00:00Z,-73.8803,40.7794,71.96,68,87.35,150,8,NA,29.93,1013.5,2,NA,BKN,OVC,NA,NA,500,2500,NA,NA,NA,NA,NA,NA,NA,NA,NA,71.96,KLGA 010100Z AUTO 15008KT 2SM BKN005 OVC025 22/20 A2993 RMK SLP135 T02220200 IEM_DS3505,NA
LGA,1973-07-01T01:07:00Z,-73.8803,40.7794,NA,NA,NA,150,7,NA,29.94,NA,2.5,NA,BKN,OVC,NA,NA,500,2500,NA,NA,NA,NA,NA,NA,NA,NA,NA,NA,KLGA 010107Z AUTO 15007KT 2 1/2SM BKN005 OVC025 A2994 RMK IEM_DS3505,NA
LGA,1973-07-01T02:00:00Z,-73.8803,40.7794,71.96,68,87.35,170,8,NA,29.95,1014.2,2.5,NA,BKN,OVC,NA,NA,300,800,NA,NA,NA,NA,NA,NA,NA,NA,NA,71.96,KLGA 010200Z AUTO 17008KT 2 1/2SM BKN003 OVC008 22/20 A2995 RMK SLP142 T02220200 IEM_DS3505,NA
LGA,1973-07-01T03:00:00Z,-73.8803,40.7794,71.06,66.92,86.77,170,6,NA,29.96,1014.6,2.5,NA,SCT,OVC,CLR,CLR,300,700,NA,NA,NA,NA,NA,NA,NA,NA,NA,71.06,KLGA 010300Z AUTO 17006KT 2 1/2SM SCT003 OVC007 CLR CLR 22/19 A2996 RMK SLP146 T02170194 IEM_DS3505,NA
LGA,1973-07-01T04:00:00Z,-73.8803,40.7794,70.9,66.9,87.18,180,6,NA,29.96,NA,5.5,NA,   ,   ,   ,   ,NA,NA,NA,NA,NA,NA,NA,NA,NA,NA,NA,70.9,METAR KLGA 010400Z 17006KT 11/2SM FGDZ BKN003 OVC007 22/19 A2996 RMK SLP146 T02160194,NA
LGA,1973-07-01T06:00:00Z,-73.8803,40.7794,70,68,93.37,NA,0,NA,29.98,NA,5.5,NA,   ,   ,   ,   ,NA,NA,NA,NA,NA,NA,NA,NA,NA,NA,NA,70,METAR KLGA 010600Z 00000KT 11/2SM FGDZ BKN003 OVC007 21/20 A2998 RMK SLP152 T02110200,NA
LGA,1973-07-01T07:00:00Z,-73.8803,40.7794,70,68,93.37,NA,0,NA,29.98,NA,5.5,NA,   ,   ,   ,   ,NA,NA,NA,NA,NA,NA,NA,NA,NA,NA,NA,70,METAR KLGA 010700Z 00000KT 11/2SM FGDZ BKN003 OVC010 21/20 A2998 RMK LGA7/1 SLP152 T02110200,NA
LGA,1973-07-01T08:00:00Z,-73.8803,40.7794,70.9,68,90.55,70,5.04,NA,29.98,NA,5.5,NA,   ,   ,   ,   ,NA,NA,NA,NA,NA,NA,NA,NA,NA,NA,NA,71.95,METAR KLGA 010800Z 07005KT 11/2SM FGDZ BKN003 OVC010 22/20 A2998 RMK BINOVCLGA7/1 SLP152 T02160200,NA
LGA,1973-07-01T09:00:00Z,-73.8803,40.7794,71.1,68,89.94,NA,0,NA,29.99,NA,5.5,NA,   ,   ,   ,   ,NA,NA,NA,NA,NA,NA,NA,NA,NA,NA,NA,72.14,METAR KLGA 010900Z 00000KT 11/2SM FGDZ BKN003 OVC008 22/20 A2999 RMK / 16//LGA7/1 SLP156 T02170200 53003,NA
LGA,1973-07-01T10:00:00Z,-73.8803,40.7794,70,66.9,89.9,NA,0,NA,30.01,NA,5.5,NA,   ,   ,   ,   ,NA,NA,NA,NA,NA,NA,NA,NA,NA,NA,NA,70,METAR KLGA 011000Z 00000KT 11/2SM FGDZ SCT005 BKN009 OVC015 21/19 A3001 RMK LGA7/1 SLP163 T02110194,NA
LGA,1973-07-01T10:07:00Z,-73.8803,40.7794,NA,NA,NA,0,0,NA,30.01,NA,2,NA,SCT,BKN,OVC,NA,500,900,2000,NA,NA,NA,NA,NA,NA,NA,NA,NA,KLGA 011007Z AUTO 00000KT 2SM SCT005 BKN009 OVC020 A3001 RMK IEM_DS3505,NA
LGA,1973-07-01T11:00:00Z,-73.8803,40.7794,72,66.9,83.99,NA,0,NA,30.02,NA,2,NA,   ,   ,   ,   ,NA,NA,NA,NA,NA,NA,NA,NA,NA,NA,NA,72,METAR KLGA 011100Z 00000KT 2SM FGDZ SCT009 BKN022 BKN250 22/19 A3002 RMK LGA7/1 SLP166 T02220194,NA
LGA,1973-07-01T12:00:00Z,-73.8803,40.7794,73.94,66.92,78.72,0,0,NA,30.03,1016.9,2,NA,OVC,   ,   ,   ,NA,NA,NA,NA,DZ,NA,NA,NA,NA,NA,NA,73.94,METAR KLGA 011200Z 00000KT 2SM DZ OVC/// 23/19 A3003 RMK H1LGALGA7/1 SLP169 T02330194,NA
LGA,1973-07-01T13:00:00Z,-73.8803,40.7794,74.84,68,79.28,70,4,NA,30.03,1016.9,2,NA,OVC,   ,   ,   ,NA,NA,NA,NA,DZ,NA,NA,NA,NA,NA,NA,74.84,METAR KLGA 011300Z 07004KT 2SM DZ OVC/// 24/20 A3003 RMK H1 SFC VSBY21/2 SLP169 T02380200,NA
LGA,1973-07-01T14:00:00Z,-73.8803,40.7794,77.9,66.92,69,70,5,NA,30.04,1017.3,2,NA,OVC,SCT,   ,   ,NA,2500,NA,NA,DZ,NA,NA,NA,NA,NA,NA,77.9,METAR KLGA 011400Z 07005KT 2SM DZ OVC/// SCT025 25/19 A3004 RMK H1 SFC VSBY21/2LGA7/1 SLP173 T02550194,NA
LGA,1973-07-01T15:00:00Z,-73.8803,40.7794,80.06,68,66.7,20,7,NA,30.04,1017.3,3,NA,OVC,SCT,   ,   ,NA,2800,NA,NA,DZ,NA,NA,NA,NA,NA,NA,82.65,METAR KLGA 011500Z 02007KT 3SM DZ OVC/// SCT028 27/20 A3004 RMK H1 SFC VSBY 1200LGA7/1 SLP173 T02670200 53003,NA
LGA,1973-07-01T15:19:00Z,-73.8803,40.7794,NA,NA,NA,60,8,NA,30.04,NA,4,NA,BKN,NA,NA,NA,3000,NA,NA,NA,NA,NA,NA,NA,NA,NA,NA,NA,KLGA 011519Z AUTO 06008KT 4SM BKN030 A3004 RMK IEM_DS3505,NA
LGA,1973-07-01T16:00:00Z,-73.8803,40.7794,79.88,68,67.1,150,8,NA,30.05,1017.6,4,NA,SCT,   ,   ,   ,3000,NA,NA,NA,DZ,NA,NA,NA,NA,NA,NA,82.43,METAR KLGA 011600Z 15008KT 4SM DZ SCT030 27/20 A3005 RMK / TWR VSBY 3 %V VALGA7/1 SLP176 T02660200,NA
LGA,1973-07-01T17:00:00Z,-73.8803,40.7794,81.86,63.86,54.48,210,11,NA,30.05,1017.6,4,NA,SCT,   ,   ,   ,3000,NA,NA,NA,DZ,NA,NA,NA,NA,NA,NA,83.3,METAR KLGA 011700Z 21011KT 4SM DZ SCT030 28/18 A3005 RMK / TWR VSBY 3VALGA7/1 SLP176 T02770177,NA
LGA,1973-07-01T18:00:00Z,-73.8803,40.7794,82.04,66.92,60.25,170,12,NA,30.05,1017.6,5,NA,SCT,   ,   ,   ,4500,NA,NA,NA,DZ,NA,NA,NA,NA,NA,NA,84.53,METAR KLGA 011800Z 17012KT 5SM DZ SCT045 28/19 A3005 RMK VALGA7/1 SLP176 T02780194,NA
LGA,1973-07-01T19:00:00Z,-73.8803,40.7794,83.84,64.94,53.06,180,13,NA,30.04,1017.3,5,NA,SCT,   ,   ,   ,4500,NA,NA,NA,DZ,NA,NA,NA,NA,NA,NA,85.58,METAR KLGA 011900Z 18013KT 5SM DZ SCT045 29/18 A3004 RMK / VSBY LWR E VALGA7/1 SLP173 T02880183,NA
LGA,1973-07-01T20:00:00Z,-73.8803,40.7794,82.94,64.94,54.63,170,12,NA,30.03,1016.9,5,NA,SCT,   ,   ,   ,4500,NA,NA,NA,DZ,NA,NA,NA,NA,NA,NA,84.7,METAR KLGA 012000Z 17012KT 5SM DZ SCT045 28/18 A3003 RMK LGA7/1 SLP169 T02830183,NA
LGA,1973-07-01T21:00:00Z,-73.8803,40.7794,80.96,64.04,56.45,180,10,NA,30.03,1016.9,5,NA,SCT,SCT,   ,   ,4500,20000,NA,NA,DZ,NA,NA,NA,NA,NA,NA,82.52,METAR KLGA 012100Z 18010KT 5SM DZ SCT045 SCT200 27/18 A3003 RMK / VALGA7/1 SLP169 8/101 T02720178 56007,NA
LGA,1973-07-01T22:00:00Z,-73.8803,40.7794,75.92,65.84,70.97,160,10,NA,30.05,1017.6,4,NA,BKN,   ,   ,   ,20000,NA,NA,NA,DZ,NA,NA,NA,NA,NA,NA,75.92,METAR KLGA 012200Z 16010KT 4SM DZ BKN200 24/19 A3005 RMK TWR VSBY 3 VALGA7/1 SLP176 T02440188,NA
LGA,1973-07-01T23:00:00Z,-73.8803,40.7794,75.92,63.86,66.23,120,11,NA,30.05,1017.6,4,NA,BKN,   ,   ,   ,20000,NA,NA,NA,DZ,NA,NA,NA,NA,NA,NA,75.92,METAR KLGA 012300Z 12011KT 4SM DZ BKN200 24/18 A3005 RMK VALGA7/1 SLP176 T02440177,NA
LGA,1973-07-02T00:00:00Z,-73.8803,40.7794,75.02,64.94,70.88,170,10,NA,30.06,1018,4,NA,BKN,   ,   ,   ,20000,NA,NA,NA,DZ,NA,NA,NA,NA,NA,NA,75.02,METAR KLGA 020000Z 17010KT 4SM DZ BKN200 24/18 A3006 RMK / TWR VSBY 3LGA7/1 SLP180 T02390183,NA
LGA,1973-07-02T01:00:00Z,-73.8803,40.7794,73.94,64.94,73.49,170,7,NA,30.07,1018.3,2.5,NA,OVC,SCT,BKN,   ,NA,15000,20000,NA,DZ,NA,NA,NA,NA,NA,NA,73.94,METAR KLGA 020100Z 17007KT 21/2SM DZ OVC/// SCT150 BKN200 23/18 A3007 RMK / H1LGA7/1 SLP183 T02330183,NA
LGA,1973-07-02T01:14:00Z,-73.8803,40.7794,NA,NA,NA,170,8,NA,30.08,NA,3,NA,SCT,BKN,NA,NA,14800,19700,NA,NA,NA,NA,NA,NA,NA,NA,NA,NA,KLGA 020114Z AUTO 17008KT 3SM SCT148 BKN197 A3008 RMK IEM_DS3505,NA
LGA,1973-07-02T03:00:00Z,-73.8803,40.7794,73.94,66.02,76.31,170,6,NA,30.09,1019,3,NA,BKN,OVC,   ,   ,NA,NA,NA,NA,DZ,NA,NA,NA,NA,NA,NA,73.94,METAR KLGA 020300Z 17006KT 3SM DZ BKN/// OVC/// 23/19 A//// RMK SLP190 T02330189,NA
LGA,1973-07-02T04:00:00Z,-73.8803,40.7794,73.94,65.84,75.83,180,7,NA,30.1,1019.3,4,NA,SCT,BKN,   ,   ,14000,20000,NA,NA,DZ,NA,NA,NA,NA,NA,NA,73.94,METAR KLGA 020400Z 18007KT 4SM DZ SCT140 BKN200 23/19 A3010 RMK LGA7/1 SLP193 T02330188,NA
LGA,1973-07-02T05:00:00Z,-73.8803,40.7794,72.86,65.84,78.64,170,5,NA,30.11,1019.6,4,NA,BKN,   ,   ,   ,20000,NA,NA,NA,DZ,NA,NA,NA,NA,NA,NA,72.86,METAR KLGA 020500Z 17005KT 4SM DZ BKN200 23/19 A3011 RMK LGA7/1 SLP196 T02270188,NA
LGA,1973-07-02T06:00:00Z,-73.8803,40.7794,73.04,64.94,75.75,190,4,NA,30.12,1020,4,NA,SCT,OVC,   ,   ,10000,20000,NA,NA,DZ,NA,NA,NA,NA,NA,NA,73.04,METAR KLGA 020600Z 19004KT 4SM DZ SCT100 OVC200 23/18 A3012 RMK LGA7/1 SLP200 T02280183,NA
LGA,1973-07-02T07:00:00Z,-73.8803,40.7794,68.9,65.8,89.85,40,7.04,NA,30.12,NA,10.5,NA,   ,   ,   ,   ,NA,NA,NA,NA,NA,NA,NA,NA,NA,NA,NA,68.9,METAR KLGA 020700Z 04007KT 21/2SM MIBCFGDZ OVC/// SCT100 BKN200 20/19 A3012 RMK FH1LGA7/1 SLP200 T02050188,NA
LGA,1973-07-02T08:00:00Z,-73.8803,40.7794,68,65.8,92.67,70,6,NA,30.12,NA,10.5,NA,   ,   ,   ,   ,NA,NA,NA,NA,NA,NA,NA,NA,NA,NA,NA,68,METAR KLGA 020800Z 06006KT 21/2SM MIBCFGDZ OVC/// BKN200 20/19 A3012 RMK FH1LGA7/1 SLP200 T02000188,NA
LGA,1973-07-02T09:00:00Z,-73.8803,40.7794,68,66,93.32,90,5.04,NA,30.11,NA,10.5,NA,   ,   ,   ,   ,NA,NA,NA,NA,NA,NA,NA,NA,NA,NA,NA,68,METAR KLGA 020900Z 08005KT 21/2SM FGDZ OVC/// OVC200 20/19 A3011 RMK FH2/803 1007LGA7/1 SLP196 T02000189,NA
LGA,1973-07-02T10:00:00Z,-73.8803,40.7794,68,65.8,92.67,70,5.04,NA,30.14,NA,1,NA,   ,   ,   ,   ,NA,NA,NA,NA,NA,NA,NA,NA,NA,NA,NA,68,METAR KLGA 021000Z 06005KT 1SM MIBCFGDZ OVC/// BKN200 20/19 A3014 RMK R22VR36V40 FH 3 LGA7/1 SLP207 T02000188,NA
LGA,1973-07-02T10:14:00Z,-73.8803,40.7794,NA,NA,NA,50,7,NA,30.15,NA,0.5,NA,BKN,NA,NA,NA,19700,NA,NA,NA,NA,NA,NA,NA,NA,NA,NA,NA,KLGA 021014Z AUTO 05007KT 1/2SM POB000 BKN197 A3015 RMK IEM_DS3505,NA
LGA,1973-07-02T11:00:00Z,-73.8803,40.7794,68,65.8,92.67,70,6,NA,30.16,NA,0.8,NA,   ,   ,   ,   ,NA,NA,NA,NA,NA,NA,NA,NA,NA,NA,NA,68,METAR KLGA 021100Z 06006KT 3/4SM MIBCFGDZ OVC/// BKN200 20/19 A3016 RMK R22VR28V36 FH4LGA7/1 SLP213 T02000188,NA
LGA,1973-07-02T11:11:00Z,-73.8803,40.7794,NA,NA,NA,60,9,NA,30.16,NA,0.5,NA,OVC,NA,NA,NA,19700,NA,NA,NA,NA,NA,NA,NA,NA,NA,NA,NA,KLGA 021111Z AUTO 06009KT 1/2SM POB000 OVC197 A3016 RMK IEM_DS3505,NA
LGA,1973-07-02T12:00:00Z,-73.8803,40.7794,68,66,93.32,70,6,NA,30.16,NA,0.4,NA,   ,   ,   ,   ,NA,NA,NA,NA,NA,NA,NA,NA,NA,NA,NA,68,METAR KLGA 021200Z 06006KT 3/8SM FGDZ OVC/// BKN180 20/19 A3016 RMK R22VR10-/F4LGA7/1 SLP213 T02000189,NA
LGA,1973-07-02T12:07:00Z,-73.8803,40.7794,NA,NA,NA,40,8,NA,30.17,NA,0.5,NA,SCT,NA,NA,NA,17700,NA,NA,NA,NA,NA,NA,NA,NA,NA,NA,NA,KLGA 021207Z AUTO 04008KT 1/2SM POB000 SCT177 A3017 RMK IEM_DS3505,NA
LGA,1973-07-02T12:13:00Z,-73.8803,40.7794,NA,NA,NA,50,8,NA,30.17,NA,1,NA,SCT,NA,NA,NA,17700,NA,NA,NA,NA,NA,NA,NA,NA,NA,NA,NA,KLGA 021213Z AUTO 05008KT 1SM POB000 SCT177 A3017 RMK IEM_DS3505,NA
LGA,1973-07-02T13:00:00Z,-73.8803,40.7794,70,66.9,89.9,20,9.04,NA,30.17,NA,1,NA,   ,   ,   ,   ,NA,NA,NA,NA,NA,NA,NA,NA,NA,NA,NA,70,METAR KLGA 021300Z 02009KT 1SM MIBCFGDZ OVC/// BKN040 BKN180 21/19 A3017 RMK R22VR10V40/FH2LG SLP217 T02110194,NA
LGA,1973-07-02T13:07:00Z,-73.8803,40.7794,NA,NA,NA,20,8,NA,30.18,NA,1.5,NA,SCT,BKN,BKN,NA,2000,5900,17700,NA,NA,NA,NA,NA,NA,NA,NA,NA,KLGA 021307Z AUTO 02008KT 1 1/2SM POB000 SCT020 BKN059 BKN177 A3018 RMK IEM_DS3505,NA
LGA,1973-07-02T13:28:00Z,-73.8803,40.7794,NA,NA,NA,50,9,NA,30.18,NA,2.5,NA,SCT,BKN,NA,NA,2000,5900,NA,NA,NA,NA,NA,NA,NA,NA,NA,NA,KLGA 021328Z AUTO 05009KT 2 1/2SM POB000 SCT020 BKN059 A3018 RMK IEM_DS3505,NA
LGA,1973-07-02T14:00:00Z,-73.8803,40.7794,74.84,68.9,81.77,130,8,NA,30.17,1021.7,2.5,NA,OVC,SCT,BKN,   ,NA,2000,10000,NA,DZ,NA,NA,NA,NA,NA,NA,75.87,METAR KLGA 021400Z 13008KT 21/2SM DZ OVC/// SCT020 BKN100 24/20 A3017 RMK H2 SLP217 T02380205,NA
LGA,1973-07-02T14:01:00Z,-73.8803,40.7794,NA,NA,NA,180,6,NA,30.17,NA,4,NA,SCT,BKN,NA,NA,2500,5900,NA,NA,NA,NA,NA,NA,NA,NA,NA,NA,KLGA 021401Z AUTO 18006KT 4SM SCT025 BKN059 A3017 RMK IEM_DS3505,NA
LGA,1973-07-02T15:00:00Z,-73.8803,40.7794,80.96,66.02,60.49,200,10,NA,30.16,1021.3,6,NA,SCT,SCT,   ,   ,3000,10000,NA,NA,DZ,NA,NA,NA,NA,NA,NA,83.08,METAR KLGA 021500Z 20010KT 6SM DZ SCT030 SCT100 27/19 A3016 RMK / SLP213 8/170 T02720189 50000,NA
LGA,1973-07-02T16:00:00Z,-73.8803,40.7794,82.94,65.84,56.36,240,10,NA,30.16,1021.3,6,NA,SCT,   ,   ,   ,3500,NA,NA,NA,DZ,NA,NA,NA,NA,NA,NA,85.05,METAR KLGA 021600Z 24010KT 6SM DZ SCT035 28/19 A3016 RMK VA SLP213 T02830188,NA
LGA,1973-07-02T17:00:00Z,-73.8803,40.7794,82.94,65.84,56.36,190,6,NA,30.15,1021,7,NA,SCT,   ,   ,   ,3500,NA,NA,NA,NA,NA,NA,NA,NA,NA,NA,85.05,METAR KLGA 021700Z 19006KT 7SM SCT035 28/19 A3015 RMK VA SLP210 T02830188,NA
LGA,1973-07-02T18:00:00Z,-73.8803,40.7794,84.02,66.02,54.77,220,6,NA,30.14,1020.7,9,NA,SCT,   ,   ,   ,4000,NA,NA,NA,NA,NA,NA,NA,NA,NA,NA,86.23,METAR KLGA 021800Z 22006KT 9SM SCT040 29/19 A3014 RMK VA SLP207 60031 T02890189,NA
LGA,1973-07-02T19:00:00Z,-73.8803,40.7794,82.94,65.84,56.36,180,11,NA,30.12,1020,9,NA,SCT,   ,   ,   ,4000,NA,NA,NA,NA,NA,NA,NA,NA,NA,NA,85.05,METAR KLGA 021900Z 18011KT 9SM SCT040 28/19 A3012 RMK VA SLP200 T02830188,NA
LGA,1973-07-02T20:00:00Z,-73.8803,40.7794,82.94,63.86,52.6,150,10,NA,30.12,1020,8,NA,SCT,SCT,   ,   ,4000,20000,NA,NA,NA,NA,NA,NA,NA,NA,NA,84.3,METAR KLGA 022000Z 15010KT 8SM SCT040 SCT200 28/18 A3012 RMK VA SLP200 T02830177,NA
LGA,1973-07-02T21:00:00Z,-73.8803,40.7794,82.04,60.98,48.93,160,9,NA,30.12,1020,8,NA,SCT,SCT,   ,   ,4000,20000,NA,NA,NA,NA,NA,NA,NA,NA,NA,82.65,METAR KLGA 022100Z 16009KT 8SM SCT040 SCT200 28/16 A3012 RMK VA SLP200 8/202 T02780161 56007,NA
LGA,1973-07-02T22:00:00Z,-73.8803,40.7794,79.88,62.96,56.31,170,19,NA,30.11,1019.6,8,NA,SCT,BKN,   ,   ,4000,20000,NA,NA,NA,NA,NA,NA,NA,NA,NA,81.3,METAR KLGA 022200Z 17019KT 8SM SCT040 BKN200 27/17 A3011 RMK VA SLP196 T02660172,NA
LGA,1973-07-02T23:00:00Z,-73.8803,40.7794,78.98,62.96,57.99,180,13,NA,30.1,1019.3,8,NA,BKN,   ,   ,   ,25000,NA,NA,NA,NA,NA,NA,NA,NA,NA,NA,80.52,METAR KLGA 022300Z 18013KT 8SM BKN250 26/17 A3010 RMK VA SLP193 T02610172,NA
LGA,1973-07-03T00:00:00Z,-73.8803,40.7794,77,64.94,66.36,180,12,NA,30.1,1019.3,8,NA,BKN,   ,   ,   ,25000,NA,NA,NA,NA,NA,NA,NA,NA,NA,NA,77,METAR KLGA 030000Z 18012KT 8SM BKN250 25/18 A3010 RMK SLP193 T02500183,NA
LGA,1973-07-03T01:00:00Z,-73.8803,40.7794,74.84,65.84,73.58,190,12,NA,30.1,1019.3,8,NA,SCT,SCT,BKN,   ,3900,10000,25000,NA,NA,NA,NA,NA,NA,NA,NA,74.84,METAR KLGA 030100Z 19012KT 8SM SCT039 SCT100 BKN250 24/19 A3010 RMK SLP193 T02380188,NA
LGA,1973-07-03T02:00:00Z,-73.8803,40.7794,74.84,68,79.28,190,11,NA,30.12,1020,8,NA,BKN,BKN,   ,   ,3800,25000,NA,NA,NA,NA,NA,NA,NA,NA,NA,74.84,METAR KLGA 030200Z 19011KT 8SM BKN038 BKN250 24/20 A3012 RMK SLP200 T02380200,NA
LGA,1973-07-03T03:00:00Z,-73.8803,40.7794,73.94,68,81.71,190,10,NA,30.12,1020,8,NA,SCT,BKN,   ,   ,4000,25000,NA,NA,NA,NA,NA,NA,NA,NA,NA,73.94,METAR KLGA 030300Z 19010KT 8SM SCT040 BKN250 23/20 A3012 RMK VA SLP200 8/508 T02330200 51007,NA
LGA,1973-07-03T04:00:00Z,-73.8803,40.7794,72.86,68,84.74,190,11,NA,30.13,1020.3,8,NA,SCT,BKN,   ,   ,4000,25000,NA,NA,NA,NA,NA,NA,NA,NA,NA,72.86,METAR KLGA 030400Z 19011KT 8SM SCT040 BKN250 23/20 A3013 RMK SLP203 T02270200,NA
LGA,1973-07-03T05:00:00Z,-73.8803,40.7794,72.86,68,84.74,190,9,NA,30.15,1021,8,NA,SCT,   ,   ,   ,25000,NA,NA,NA,NA,NA,NA,NA,NA,NA,NA,72.86,METAR KLGA 030500Z 19009KT 8SM SCT250 23/20 A3015 RMK SLP210 T02270200,NA
LGA,1973-07-03T06:00:00Z,-73.8803,40.7794,73.04,66.92,81.14,200,8,NA,30.15,1021,7,NA,BKN,BKN,   ,   ,3400,25000,NA,NA,NA,NA,NA,NA,NA,NA,NA,73.04,METAR KLGA 030600Z 20008KT 7SM BKN034 BKN250 23/19 A3015 RMK SLP210 T02280194,NA
LGA,1973-07-03T07:00:00Z,-73.8803,40.7794,72.86,66.92,81.64,220,5,NA,30.14,1020.7,6,NA,SCT,BKN,   ,   ,3500,25000,NA,NA,DZ,NA,NA,NA,NA,NA,NA,72.86,METAR KLGA 030700Z 22005KT 6SM DZ SCT035 BKN250 23/19 A3014 RMK SLP207 T02270194,NA
LGA,1973-07-03T08:00:00Z,-73.8803,40.7794,72.86,64.94,76.21,230,4,NA,30.13,1020.3,6,NA,SCT,BKN,   ,   ,3100,25000,NA,NA,DZ,NA,NA,NA,NA,NA,NA,72.86,METAR KLGA 030800Z 23004KT 6SM DZ SCT031 BKN250 23/18 A3013 RMK %V SLP203 T02270183,NA
LGA,1973-07-03T09:00:00Z,-73.8803,40.7794,73.04,64.94,75.75,190,5,NA,30.12,1020,5,NA,BKN,OVC,   ,   ,3300,10000,NA,NA,DZ,NA,NA,NA,NA,NA,NA,73.04,METAR KLGA 030900Z 19005KT 5SM DZ BKN033 OVC100 23/18 A3012 RMK / SLP200 8/57/ T02280183 57010,NA
LGA,1973-07-03T10:00:00Z,-73.8803,40.7794,72,65.8,80.84,150,5.04,NA,30.12,NA,4,NA,   ,   ,   ,   ,NA,NA,NA,NA,NA,NA,NA,NA,NA,NA,NA,72,METAR KLGA 031000Z 15005KT 4SM FUDZ SCT035 OVC250 22/19 A3012 RMK VA SLP200 T02220188,NA
LGA,1973-07-03T11:00:00Z,-73.8803,40.7794,72.9,68,84.62,130,7.04,NA,30.11,NA,4,NA,   ,   ,   ,   ,NA,NA,NA,NA,NA,NA,NA,NA,NA,NA,NA,72.9,METAR KLGA 031100Z 13007KT 4SM FUDZ OVC250 23/20 A3011 RMK VA SLP196 T02270200,NA
LGA,1973-07-03T12:00:00Z,-73.8803,40.7794,73,68,84.34,180,6,NA,30.12,NA,4,NA,   ,   ,   ,   ,NA,NA,NA,NA,NA,NA,NA,NA,NA,NA,NA,73,METAR KLGA 031200Z 18006KT 4SM FUDZ SCT010 OVC250 23/20 A3012 RMK SLP200 T02280200,NA
LGA,1973-07-03T13:00:00Z,-73.8803,40.7794,74.8,66.9,76.43,160,8,NA,30.13,NA,5,NA,   ,   ,   ,   ,NA,NA,NA,NA,NA,NA,NA,NA,NA,NA,NA,74.8,METAR KLGA 031300Z 16008KT 5SM FUDZ SCT015 OVC250 24/19 A3013 RMK SLP203 T02380194,NA
LGA,1973-07-03T14:00:00Z,-73.8803,40.7794,77.9,68,71.62,180,12,NA,30.12,NA,5,NA,   ,   ,   ,   ,NA,NA,NA,NA,NA,NA,NA,NA,NA,NA,NA,77.9,METAR KLGA 031400Z 17012KT 5SM FUDZ OVC220 25/20 A3012 RMK BINOVC SLP200 T02550200,NA
LGA,1973-07-03T15:00:00Z,-73.8803,40.7794,78.1,68,71.14,160,10,NA,30.1,NA,6,NA,   ,   ,   ,   ,NA,NA,NA,NA,NA,NA,NA,NA,NA,NA,NA,78.1,METAR KLGA 031500Z 16010KT 6SM FUDZ SCT100 BKN220 26/20 A3010 RMK SLP193 8/038 T02560200 58007,NA
LGA,1973-07-03T16:00:00Z,-73.8803,40.7794,77.9,68,71.62,180,10,NA,30.1,1019.3,7,NA,SCT,BKN,BKN,   ,2000,6000,10000,NA,NA,NA,NA,NA,NA,NA,NA,77.9,METAR KLGA 031600Z 18010KT 7SM SCT020 BKN060 BKN100 25/20 A3010 RMK VA SLP193 T02550200,NA
LGA,1973-07-03T17:00:00Z,-73.8803,40.7794,78.98,68,69.11,180,11,NA,30.09,1019,8,NA,SCT,SCT,BKN,BKN,3000,6000,12000,20000,NA,NA,NA,NA,NA,NA,NA,81.32,METAR KLGA 031700Z 18011KT 8SM SCT030 SCT060 BKN120 BKN200 26/20 A3009 RMK VA SLP190 T02610200,NA
LGA,1973-07-03T18:00:00Z,-73.8803,40.7794,80.96,69.08,67.22,180,9,NA,30.07,1018.3,9,NA,SCT,BKN,   ,   ,3000,20000,NA,NA,NA,NA,NA,NA,NA,NA,NA,84.1,METAR KLGA 031800Z 18009KT 9SM SCT030 BKN200 27/21 A3007 RMK VA SLP183 T02720206,NA
LGA,1973-07-03T19:00:00Z,-73.8803,40.7794,79.88,69.98,71.81,190,11,NA,30.07,1018.3,10,NA,SCT,BKN,   ,   ,2500,20000,NA,NA,NA,NA,NA,NA,NA,NA,NA,82.97,METAR KLGA 031900Z 19011KT 10SM SCT025 BKN200 27/21 A3007 RMK VA SLP183 T02660211,NA
LGA,1973-07-03T20:00:00Z,-73.8803,40.7794,80.96,69.98,69.32,150,15,NA,30.04,1017.3,10,NA,SCT,BKN,   ,   ,2500,20000,NA,NA,NA,NA,NA,NA,NA,NA,NA,84.44,METAR KLGA 032000Z 15015KT 10SM SCT025 BKN200 27/21 A3004 RMK VA SLP173 T02720211,NA
LGA,1973-07-03T21:00:00Z,-73.8803,40.7794,77,69.98,78.96,160,12,NA,30.04,1017.3,8,NA,SCT,SCT,BKN,   ,600,10000,20000,NA,NA,NA,NA,NA,NA,NA,NA,78.11,METAR KLGA 032100Z 16012KT 8SM SCT006 SCT100 BKN200 25/21 A3004 RMK 0 VA SLP173 8/638 T02500211,NA
LGA,1973-07-03T22:00:00Z,-73.8803,40.7794,77.9,69.98,76.65,170,13,NA,30.03,1016.9,7,NA,BKN,OVC,   ,   ,600,10000,NA,NA,NA,NA,NA,NA,NA,NA,NA,78.99,METAR KLGA 032200Z 17013KT 7SM BKN006 OVC100 25/21 A3003 RMK RB20E30 SLP169 T02550211,NA
LGA,1973-07-03T23:00:00Z,-73.8803,40.7794,75.92,69.98,81.85,180,12,NA,30.01,1016.3,7,NA,BKN,OVC,   ,   ,800,10000,NA,NA,NA,NA,NA,NA,NA,NA,NA,77.06,METAR KLGA 032300Z 18012KT 7SM BKN008 OVC100 24/21 A3001 RMK SLP163 T02440211,NA
LGA,1973-07-04T00:00:00Z,-73.8803,40.7794,75.92,71.96,87.55,190,12,NA,30.01,1016.3,7,NA,BKN,OVC,   ,   ,800,1500,NA,NA,NA,NA,NA,NA,NA,NA,NA,77.33,METAR KLGA 040000Z 19012KT 7SM BKN008 OVC015 24/22 A3001 RMK / RB1756E30 SLP163 T02440222,NA
LGA,1973-07-04T01:00:00Z,-73.8803,40.7794,75.92,70.88,84.4,160,12,NA,30,1015.9,7,NA,BKN,OVC,   ,   ,700,1500,NA,NA,NA,NA,NA,NA,NA,NA,NA,77.18,METAR KLGA 040100Z 16012KT 7SM BKN007 OVC015 24/22 A3000 RMK / VSBY LWR W SLP159 T02440216,NA
LGA,1973-07-04T02:00:00Z,-73.8803,40.7794,74.84,71.96,90.76,170,11,NA,30,1015.9,5,NA,BKN,OVC,   ,   ,600,1200,NA,NA,-SHRA DZ,NA,NA,NA,NA,NA,NA,76.29,METAR KLGA 040200Z 17011KT 5SM -SHRA DZ BKN006 OVC012 24/22 A3000 RMK / RB15 SLP159 T02380222,NA
LGA,1973-07-04T03:00:00Z,-73.8803,40.7794,75.02,71.96,90.22,160,10,NA,30,1015.9,5,NA,BKN,OVC,   ,   ,600,1000,NA,NA,-SHRA DZ,NA,NA,NA,NA,NA,NA,76.46,METAR KLGA 040300Z 16010KT 5SM -SHRA DZ BKN006 OVC010 24/22 A3000 RMK / SLP159 8/7// T02390222 56003,NA
LGA,1973-07-04T04:00:00Z,-73.8803,40.7794,74.84,70.88,87.5,200,10,0.01,30,1015.9,5,NA,SCT,OVC,   ,   ,600,1100,NA,NA,-SHRA DZ,NA,NA,NA,NA,NA,NA,76.14,METAR KLGA 040400Z 20010KT 5SM -SHRA DZ SCT006 OVC011 24/22 A3000 RMK SLP159 P0001 T02380216,NA
LGA,1973-07-04T05:00:00Z,-73.8803,40.7794,74.84,70.88,87.5,180,8,NA,29.99,1015.6,10,NA,BKN,OVC,   ,   ,700,1100,NA,NA,-SHRA,NA,NA,NA,NA,NA,NA,76.14,METAR KLGA 040500Z 18008KT 10SM -SHRA BKN007 OVC011 24/22 A2999 RMK SLP156 T02380216,NA
LGA,1973-07-04T06:00:00Z,-73.8803,40.7794,75.02,71.06,87.5,160,5,NA,29.96,1014.6,9,NA,SCT,OVC,   ,   ,700,4500,NA,NA,-SHRA,NA,NA,NA,NA,NA,NA,76.33,METAR KLGA 040600Z 16005KT 9SM -SHRA SCT007 OVC045 24/22 A2996 RMK SLP146 60002 T02390217,NA
LGA,1973-07-04T07:00:00Z,-73.8803,40.7794,74.84,70.88,87.5,160,8,NA,29.94,1013.9,9,NA,BKN,BKN,OVC,   ,700,1900,3700,NA,NA,NA,NA,NA,NA,NA,NA,76.14,METAR KLGA 040700Z 16008KT 9SM BKN007 BKN019 OVC037 24/22 A2994 RMK LWR V% RE30 SLP139 T02380216,NA
LGA,1973-07-04T08:00:00Z,-73.8803,40.7794,73.94,70.88,90.18,160,10,NA,29.92,1013.2,9,NA,BKN,OVC,   ,   ,800,2000,NA,NA,-SHRA,NA,NA,NA,NA,NA,NA,75.27,METAR KLGA 040800Z 16010KT 9SM -SHRA BKN008 OVC020 23/22 A2992 RMK RB20 SLP132 T02330216,NA
LGA,1973-07-04T09:00:00Z,-73.8803,40.7794,73.94,69.98,87.45,180,10,NA,29.91,1012.9,8,NA,OVC,   ,   ,   ,800,NA,NA,NA,-SHRA,NA,NA,NA,NA,NA,NA,75.14,METAR KLGA 040900Z 18010KT 8SM -SHRA OVC008 23/21 A2991 RMK / SLP129 8/7// T02330211 57000,NA
LGA,1973-07-04T10:00:00Z,-73.8803,40.7794,72.86,70.88,93.51,180,9,NA,29.9,1012.5,4,NA,BKN,BKN,OVC,   ,700,1100,1500,NA,FG,NA,NA,NA,NA,NA,NA,74.24,METAR KLGA 041000Z 18009KT 4SM FG BKN007 BKN011 OVC015 23/22 A2990 RMK RE20 SLP125 T02270216,NA
LGA,1973-07-04T11:00:00Z,-73.8803,40.7794,72.86,70.88,93.51,170,9,NA,29.89,1012.2,4,NA,BKN,OVC,   ,   ,700,1500,NA,NA,-DZ FG,NA,NA,NA,NA,NA,NA,74.24,METAR KLGA 041100Z 17009KT 4SM -DZ FG BKN007 OVC015 23/22 A2989 RMK LB45 SLP122 T02270216,NA
LGA,1973-07-04T12:00:00Z,-73.8803,40.7794,73.94,71.06,90.73,180,9,NA,29.88,1011.9,4,NA,BKN,OVC,   ,   ,700,1500,NA,NA,FG,NA,NA,NA,NA,NA,NA,75.3,METAR KLGA 041200Z 18009KT 4SM FG BKN007 OVC015 23/22 A2988 RMK LE10 SLP119 70001 T02330217,NA
LGA,1973-07-04T13:00:00Z,-73.8803,40.7794,73.94,70.88,90.18,160,10,NA,29.87,1011.5,2,NA,BKN,OVC,   ,   ,800,1500,NA,NA,FG,NA,NA,NA,NA,NA,NA,75.27,METAR KLGA 041300Z 16010KT 2SM FG BKN008 OVC015 23/22 A2987 RMK SLP115 T02330216,NA
LGA,1973-07-04T14:00:00Z,-73.8803,40.7794,75.92,70.88,84.4,190,8,NA,29.86,1011.2,2,NA,SCT,BKN,OVC,   ,800,1100,1500,NA,DZ,NA,NA,NA,NA,NA,NA,77.18,METAR KLGA 041400Z 19008KT 2SM DZ SCT008 BKN011 OVC015 24/22 A2986 RMK SLP112 T02440216,NA
LGA,1973-07-04T14:08:00Z,-73.8803,40.7794,NA,NA,NA,200,9,NA,29.86,NA,3,NA,SCT,BKN,OVC,NA,800,1200,1500,NA,NA,NA,NA,NA,NA,NA,NA,NA,KLGA 041408Z AUTO 20009KT 3SM SCT008 BKN012 OVC015 A2986 RMK IEM_DS3505,NA
LGA,1973-07-04T15:00:00Z,-73.8803,40.7794,78.08,71.06,79.05,200,10,NA,29.86,1011.2,3,NA,SCT,BKN,OVC,   ,800,1400,2000,NA,DZ,NA,NA,NA,NA,NA,NA,80.42,METAR KLGA 041500Z 20010KT 3SM DZ SCT008 BKN014 OVC020 26/22 A2986 RMK / SLP112 8/5// T02560217 56007,NA
LGA,1973-07-04T16:00:00Z,-73.8803,40.7794,77.9,70.88,79.03,220,10,NA,29.84,1010.5,3,NA,SCT,BKN,OVC,   ,1000,1500,3000,NA,DZ,NA,NA,NA,NA,NA,NA,80.1,METAR KLGA 041600Z 22010KT 3SM DZ SCT010 BKN015 OVC030 25/22 A2984 RMK VA SLP105 T02550216,NA
LGA,1973-07-04T17:00:00Z,-73.8803,40.7794,78.98,69.98,73.97,220,9,NA,29.85,1010.8,5,NA,SCT,BKN,OVC,   ,1500,3100,4000,NA,DZ,NA,NA,NA,NA,NA,NA,81.69,METAR KLGA 041700Z 22009KT 5SM DZ SCT015 BKN031 OVC040 26/21 A2985 RMK VA SLP108 T02610211,NA
LGA,1973-07-04T18:00:00Z,-73.8803,40.7794,80.06,69.98,71.39,240,8,NA,29.84,1010.5,6,NA,SCT,BKN,OVC,   ,2800,3100,4000,NA,DZ,NA,NA,NA,NA,NA,NA,83.22,METAR KLGA 041800Z 24008KT 6SM DZ SCT028 BKN031 OVC040 27/21 A2984 RMK VA SLP105 T02670211,NA
LGA,1973-07-04T19:00:00Z,-73.8803,40.7794,81.86,70.88,69.42,230,8,NA,29.82,1009.8,6,NA,BKN,OVC,   ,   ,3100,5000,NA,NA,DZ,NA,NA,NA,NA,NA,NA,86.05,METAR KLGA 041900Z 23008KT 6SM DZ BKN031 OVC050 28/22 A2982 RMK BINOVC VA SLP098 T02770216,NA
LGA,1973-07-04T20:00:00Z,-73.8803,40.7794,82.9,70.9,67.16,210,9.04,NA,29.8,NA,4,NA,   ,   ,   ,   ,NA,NA,NA,NA,NA,NA,NA,NA,NA,NA,NA,87.45,METAR KLGA 042000Z 21009KT 4SM FUDZ BKN033 BKN045 28/22 A2980 RMK VA SLP091 T02830216,NA
LGA,1973-07-04T21:00:00Z,-73.8803,40.7794,82.94,71.06,67.44,170,13,NA,29.78,1008.5,5,NA,BKN,BKN,   ,   ,NA,NA,NA,NA,FU,NA,NA,NA,NA,NA,NA,87.6,METAR KLGA 042100Z 17013KT 5SM FU BKN/// BKN/// 28/22 A//// RMK SLP085 T02830217,NA
LGA,1973-07-04T22:00:00Z,-73.8803,40.7794,81,70.9,71.44,180,14,NA,29.78,NA,4,NA,   ,   ,   ,   ,NA,NA,NA,NA,NA,NA,NA,NA,NA,NA,NA,84.87,METAR KLGA 042200Z 18014KT 4SM FUDZ SCT030 27/22 A2978 RMK VA SLP085 T02720216,NA
LGA,1973-07-04T22:26:00Z,-73.8803,40.7794,NA,NA,NA,180,17,NA,29.77,NA,2.5,NA,SCT,NA,NA,NA,7900,NA,NA,NA,NA,NA,NA,NA,NA,NA,NA,NA,KLGA 042226Z AUTO 18017KT 2 1/2SM SCT079 A2977 RMK IEM_DS3505,NA
LGA,1973-07-04T23:00:00Z,-73.8803,40.7794,79.9,70.9,74.05,160,13.04,NA,29.77,NA,10.5,NA,   ,   ,   ,   ,NA,NA,NA,NA,NA,NA,NA,NA,NA,NA,NA,83.28,METAR KLGA 042300Z 16013KT 21/2SM FUDZ OVC/// SCT080 SCT200 27/22 A2977 RMK HK1 SFC VSBY 3 SLP081 T02660216,NA
LGA,1973-07-05T00:00:00Z,-73.8803,40.7794,79,71.1,76.79,180,14,NA,29.77,NA,3,NA,   ,   ,   ,   ,NA,NA,NA,NA,NA,NA,NA,NA,NA,NA,NA,81.94,METAR KLGA 050000Z 18014KT 3SM FUDZ OVC/// SCT100 BKN200 26/22 A2977 RMK HK2 SFC VSBY 3LGA7/2 SLP081 T02610217,NA
LGA,1973-07-05T01:00:00Z,-73.8803,40.7794,73.9,70,87.63,180,11.04,NA,29.78,NA,10.5,NA,   ,   ,   ,   ,NA,NA,NA,NA,NA,NA,NA,NA,NA,NA,NA,75.11,METAR KLGA 050100Z 18011KT 21/2SM FUDZ OVC/// BKN080 BKN200 23/21 A2978 RMK HK2LGA7/2 SLP085 T02330211,NA
LGA,1973-07-05T02:00:00Z,-73.8803,40.7794,74.8,70.9,87.67,180,10,NA,29.77,NA,10.5,NA,   ,   ,   ,   ,NA,NA,NA,NA,NA,NA,NA,NA,NA,NA,NA,76.1,METAR KLGA 050200Z 18010KT 21/2SM MIBCFGDZ OVC/// BKN080 BKN200 24/22 A2977 RMK FH2LGA7/2 SLP081 T02380216,NA
LGA,1973-07-05T03:00:00Z,-73.8803,40.7794,75,71.1,87.68,180,9.04,NA,29.78,NA,10.5,NA,   ,   ,   ,   ,NA,NA,NA,NA,NA,NA,NA,NA,NA,NA,NA,76.32,METAR KLGA 050300Z 19009KT 21/2SM FGDZ OVC/// SCT080 BKN200 24/22 A2978 RMK FH3/ 1071LGA7/2 SLP085 T02390217 52002,NA
LGA,1973-07-05T04:00:00Z,-73.8803,40.7794,74.8,70.9,87.67,160,5.04,NA,29.77,NA,10.5,NA,   ,   ,   ,   ,NA,NA,NA,NA,NA,NA,NA,NA,NA,NA,NA,76.1,METAR KLGA 050400Z 16005KT 21/2SM MIBCFGDZ OVC/// SCT080 BKN200 24/22 A2977 RMK FH2LGA7/2 SLP081 T02380216,NA
LGA,1973-07-05T05:00:00Z,-73.8803,40.7794,74.8,70.9,87.67,160,6,NA,29.77,NA,10.5,NA,   ,   ,   ,   ,NA,NA,NA,NA,NA,NA,NA,NA,NA,NA,NA,76.1,METAR KLGA 050500Z 16006KT 21/2SM MIBCFGDZ OVC/// SCT080 BKN200 24/22 A2977 RMK FH2LGA7/2 SLP081 T02380216,NA
LGA,1973-07-05T06:00:00Z,-73.8803,40.7794,75,71.1,87.68,160,6,NA,29.75,NA,10.5,NA,   ,   ,   ,   ,NA,NA,NA,NA,NA,NA,NA,NA,NA,NA,NA,76.32,METAR KLGA 050600Z 16006KT 21/2SM FGDZ OVC/// SCT080 OVC200 24/22 A2975 RMK FH2LGA7/2 SLP075 T02390217,NA
LGA,1973-07-05T07:00:00Z,-73.8803,40.7794,75.9,72,87.73,180,5.04,NA,29.74,NA,10.5,NA,   ,   ,   ,   ,NA,NA,NA,NA,NA,NA,NA,NA,NA,NA,NA,77.31,METAR KLGA 050700Z 19005KT 21/2SM MIBCFGDZ OVC/// SCT080 BKN200 24/22 A2974 RMK FH2LGA7/2 SLP071 T02440222,NA
LGA,1973-07-05T08:00:00Z,-73.8803,40.7794,74.8,70.9,87.67,180,6,NA,29.72,NA,10.5,NA,   ,   ,   ,   ,NA,NA,NA,NA,NA,NA,NA,NA,NA,NA,NA,76.1,METAR KLGA 050800Z 17006KT 21/2SM MIBCFGDZ OVC/// SCT080 OVC200 24/22 A2972 RMK FH2LGA7/2 SLP064 T02380216,NA
LGA,1973-07-05T09:00:00Z,-73.8803,40.7794,75,71.1,87.68,180,5.04,NA,29.71,NA,10.5,NA,   ,   ,   ,   ,NA,NA,NA,NA,NA,NA,NA,NA,NA,NA,NA,76.32,METAR KLGA 050900Z 17005KT 21/2SM FGDZ OVC/// BKN080 OVC200 24/22 A2971 RMK FH2/ 1077LGA7/2 SLP061 T02390217 57014,NA
LGA,1973-07-05T10:00:00Z,-73.8803,40.7794,73.9,70.9,90.36,180,4,NA,29.72,NA,5.5,NA,   ,   ,   ,   ,NA,NA,NA,NA,NA,NA,NA,NA,NA,NA,NA,75.24,METAR KLGA 051000Z 17004KT 11/2SM MIBCFGDZ OVC/// BKN080 OVC200 23/22 A2972 RMK FH3 RB25E29LGA7/2 SLP064 T02330216,NA
LGA,1973-07-05T12:00:00Z,-73.8803,40.7794,69.98,66.92,90.02,330,5,0.05,29.73,1006.8,6,NA,SCT,BKN,BKN,   ,1500,8000,20000,NA,DZ,NA,NA,NA,NA,NA,NA,69.98,METAR KLGA 051200Z 33005KT 6SM DZ SCT015 BKN080 BKN200 21/19 A2973 RMK TE28 MOVD E PK WND 08LGA7/2 SLP068 P0005 60009 70146 T02110194 5302/,NA
LGA,1973-07-05T13:00:00Z,-73.8803,40.7794,70.88,65.84,84.09,10,8,NA,29.74,1007.1,7,NA,BKN,OVC,   ,   ,8000,15000,NA,NA,NA,NA,NA,NA,NA,NA,NA,70.88,METAR KLGA 051300Z 01008KT 7SM BKN080 OVC150 22/19 A2974 RMK VALGA7/2 SLP071 T02160188,NA
LGA,1973-07-05T14:00:00Z,-73.8803,40.7794,72.86,66.92,81.64,30,6,NA,29.76,1007.8,7,NA,SCT,BKN,BKN,   ,1500,7000,15000,NA,NA,NA,NA,NA,NA,NA,NA,72.86,METAR KLGA 051400Z 03006KT 7SM SCT015 BKN070 BKN150 23/19 A2976 RMK VALGA7/2 SLP078 T02270194,NA
LGA,1973-07-05T15:00:00Z,-73.8803,40.7794,73.04,66.92,81.14,60,3,NA,29.77,1008.1,7,NA,SCT,BKN,OVC,   ,2000,7000,15000,NA,NA,NA,NA,NA,NA,NA,NA,73.04,METAR KLGA 051500Z 06003KT 7SM SCT020 BKN070 OVC150 23/19 A2977 RMK BINOVC/ VALGA7/2 SLP081 8/57/ T02280194 52014,NA
LGA,1973-07-05T16:00:00Z,-73.8803,40.7794,74.84,68,79.28,80,8,NA,29.78,1008.5,7,NA,SCT,BKN,   ,   ,4000,15000,NA,NA,NA,NA,NA,NA,NA,NA,NA,74.84,METAR KLGA 051600Z 08008KT 7SM SCT040 BKN150 24/20 A2978 RMK VALGA7/2 SLP085 T02380200,NA
LGA,1973-07-05T17:00:00Z,-73.8803,40.7794,77.9,68,71.62,60,4,NA,29.77,1008.1,10,NA,SCT,BKN,   ,   ,4500,15000,NA,NA,NA,NA,NA,NA,NA,NA,NA,77.9,METAR KLGA 051700Z 06004KT 10SM SCT045 BKN150 25/20 A2977 RMK VALGA7/2 SLP081 T02550200,NA
LGA,1973-07-05T18:00:00Z,-73.8803,40.7794,78.98,68,69.11,50,7,NA,29.77,1008.1,10,NA,BKN,OVC,   ,   ,3100,5000,NA,NA,NA,NA,NA,NA,NA,NA,NA,81.32,METAR KLGA 051800Z 05007KT 10SM BKN031 OVC050 26/20 A2977 RMK VALGA7/2 SLP081 T02610200,NA
LGA,1973-07-05T19:00:00Z,-73.8803,40.7794,79.88,66.92,64.64,60,5,NA,29.76,1007.8,8,NA,BKN,BKN,   ,   ,3000,5000,NA,NA,NA,NA,NA,NA,NA,NA,NA,82.16,METAR KLGA 051900Z 06005KT 8SM BKN030 BKN050 27/19 A2976 RMK VALGA7/2 SLP078 T02660194,NA
LGA,1973-07-05T20:00:00Z,-73.8803,40.7794,81.86,68,62.9,330,5,NA,29.76,1007.8,10,NA,SCT,   ,   ,   ,3500,NA,NA,NA,NA,NA,NA,NA,NA,NA,NA,84.76,METAR KLGA 052000Z 33005KT 10SM SCT035 28/20 A2976 RMK RB05E15LGA7/2 SLP078 T02770200,NA
LGA,1973-07-05T21:00:00Z,-73.8803,40.7794,82.94,66.92,58.51,310,6,NA,29.75,1007.5,10,NA,SCT,   ,   ,   ,3500,NA,NA,NA,NA,NA,NA,NA,NA,NA,NA,85.5,METAR KLGA 052100Z 31006KT 10SM SCT035 28/19 A2975 RMK / VA SLP075 8/100 T02830194 57007,NA
LGA,1973-07-05T22:00:00Z,-73.8803,40.7794,80.96,65.84,60.11,320,6,NA,29.75,1007.5,10,NA,SCT,   ,   ,   ,3500,NA,NA,NA,NA,NA,NA,NA,NA,NA,NA,83.02,METAR KLGA 052200Z 32006KT 10SM SCT035 27/19 A2975 RMK VALGA7/2 SLP075 T02720188,NA
LGA,1973-07-05T23:00:00Z,-73.8803,40.7794,81.86,63.86,54.48,330,7,NA,29.75,1007.5,15,NA,SCT,   ,   ,   ,4500,NA,NA,NA,NA,NA,NA,NA,NA,NA,NA,83.3,METAR KLGA 052300Z 33007KT 15SM SCT045 28/18 A2975 RMK VALGA7/2 SLP075 T02770177,NA
LGA,1973-07-06T00:00:00Z,-73.8803,40.7794,80.06,62.06,54.23,340,6,NA,29.77,1008.1,15,NA,SCT,   ,   ,   ,4500,NA,NA,NA,NA,NA,NA,NA,NA,NA,NA,81.27,METAR KLGA 060000Z 34006KT 15SM SCT045 27/17 A2977 RMK VALGA7/2 SLP081 T02670167,NA
LGA,1973-07-06T01:00:00Z,-73.8803,40.7794,78.98,59.9,52.04,330,7,NA,29.78,1008.5,15,NA,SCT,   ,   ,   ,4500,NA,NA,NA,NA,NA,NA,NA,NA,NA,NA,80.1,METAR KLGA 060100Z 33007KT 15SM SCT045 26/16 A2978 RMK LGA7/2 SLP085 T02610155,NA
LGA,1973-07-06T02:00:00Z,-73.8803,40.7794,77,59.9,55.56,330,7,NA,29.81,1009.5,15,NA,BKN,BKN,   ,   ,4000,9000,NA,NA,NA,NA,NA,NA,NA,NA,NA,77,METAR KLGA 060200Z 33007KT 15SM BKN040 BKN090 25/16 A2981 RMK VALGA7/2 SLP095 T02500155,NA
LGA,1973-07-06T03:00:00Z,-73.8803,40.7794,75.92,59,55.77,310,5,NA,29.82,1009.8,15,NA,BKN,BKN,   ,   ,4000,9000,NA,NA,NA,NA,NA,NA,NA,NA,NA,75.92,METAR KLGA 060300Z 31005KT 15SM BKN040 BKN090 24/15 A2982 RMK / 1530LGA7/2 SLP098 T02440150 52017,NA
LGA,1973-07-06T04:00:00Z,-73.8803,40.7794,74.84,59.9,59.7,330,8,NA,29.83,1010.2,15,NA,BKN,   ,   ,   ,6000,NA,NA,NA,NA,NA,NA,NA,NA,NA,NA,74.84,METAR KLGA 060400Z 33008KT 15SM BKN060 24/16 A2983 RMK LGA7/2 SLP102 T02380155,NA
LGA,1973-07-06T05:00:00Z,-73.8803,40.7794,74.84,59,57.81,310,6,NA,29.84,1010.5,15,NA,BKN,   ,   ,   ,6000,NA,NA,NA,NA,NA,NA,NA,NA,NA,NA,74.84,METAR KLGA 060500Z 31006KT 15SM BKN060 24/15 A2984 RMK LGA7/2 SLP105 T02380150,NA
LGA,1973-07-06T06:00:00Z,-73.8803,40.7794,73.04,57.92,59.08,330,9,NA,29.85,1010.8,15,NA,SCT,   ,   ,   ,6000,NA,NA,NA,NA,NA,NA,NA,NA,NA,NA,73.04,METAR KLGA 060600Z 33009KT 15SM SCT060 23/14 A2985 RMK LGA7/2 SLP108 T02280144,NA
LGA,1973-07-06T07:00:00Z,-73.8803,40.7794,71.96,57.92,61.28,320,10,NA,29.85,1010.8,15,NA,SCT,   ,   ,   ,6000,NA,NA,NA,NA,NA,NA,NA,NA,NA,NA,71.96,METAR KLGA 060700Z 32010KT 15SM SCT060 22/14 A2985 RMK LGA7/2 SLP108 T02220144,NA
LGA,1973-07-06T08:00:00Z,-73.8803,40.7794,69.98,57.92,65.54,330,7,NA,29.86,1011.2,15,NA,CLR,   ,   ,   ,NA,NA,NA,NA,NA,NA,NA,NA,NA,NA,NA,69.98,METAR KLGA 060800Z 33007KT 15SM CLR 21/14 A2986 RMK LGA7/2 SLP112 T02110144,NA
LGA,1973-07-06T09:00:00Z,-73.8803,40.7794,69.98,57.02,63.45,310,12,NA,29.87,1011.5,15,NA,CLR,   ,   ,   ,NA,NA,NA,NA,NA,NA,NA,NA,NA,NA,NA,69.98,METAR KLGA 060900Z 31012KT 15SM CLR 21/14 A2987 RMK / 307LGA7/2 SLP115 T02110139,NA
LGA,1973-07-06T10:00:00Z,-73.8803,40.7794,68.9,56.84,65.42,340,7,NA,29.89,1012.2,15,NA,SCT,   ,   ,   ,20000,NA,NA,NA,NA,NA,NA,NA,NA,NA,NA,68.9,METAR KLGA 061000Z 34007KT 15SM SCT200 20/14 A2989 RMK VALGA7/2 SLP122 T02050138,NA
LGA,1973-07-06T11:00:00Z,-73.8803,40.7794,68.9,57.92,68.01,300,10,NA,29.92,1013.2,10,NA,SCT,   ,   ,   ,20000,NA,NA,NA,NA,NA,NA,NA,NA,NA,NA,68.9,METAR KLGA 061100Z 30010KT 10SM SCT200 20/14 A2992 RMK VALGA7/2 SLP132 T02050144,NA
LGA,1973-07-06T12:00:00Z,-73.8803,40.7794,69.98,57.92,65.54,300,10,NA,29.93,1013.5,8,NA,SCT,   ,   ,   ,25000,NA,NA,NA,NA,NA,NA,NA,NA,NA,NA,69.98,METAR KLGA 061200Z 30010KT 8SM SCT250 21/14 A2993 RMK LGA7/2 SLP135 T02110144,NA
LGA,1973-07-06T13:00:00Z,-73.8803,40.7794,71.96,59.9,65.78,310,9,NA,29.94,1013.9,15,NA,CLR,   ,   ,   ,NA,NA,NA,NA,NA,NA,NA,NA,NA,NA,NA,71.96,METAR KLGA 061300Z 31009KT 15SM CLR 22/16 A2994 RMK LGA7/2 SLP139 T02220155,NA
LGA,1973-07-06T14:00:00Z,-73.8803,40.7794,74.84,59.9,59.7,290,6,NA,29.94,1013.9,15,NA,CLR,   ,   ,   ,NA,NA,NA,NA,NA,NA,NA,NA,NA,NA,NA,74.84,METAR KLGA 061400Z 29006KT 15SM CLR 24/16 A2994 RMK FEW CU W LGA C7/37/2 SLP139 T02380155,NA
LGA,1973-07-06T15:00:00Z,-73.8803,40.7794,75.92,59,55.77,310,9,NA,29.94,1013.9,15,NA,CLR,   ,   ,   ,NA,NA,NA,NA,NA,NA,NA,NA,NA,NA,NA,75.92,METAR KLGA 061500Z 31009KT 15SM CLR 24/15 A2994 RMK 1100LGA7/2 SLP139 T02440150 51003,NA
LGA,1973-07-06T16:00:00Z,-73.8803,40.7794,77.9,57.92,50.24,290,10,NA,29.95,1014.2,15,NA,SCT,   ,   ,   ,4500,NA,NA,NA,NA,NA,NA,NA,NA,NA,NA,77.9,METAR KLGA 061600Z 29010KT 15SM SCT045 25/14 A2995 RMK LGA7/2 SLP142 T02550144,NA
LGA,1973-07-06T17:00:00Z,-73.8803,40.7794,78.98,57.92,48.48,340,8,NA,29.94,1013.9,15,NA,SCT,   ,   ,   ,5000,NA,NA,NA,NA,NA,NA,NA,NA,NA,NA,78.98,METAR KLGA 061700Z 34008KT 15SM SCT050 26/14 A2994 RMK VALGA7/2 SLP139 T02610144,NA
LGA,1973-07-06T18:00:00Z,-73.8803,40.7794,80.06,57.92,46.79,290,8,NA,29.94,1013.9,15,NA,SCT,   ,   ,   ,5000,NA,NA,NA,NA,NA,NA,NA,NA,NA,NA,80.56,METAR KLGA 061800Z 29008KT 15SM SCT050 27/14 A2994 RMK LGA7/2 SLP139 T02670144,NA
LGA,1973-07-06T19:00:00Z,-73.8803,40.7794,80.96,56.84,43.7,330,8,NA,29.94,1013.9,15,NA,SCT,SCT,   ,   ,5000,30000,NA,NA,NA,NA,NA,NA,NA,NA,NA,80.99,METAR KLGA 061900Z 33008KT 15SM SCT050 SCT300 27/14 A2994 RMK LGA7/2 SLP139 T02720138,NA
LGA,1973-07-06T20:00:00Z,-73.8803,40.7794,81.86,59.9,47.36,340,9,NA,29.94,1013.9,15,NA,SCT,   ,   ,   ,5000,NA,NA,NA,NA,NA,NA,NA,NA,NA,NA,82.25,METAR KLGA 062000Z 34009KT 15SM SCT050 28/16 A2994 RMK LGA7/2 SLP139 T02770155,NA
LGA,1973-07-06T21:00:00Z,-73.8803,40.7794,82.04,59,45.6,330,8,NA,29.93,1013.5,15,NA,SCT,   ,   ,   ,5000,NA,NA,NA,NA,NA,NA,NA,NA,NA,NA,82.19,METAR KLGA 062100Z 33008KT 15SM SCT050 28/15 A2993 RMK / 1100LGA7/2 SLP135 T02780150 58003,NA
LGA,1973-07-06T22:00:00Z,-73.8803,40.7794,80.96,59,47.23,320,9,NA,29.93,1013.5,15,NA,SCT,   ,   ,   ,5000,NA,NA,NA,NA,NA,NA,NA,NA,NA,NA,81.38,METAR KLGA 062200Z 32009KT 15SM SCT050 27/15 A2993 RMK FEW CILGA7/2 SLP135 T02720150,NA
LGA,1973-07-06T23:00:00Z,-73.8803,40.7794,80.96,59.9,48.77,330,9,NA,29.93,1013.5,15,NA,SCT,   ,   ,   ,5000,NA,NA,NA,NA,NA,NA,NA,NA,NA,NA,81.55,METAR KLGA 062300Z 33009KT 15SM SCT050 27/16 A2993 RMK LGA SLP135 T02720155 570/2,NA
LGA,1973-07-07T00:00:00Z,-73.8803,40.7794,80.06,57.02,45.3,320,8,NA,29.94,1013.9,15,NA,CLR,   ,   ,   ,NA,NA,NA,NA,NA,NA,NA,NA,NA,NA,NA,80.42,METAR KLGA 070000Z 32008KT 15SM CLR 27/14 A2994 RMK LGA ILS R4 OTS 7/2 SLP139 T02670139 570/4,NA
LGA,1973-07-07T01:00:00Z,-73.8803,40.7794,77,59,53.8,330,6,NA,29.96,1014.6,15,NA,CLR,   ,   ,   ,NA,NA,NA,NA,NA,NA,NA,NA,NA,NA,NA,77,METAR KLGA 070100Z 33006KT 15SM CLR 25/15 A2996 RMK FEW CI VALGA7/2 SLP146 T02500150 570/4,NA
LGA,1973-07-07T02:00:00Z,-73.8803,40.7794,75.92,59,55.77,320,5,NA,29.98,1015.2,15,NA,CLR,   ,   ,   ,NA,NA,NA,NA,NA,NA,NA,NA,NA,NA,NA,75.92,METAR KLGA 070200Z 32005KT 15SM CLR 24/15 A2998 RMK VALGA7/2 SLP152 T02440150 570/4,NA
LGA,1973-07-07T03:00:00Z,-73.8803,40.7794,75.02,57.92,55.28,320,5,NA,29.99,1015.6,15,NA,CLR,   ,   ,   ,NA,NA,NA,NA,NA,NA,NA,NA,NA,NA,NA,75.02,METAR KLGA 070300Z 32005KT 15SM CLR 24/14 A2999 RMK / VALGA7/2 SLP156 T02390144 51015,NA
LGA,1973-07-07T04:00:00Z,-73.8803,40.7794,73.94,57.92,57.32,310,6,NA,30,1015.9,15,NA,CLR,   ,   ,   ,NA,NA,NA,NA,NA,NA,NA,NA,NA,NA,NA,73.94,METAR KLGA 070400Z 31006KT 15SM CLR 23/14 A3000 RMK LGA7/2 SLP159 T02330144,NA
LGA,1973-07-07T05:00:00Z,-73.8803,40.7794,71.96,59.9,65.78,320,6,NA,30,1015.9,15,NA,CLR,   ,   ,   ,NA,NA,NA,NA,NA,NA,NA,NA,NA,NA,NA,71.96,METAR KLGA 070500Z 32006KT 15SM CLR 22/16 A3000 RMK LGA7/2 SLP159 T02220155,NA
LGA,1973-07-07T06:00:00Z,-73.8803,40.7794,71.96,60.08,66.2,310,6,NA,30.01,1016.3,15,NA,CLR,   ,   ,   ,NA,NA,NA,NA,NA,NA,NA,NA,NA,NA,NA,71.96,METAR KLGA 070600Z 31006KT 15SM CLR 22/16 A3001 RMK LGA7/2 SLP163 T02220156,NA
LGA,1973-07-07T07:00:00Z,-73.8803,40.7794,NA,NA,NA,360,NA,NA,30.02,NA,15,NA,   ,   ,   ,   ,NA,NA,NA,NA,NA,NA,NA,NA,NA,NA,NA,NA,METAR KLGA 070700Z /////KT 15SM CLR M/M A//// RMK 59/3006/002LGA7/2 SLP166 T////////,NA
LGA,1973-07-07T08:00:00Z,-73.8803,40.7794,71.96,59,63.7,0,0,NA,30.03,1016.9,15,NA,CLR,   ,   ,   ,NA,NA,NA,NA,NA,NA,NA,NA,NA,NA,NA,71.96,METAR KLGA 070800Z 00000KT 15SM CLR 22/15 A3003 RMK LGA7/2 SLP169 T02220150,NA
LGA,1973-07-07T09:00:00Z,-73.8803,40.7794,71.96,57.02,59.32,0,0,NA,30.04,1017.3,15,NA,SCT,   ,   ,   ,25000,NA,NA,NA,NA,NA,NA,NA,NA,NA,NA,71.96,METAR KLGA 070900Z 00000KT 15SM SCT250 22/14 A3004 RMK / 1001LGA7/2 SLP173 T02220139 52010,NA
LGA,1973-07-07T10:00:00Z,-73.8803,40.7794,69.98,62.96,78.41,0,0,NA,30.05,1017.6,10,NA,SCT,   ,   ,   ,25000,NA,NA,NA,NA,NA,NA,NA,NA,NA,NA,69.98,METAR KLGA 071000Z 00000KT 10SM SCT250 21/17 A3005 RMK VALGA7/2 SLP176 T02110172,NA
LGA,1973-07-07T11:00:00Z,-73.8803,40.7794,71.96,59.9,65.78,0,0,NA,30.06,1018,10,NA,SCT,   ,   ,   ,25000,NA,NA,NA,NA,NA,NA,NA,NA,NA,NA,71.96,METAR KLGA 071100Z 00000KT 10SM SCT250 22/16 A3006 RMK VA SLP180 T02220155,NA
LGA,1973-07-07T12:00:00Z,-73.8803,40.7794,73.94,62.06,66.43,0,0,NA,30.06,1018,8,NA,FEW,   ,   ,   ,25000,NA,NA,NA,NA,NA,NA,NA,NA,NA,NA,73.94,METAR KLGA 071200Z 00000KT 8SM FEW250 23/17 A3006 RMK VA SLP180 T02330167,NA
LGA,1973-07-07T13:00:00Z,-73.8803,40.7794,77,62.96,61.91,340,5,NA,30.07,1018.3,10,NA,SCT,SCT,SCT,   ,5000,10000,25000,NA,NA,NA,NA,NA,NA,NA,NA,77,METAR KLGA 071300Z 34005KT 10SM SCT050 SCT100 SCT250 25/17 A3007 RMK VA SLP183 T02500172,NA
LGA,1973-07-07T14:00:00Z,-73.8803,40.7794,80.96,59,47.23,240,10,NA,30.06,1018,10,NA,CLR,   ,   ,   ,NA,NA,NA,NA,NA,NA,NA,NA,NA,NA,NA,81.38,METAR KLGA 071400Z 24010KT 10SM CLR 27/15 A3006 RMK VA SLP180 T02720150,NA
LGA,1973-07-07T15:00:00Z,-73.8803,40.7794,82.94,60.98,47.52,260,9,NA,30.06,1018,10,NA,CLR,   ,   ,   ,NA,NA,NA,NA,NA,NA,NA,NA,NA,NA,NA,83.4,METAR KLGA 071500Z 26009KT 10SM CLR 28/16 A3006 RMK VA SLP180 8/000 T02830161 50000,NA
LGA,1973-07-07T16:00:00Z,-73.8803,40.7794,83.84,61.88,47.66,250,9,NA,30.05,1017.6,10,NA,CLR,   ,   ,   ,NA,NA,NA,NA,NA,NA,NA,NA,NA,NA,NA,84.46,METAR KLGA 071600Z 25009KT 10SM CLR 29/17 A3005 RMK / FEW CU VA SLP176 T02880166,NA
LGA,1973-07-07T17:00:00Z,-73.8803,40.7794,84.92,61.88,46.03,250,8,NA,30.03,1016.9,10,NA,SCT,   ,   ,   ,4500,NA,NA,NA,NA,NA,NA,NA,NA,NA,NA,85.43,METAR KLGA 071700Z 25008KT 10SM SCT045 29/17 A3003 RMK VA SLP169 T02940166,NA
LGA,1973-07-07T18:00:00Z,-73.8803,40.7794,87.08,62.96,44.63,240,8,NA,30.02,1016.6,10,NA,SCT,   ,   ,   ,4500,NA,NA,NA,NA,NA,NA,NA,NA,NA,NA,87.92,METAR KLGA 071800Z 24008KT 10SM SCT045 31/17 A3002 RMK VA SLP166 T03060172,NA
LGA,1973-07-07T19:00:00Z,-73.8803,40.7794,87.98,63.86,44.76,250,12,NA,30,1015.9,10,NA,SCT,   ,   ,   ,4500,NA,NA,NA,NA,NA,NA,NA,NA,NA,NA,89.25,METAR KLGA 071900Z 25012KT 10SM SCT045 31/18 A3000 RMK VA SLP159 T03110177,NA
LGA,1973-07-07T20:00:00Z,-73.8803,40.7794,87.98,62.96,43.37,250,10,NA,30,1015.9,8,NA,SCT,   ,   ,   ,5000,NA,NA,NA,NA,NA,NA,NA,NA,NA,NA,88.83,METAR KLGA 072000Z 25010KT 8SM SCT050 31/17 A3000 RMK VA SLP159 T03110172,NA
LGA,1973-07-07T21:00:00Z,-73.8803,40.7794,87.98,64.04,45.04,250,12,NA,30,1015.9,8,NA,SCT,   ,   ,   ,5000,NA,NA,NA,NA,NA,NA,NA,NA,NA,NA,89.34,METAR KLGA 072100Z 25012KT 8SM SCT050 31/18 A3000 RMK / VA SLP159 8/100 T03110178 56007,NA
LGA,1973-07-07T22:00:00Z,-73.8803,40.7794,86.9,62.96,44.88,280,11,NA,30,1015.9,8,NA,CLR,   ,   ,   ,NA,NA,NA,NA,NA,NA,NA,NA,NA,NA,NA,87.75,METAR KLGA 072200Z 28011KT 8SM CLR 31/17 A3000 RMK VA SLP159 T03050172,NA
LGA,1973-07-07T23:00:00Z,-73.8803,40.7794,86,63.86,47.67,250,8,NA,29.99,1015.6,8,NA,CLR,   ,   ,   ,NA,NA,NA,NA,NA,NA,NA,NA,NA,NA,NA,87.25,METAR KLGA 072300Z 25008KT 8SM CLR 30/18 A2999 RMK VA SLP156 T03000177,NA
LGA,1973-07-08T00:00:00Z,-73.8803,40.7794,86,64.04,47.97,260,11,NA,29.99,1015.6,8,NA,CLR,   ,   ,   ,NA,NA,NA,NA,NA,NA,NA,NA,NA,NA,NA,87.33,METAR KLGA 080000Z 26011KT 8SM CLR 30/18 A2999 RMK VA SLP156 T03000178,NA
LGA,1973-07-08T01:00:00Z,-73.8803,40.7794,84.92,64.94,51.25,260,11,NA,30,1015.9,8,NA,SCT,   ,   ,   ,25000,NA,NA,NA,NA,NA,NA,NA,NA,NA,NA,86.66,METAR KLGA 080100Z 26011KT 8SM SCT250 29/18 A3000 RMK VA SLP159 T02940183,NA
LGA,1973-07-08T02:00:00Z,-73.8803,40.7794,83.84,65.84,54.75,240,10,NA,30.01,1016.3,8,NA,SCT,   ,   ,   ,25000,NA,NA,NA,NA,NA,NA,NA,NA,NA,NA,85.97,METAR KLGA 080200Z 24010KT 8SM SCT250 29/19 A3001 RMK VA SLP163 T02880188,NA
LGA,1973-07-08T03:00:00Z,-73.8803,40.7794,82.04,66.02,58.4,250,11,NA,30.02,1016.6,8,NA,SCT,   ,   ,   ,25000,NA,NA,NA,DZ,NA,NA,NA,NA,NA,NA,84.19,METAR KLGA 080300Z 25011KT 8SM DZ SCT250 28/19 A3002 RMK VA SLP166 8/001 T02780189 52010,NA
LGA,1973-07-08T04:00:00Z,-73.8803,40.7794,80.96,65.84,60.11,240,8,NA,30.01,1016.3,8,NA,SCT,   ,   ,   ,25000,NA,NA,NA,NA,NA,NA,NA,NA,NA,NA,83.02,METAR KLGA 080400Z 24008KT 8SM SCT250 27/19 A3001 RMK SLP163 T02720188,NA
LGA,1973-07-08T05:00:00Z,-73.8803,40.7794,79.88,65.84,62.27,240,8,NA,30.02,1016.6,5,NA,SCT,   ,   ,   ,25000,NA,NA,NA,DZ,NA,NA,NA,NA,NA,NA,81.91,METAR KLGA 080500Z 24008KT 5SM DZ SCT250 27/19 A3002 RMK SLP166 T02660188,NA
LGA,1973-07-08T06:00:00Z,-73.8803,40.7794,80.06,66.02,62.29,250,8,NA,30.02,1016.6,5,NA,CLR,   ,   ,   ,NA,NA,NA,NA,DZ,NA,NA,NA,NA,NA,NA,82.14,METAR KLGA 080600Z 25008KT 5SM DZ CLR 27/19 A3002 RMK SLP166 T02670189,NA
LGA,1973-07-08T07:00:00Z,-73.8803,40.7794,78.98,65.84,64.14,260,9,NA,30.01,1016.3,5,NA,CLR,   ,   ,   ,NA,NA,NA,NA,DZ,NA,NA,NA,NA,NA,NA,80.96,METAR KLGA 080700Z 26009KT 5SM DZ CLR 26/19 A3001 RMK SLP163 T02610188,NA
LGA,1973-07-08T09:00:00Z,-73.8803,40.7794,77,64.94,66.36,250,7,NA,30.01,1016.3,5,NA,SCT,   ,   ,   ,25000,NA,NA,NA,DZ,NA,NA,NA,NA,NA,NA,77,METAR KLGA 080900Z 25007KT 5SM DZ SCT250 25/18 A3001 RMK / SLP163 8/001 T02500183 56003,NA
LGA,1973-07-08T10:00:00Z,-73.8803,40.7794,77,64.94,66.36,260,6,NA,30.01,1016.3,4,NA,SCT,   ,   ,   ,25000,NA,NA,NA,DZ,NA,NA,NA,NA,NA,NA,77,METAR KLGA 081000Z 26006KT 4SM DZ SCT250 25/18 A3001 RMK VA SLP163 T02500183,NA
LGA,1973-07-08T11:00:00Z,-73.8803,40.7794,77,65.84,68.47,260,3,NA,30.02,1016.6,4,NA,BKN,   ,   ,   ,25000,NA,NA,NA,DZ,NA,NA,NA,NA,NA,NA,77,METAR KLGA 081100Z 26003KT 4SM DZ BKN250 25/19 A3002 RMK VA SLP166 T02500188,NA
LGA,1973-07-08T12:00:00Z,-73.8803,40.7794,78.98,66.92,66.58,300,7,NA,30.03,1016.9,4,NA,FEW,   ,   ,   ,25000,NA,NA,NA,DZ,NA,NA,NA,NA,NA,NA,81.14,METAR KLGA 081200Z 30007KT 4SM DZ FEW250 26/19 A3003 RMK VA SLP169 T02610194,NA
LGA,1973-07-08T13:00:00Z,-73.8803,40.7794,80.96,66.92,62.4,310,6,NA,30.03,1016.9,4,NA,SCT,   ,   ,   ,25000,NA,NA,NA,DZ,NA,NA,NA,NA,NA,NA,83.36,METAR KLGA 081300Z 31006KT 4SM DZ SCT250 27/19 A3003 RMK SLP169 T02720194,NA
LGA,1973-07-08T14:00:00Z,-73.8803,40.7794,82.94,69.98,65,330,4,NA,30.03,1016.9,5,NA,SCT,   ,   ,   ,25000,NA,NA,NA,DZ,NA,NA,NA,NA,NA,NA,86.99,METAR KLGA 081400Z 33004KT 5SM DZ SCT250 28/21 A3003 RMK VA SLP169 T02830211,NA
LGA,1973-07-08T15:00:00Z,-73.8803,40.7794,86,69.08,57.12,340,4,NA,30.03,1016.9,5,NA,FEW,   ,   ,   ,25000,NA,NA,NA,DZ,NA,NA,NA,NA,NA,NA,90.1,METAR KLGA 081500Z 34004KT 5SM DZ FEW250 30/21 A3003 RMK SLP169 8/001 T03000206 54000,NA
LGA,1973-07-08T16:00:00Z,-73.8803,40.7794,87.98,68.9,53.31,50,5,NA,30.03,1016.9,5,NA,SCT,   ,   ,   ,25000,NA,NA,NA,DZ,NA,NA,NA,NA,NA,NA,92.26,METAR KLGA 081600Z 05005KT 5SM DZ SCT250 31/20 A3003 RMK VA SLP169 T03110205,NA
LGA,1973-07-08T17:00:00Z,-73.8803,40.7794,89.96,68,48.55,280,10,NA,30.02,1016.6,6,NA,SCT,SCT,   ,   ,5000,25000,NA,NA,DZ,NA,NA,NA,NA,NA,NA,93.88,METAR KLGA 081700Z 28010KT 6SM DZ SCT050 SCT250 32/20 A3002 RMK VA SLP166 T03220200,NA
LGA,1973-07-08T18:00:00Z,-73.8803,40.7794,89.96,69.08,50.39,290,7,NA,30,1015.9,6,NA,SCT,   ,   ,   ,5000,NA,NA,NA,DZ,NA,NA,NA,NA,NA,NA,94.7,METAR KLGA 081800Z 29007KT 6SM DZ SCT050 32/21 A3000 RMK VA SLP159 T03220206,NA
LGA,1973-07-08T19:00:00Z,-73.8803,40.7794,90.86,68.9,48.68,260,7,NA,29.99,1015.6,6,NA,SCT,   ,   ,   ,5000,NA,NA,NA,DZ,NA,NA,NA,NA,NA,NA,95.61,METAR KLGA 081900Z 26007KT 6SM DZ SCT050 33/20 A2999 RMK VA SLP156 T03270205,NA
LGA,1973-07-08T20:00:00Z,-73.8803,40.7794,91.94,68.9,47.06,260,11,NA,29.99,1015.6,5,NA,BKN,   ,   ,   ,5000,NA,NA,NA,DZ,NA,NA,NA,NA,NA,NA,96.89,METAR KLGA 082000Z 26011KT 5SM DZ BKN050 33/20 A2999 RMK VA SLP156 T03330205,NA
LGA,1973-07-08T21:00:00Z,-73.8803,40.7794,91.94,69.08,47.36,270,9,NA,29.98,1015.2,5,NA,SCT,SCT,   ,   ,5000,25000,NA,NA,DZ,NA,NA,NA,NA,NA,NA,97.03,METAR KLGA 082100Z 27009KT 5SM DZ SCT050 SCT250 33/21 A2998 RMK / SLP152 8/101 T03330206 57007,NA
LGA,1973-07-08T22:00:00Z,-73.8803,40.7794,89.96,68.9,50.08,270,10,NA,29.97,1014.9,5,NA,SCT,SCT,   ,   ,5000,25000,NA,NA,DZ,NA,NA,NA,NA,NA,NA,94.56,METAR KLGA 082200Z 27010KT 5SM DZ SCT050 SCT250 32/20 A2997 RMK VA SLP149 T03220205,NA
LGA,1973-07-08T23:00:00Z,-73.8803,40.7794,89.96,68.9,50.08,270,9,NA,29.98,1015.2,5,NA,SCT,   ,   ,   ,25000,NA,NA,NA,DZ,NA,NA,NA,NA,NA,NA,94.56,METAR KLGA 082300Z 27009KT 5SM DZ SCT250 32/20 A2998 RMK VA SLP152 T03220205,NA
LGA,1973-07-09T00:00:00Z,-73.8803,40.7794,87.98,68,51.68,260,9,NA,29.98,1015.2,4,NA,FEW,   ,   ,   ,25000,NA,NA,NA,DZ,NA,NA,NA,NA,NA,NA,91.63,METAR KLGA 090000Z 26009KT 4SM DZ FEW250 31/20 A2998 RMK VA SLP152 T03110200,NA
LGA,1973-07-09T01:00:00Z,-73.8803,40.7794,86.9,68.9,55.17,240,9,NA,29.99,1015.6,3,NA,SCT,   ,   ,   ,25000,NA,NA,NA,DZ,NA,NA,NA,NA,NA,NA,91.01,METAR KLGA 090100Z 24009KT 3SM DZ SCT250 31/20 A2999 RMK VA SLP156 T03050205,NA
LGA,1973-07-09T02:00:00Z,-73.8803,40.7794,86,68,55.04,230,11,NA,29.98,1015.2,3,NA,SCT,   ,   ,   ,25000,NA,NA,NA,DZ,NA,NA,NA,NA,NA,NA,89.41,METAR KLGA 090200Z 23011KT 3SM DZ SCT250 30/20 A2998 RMK SLP152 T03000200,NA
LGA,1973-07-09T03:00:00Z,-73.8803,40.7794,84.92,66.92,54.9,240,10,NA,29.98,1015.2,3,NA,FEW,   ,   ,   ,25000,NA,NA,NA,DZ,NA,NA,NA,NA,NA,NA,87.62,METAR KLGA 090300Z 24010KT 3SM DZ FEW250 29/19 A2998 RMK / SLP152 8/001 T02940194 50000,NA
LGA,1973-07-09T04:00:00Z,-73.8803,40.7794,84.92,66.92,54.9,240,14,NA,29.98,1015.2,3,NA,SCT,   ,   ,   ,25000,NA,NA,NA,DZ,NA,NA,NA,NA,NA,NA,87.62,METAR KLGA 090400Z 24014KT 3SM DZ SCT250 29/19 A2998 RMK SLP152 T02940194,NA
LGA,1973-07-09T05:00:00Z,-73.8803,40.7794,81.9,66.9,60.48,250,9.04,NA,29.98,NA,3,NA,   ,   ,   ,   ,NA,NA,NA,NA,NA,NA,NA,NA,NA,NA,NA,84.37,METAR KLGA 090500Z 25009KT 3SM FUDZ SCT250 28/19 A2998 RMK SLP152 T02770194,NA
LGA,1973-07-09T06:00:00Z,-73.8803,40.7794,80.1,68,66.62,270,8,NA,29.97,NA,3,NA,   ,   ,   ,   ,NA,NA,NA,NA,NA,NA,NA,NA,NA,NA,NA,82.7,METAR KLGA 090600Z 26008KT 3SM FUDZ SCT250 27/20 A2997 RMK SLP149 T02670200,NA
LGA,1973-07-09T07:00:00Z,-73.8803,40.7794,79.9,66.9,64.56,250,7.04,NA,29.96,NA,3,NA,   ,   ,   ,   ,NA,NA,NA,NA,NA,NA,NA,NA,NA,NA,NA,82.18,METAR KLGA 090700Z 25007KT 3SM FUDZ SCT250 27/19 A2996 RMK SLP146 T02660194,NA
LGA,1973-07-09T08:00:00Z,-73.8803,40.7794,79.9,66.9,64.56,270,6,NA,29.95,NA,3,NA,   ,   ,   ,   ,NA,NA,NA,NA,NA,NA,NA,NA,NA,NA,NA,82.18,METAR KLGA 090800Z 26006KT 3SM FUDZ SCT250 27/19 A2995 RMK SLP142 T02660194,NA
LGA,1973-07-09T09:00:00Z,-73.8803,40.7794,78.1,66.9,68.49,250,6,NA,29.95,NA,3,NA,   ,   ,   ,   ,NA,NA,NA,NA,NA,NA,NA,NA,NA,NA,NA,78.1,METAR KLGA 090900Z 25006KT 3SM FUDZ CLR 26/19 A2995 RMK / SLP142 T02560194 56007,NA
LGA,1973-07-09T10:00:00Z,-73.8803,40.7794,77.9,66.9,68.95,270,5.04,NA,29.95,NA,3,NA,   ,   ,   ,   ,NA,NA,NA,NA,NA,NA,NA,NA,NA,NA,NA,77.9,METAR KLGA 091000Z 26005KT 3SM FUDZ CLR 25/19 A2995 RMK SLP142 T02550194,NA
LGA,1973-07-09T11:00:00Z,-73.8803,40.7794,79,66.9,66.49,290,6,NA,29.96,NA,3,NA,   ,   ,   ,   ,NA,NA,NA,NA,NA,NA,NA,NA,NA,NA,NA,81.16,METAR KLGA 091100Z 29006KT 3SM FUDZ CLR 26/19 A2996 RMK SLP146 T02610194,NA
LGA,1973-07-09T12:00:00Z,-73.8803,40.7794,80.1,69.1,69.18,310,5.04,NA,29.96,NA,3,NA,   ,   ,   ,   ,NA,NA,NA,NA,NA,NA,NA,NA,NA,NA,NA,83.01,METAR KLGA 091200Z 31005KT 3SM FUDZ CLR 27/21 A2996 RMK VALGA7/5 SLP146 T02670206,NA
LGA,1973-07-09T13:00:00Z,-73.8803,40.7794,82.9,68.9,62.72,300,8,NA,29.95,NA,4,NA,   ,   ,   ,   ,NA,NA,NA,NA,NA,NA,NA,NA,NA,NA,NA,86.38,METAR KLGA 091300Z 30008KT 4SM FUDZ CLR 28/20 A2995 RMK TWR VSBY 3 VALGA7/5 SLP142 T02830205,NA
LGA,1973-07-09T14:00:00Z,-73.8803,40.7794,84.9,68.9,58.81,300,6,NA,29.95,NA,4,NA,   ,   ,   ,   ,NA,NA,NA,NA,NA,NA,NA,NA,NA,NA,NA,88.71,METAR KLGA 091400Z 30006KT 4SM FUDZ CLR 29/20 A2995 RMK VALGA7/5 SLP142 T02940205,NA
LGA,1973-07-09T15:00:00Z,-73.8803,40.7794,88,68,51.65,300,5.04,NA,29.94,NA,4,NA,   ,   ,   ,   ,NA,NA,NA,NA,NA,NA,NA,NA,NA,NA,NA,91.65,METAR KLGA 091500Z 30005KT 4SM FUDZ CLR 31/20 A2994 RMK / VALGA7/5 SLP139 8/100 T03110200 58007,NA
LGA,1973-07-09T16:00:00Z,-73.8803,40.7794,88.9,66.9,48.33,320,5.04,NA,29.94,NA,5,NA,   ,   ,   ,   ,NA,NA,NA,NA,NA,NA,NA,NA,NA,NA,NA,91.94,METAR KLGA 091600Z 32005KT 5SM FUDZ SCT050 32/19 A2994 RMK VALGA7/5 SLP139 T03160194,NA
LGA,1973-07-09T17:00:00Z,-73.8803,40.7794,90.9,68,47.14,270,10,NA,29.92,NA,5,NA,   ,   ,   ,   ,NA,NA,NA,NA,NA,NA,NA,NA,NA,NA,NA,94.97,METAR KLGA 091700Z 28010KT 5SM FUDZ SCT050 33/20 A2992 RMK VALGA7/5 SLP132 T03270200,NA
LGA,1973-07-09T18:00:00Z,-73.8803,40.7794,90,70,51.93,230,5.04,NA,29.9,NA,4,NA,   ,   ,   ,   ,NA,NA,NA,NA,NA,NA,NA,NA,NA,NA,NA,95.49,METAR KLGA 091800Z 23005KT 4SM FUDZ SCT050 32/21 A2990 RMK VALGA7/5 SLP125 T03220211,NA
LGA,1973-07-09T19:00:00Z,-73.8803,40.7794,90.9,68,47.14,230,8,NA,29.9,NA,4,NA,   ,   ,   ,   ,NA,NA,NA,NA,NA,NA,NA,NA,NA,NA,NA,94.97,METAR KLGA 091900Z 23008KT 4SM FUDZ SCT050 33/20 A2990 RMK VALGA7/5 SLP125 T03270200,NA
LGA,1973-07-09T20:00:00Z,-73.8803,40.7794,91.9,65.8,42.34,270,9.04,NA,29.88,NA,5,NA,   ,   ,   ,   ,NA,NA,NA,NA,NA,NA,NA,NA,NA,NA,NA,94.59,METAR KLGA 092000Z 27009KT 5SM FUDZ SCT050 33/19 A2988 RMK LGA7/5 SLP119 T03330188,NA
LGA,1973-07-09T21:00:00Z,-73.8803,40.7794,91.9,66.9,43.99,320,5.04,NA,29.86,NA,5,NA,   ,   ,   ,   ,NA,NA,NA,NA,NA,NA,NA,NA,NA,NA,NA,95.33,METAR KLGA 092100Z 32005KT 5SM FUDZ SCT050 33/19 A2986 RMK 1100LGA7/5 SLP112 T03330194 58014,NA
LGA,1973-07-09T22:00:00Z,-73.8803,40.7794,90,66.9,46.68,270,6,NA,29.85,NA,5,NA,   ,   ,   ,   ,NA,NA,NA,NA,NA,NA,NA,NA,NA,NA,NA,93.17,METAR KLGA 092200Z 26006KT 5SM FUDZ SCT050 32/19 A2985 RMK LGA7/5 SLP108 T03220194,NA
LGA,1973-07-09T23:00:00Z,-73.8803,40.7794,90,68.9,50.01,270,8,NA,29.85,NA,5,NA,   ,   ,   ,   ,NA,NA,NA,NA,NA,NA,NA,NA,NA,NA,NA,94.6,METAR KLGA 092300Z 28008KT 5SM FUDZ BKN050 32/20 A2985 RMK LGA7/5 SLP108 T03220205,NA
LGA,1973-07-10T00:00:00Z,-73.8803,40.7794,89.1,69.1,51.8,270,12,NA,29.85,NA,4,NA,   ,   ,   ,   ,NA,NA,NA,NA,NA,NA,NA,NA,NA,NA,NA,93.71,METAR KLGA 100000Z 28012KT 4SM FUDZ BKN050 32/21 A2985 RMK LGA7/5 SLP108 T03170206,NA
LGA,1973-07-10T01:00:00Z,-73.8803,40.7794,86.9,68.9,55.17,250,11.04,NA,29.85,NA,4,NA,   ,   ,   ,   ,NA,NA,NA,NA,NA,NA,NA,NA,NA,NA,NA,91.01,METAR KLGA 100100Z 25011KT 4SM FUDZ BKN045 31/20 A2985 RMK LGA7/5 SLP108 T03050205,NA
LGA,1973-07-10T02:00:00Z,-73.8803,40.7794,86.9,68,53.49,250,8,NA,29.86,NA,5,NA,   ,   ,   ,   ,NA,NA,NA,NA,NA,NA,NA,NA,NA,NA,NA,90.42,METAR KLGA 100200Z 24008KT 5SM FUDZ SCT045 31/20 A2986 RMK LGA7/5 SLP112 T03050200,NA
LGA,1973-07-10T03:00:00Z,-73.8803,40.7794,86,70,58.95,250,10,NA,29.86,NA,5,NA,   ,   ,   ,   ,NA,NA,NA,NA,NA,NA,NA,NA,NA,NA,NA,90.73,METAR KLGA 100300Z 25010KT 5SM FUDZ BKN070 30/21 A2986 RMK / 1070LGA7/5 SLP112 T03000211 51003,NA
LGA,1973-07-10T04:00:00Z,-73.8803,40.7794,83.8,70.9,65.23,270,6,NA,29.86,NA,5,NA,   ,   ,   ,   ,NA,NA,NA,NA,NA,NA,NA,NA,NA,NA,NA,88.62,METAR KLGA 100400Z 27006KT 5SM FUDZ SCT250 29/22 A2986 RMK LGA7/5 SLP112 T02880216,NA
LGA,1973-07-10T05:00:00Z,-73.8803,40.7794,81,70.9,71.44,310,6,NA,29.86,NA,4,NA,   ,   ,   ,   ,NA,NA,NA,NA,NA,NA,NA,NA,NA,NA,NA,84.87,METAR KLGA 100500Z 31006KT 4SM FUDZ BKN250 27/22 A2986 RMK LGA7/5 SLP112 T02720216,NA
LGA,1973-07-10T06:00:00Z,-73.8803,40.7794,81,70,69.28,340,5.04,NA,29.86,NA,4,NA,   ,   ,   ,   ,NA,NA,NA,NA,NA,NA,NA,NA,NA,NA,NA,84.5,METAR KLGA 100600Z 34005KT 4SM FUDZ BKN250 27/21 A2986 RMK LGA7/5 SLP112 T02720211,NA
LGA,1973-07-10T07:00:00Z,-73.8803,40.7794,79.9,70.9,74.05,360,7.04,NA,29.86,NA,4,NA,   ,   ,   ,   ,NA,NA,NA,NA,NA,NA,NA,NA,NA,NA,NA,83.28,METAR KLGA 100700Z 36007KT 4SM FUDZ BKN250 27/22 A2986 RMK LGA7/5 SLP112 T02660216,NA
LGA,1973-07-10T08:00:00Z,-73.8803,40.7794,77,68.9,76.1,70,6,NA,29.86,1011.2,4,NA,BKN,   ,   ,   ,25000,NA,NA,NA,DZ,NA,NA,NA,NA,NA,NA,77,METAR KLGA 100800Z 07006KT 4SM DZ BKN250 25/20 A2986 RMK LGA7/5 SLP112 T02500205,NA
LGA,1973-07-10T09:00:00Z,-73.8803,40.7794,75.92,68,76.48,30,5,NA,29.85,1010.8,4,NA,BKN,   ,   ,   ,25000,NA,NA,NA,DZ,NA,NA,NA,NA,NA,NA,75.92,METAR KLGA 100900Z 03005KT 4SM DZ BKN250 24/20 A2985 RMK / 1008LGA7/5 SLP108 T02440200 58003,NA
LGA,1973-07-10T10:00:00Z,-73.8803,40.7794,77,66.92,71.08,60,4,NA,29.86,1011.2,5,NA,SCT,BKN,   ,   ,6000,25000,NA,NA,DZ,NA,NA,NA,NA,NA,NA,77,METAR KLGA 101000Z 06004KT 5SM DZ SCT060 BKN250 25/19 A2986 RMK VALGA7/5 SLP112 T02500194,NA
LGA,1973-07-10T11:00:00Z,-73.8803,40.7794,75.92,61.88,61.78,40,5,NA,29.86,1011.2,8,NA,SCT,BKN,   ,   ,6000,25000,NA,NA,NA,NA,NA,NA,NA,NA,NA,75.92,METAR KLGA 101100Z 04005KT 8SM SCT060 BKN250 24/17 A2986 RMK VALGA7/5 SLP112 T02440166,NA
LGA,1973-07-10T12:00:00Z,-73.8803,40.7794,78.08,60.08,53.95,40,8,NA,29.87,1011.5,8,NA,FEW,   ,   ,   ,25000,NA,NA,NA,NA,NA,NA,NA,NA,NA,NA,78.08,METAR KLGA 101200Z 04008KT 8SM FEW250 26/16 A2987 RMK VALGA7/5 SLP115 T02560156,NA
LGA,1973-07-10T13:00:00Z,-73.8803,40.7794,77.9,59.9,53.93,50,6,NA,29.87,1011.5,8,NA,BKN,OVC,   ,   ,4900,6000,NA,NA,NA,NA,NA,NA,NA,NA,NA,77.9,METAR KLGA 101300Z 05006KT 8SM BKN049 OVC060 25/16 A2987 RMK KOCTY VALGA7/5 SLP115 T02550155,NA
LGA,1973-07-10T14:00:00Z,-73.8803,40.7794,80.96,61.88,52.32,50,6,NA,29.86,1011.2,7,NA,SCT,SCT,   ,   ,4000,25000,NA,NA,NA,NA,NA,NA,NA,NA,NA,81.98,METAR KLGA 101400Z 05006KT 7SM SCT040 SCT250 27/17 A2986 RMK VALGA7/5 SLP112 T02720166,NA
LGA,1973-07-10T15:00:00Z,-73.8803,40.7794,82.94,62.96,50.97,60,5,NA,29.85,1010.8,7,NA,SCT,BKN,   ,   ,4000,25000,NA,NA,NA,NA,NA,NA,NA,NA,NA,84,METAR KLGA 101500Z 06005KT 7SM SCT040 BKN250 28/17 A2985 RMK / VA SLP108 8/108 T02830172 58007,NA
LGA,1973-07-10T16:00:00Z,-73.8803,40.7794,84.92,61.88,46.03,60,6,NA,29.84,1010.5,6,NA,SCT,BKN,   ,   ,4000,25000,NA,NA,DZ,NA,NA,NA,NA,NA,NA,85.43,METAR KLGA 101600Z 06006KT 6SM DZ SCT040 BKN250 29/17 A2984 RMK VALGA7/5 SLP105 T02940166,NA
LGA,1973-07-10T17:00:00Z,-73.8803,40.7794,86,64.94,49.51,30,8,NA,29.82,1009.8,6,NA,SCT,BKN,   ,   ,4500,25000,NA,NA,DZ,NA,NA,NA,NA,NA,NA,87.75,METAR KLGA 101700Z 03008KT 6SM DZ SCT045 BKN250 30/18 A2982 RMK BLDUPS W VALGA7/5 SLP098 T03000183 570/6,NA
LGA,1973-07-10T18:00:00Z,-73.8803,40.7794,87.98,64.94,46.48,30,9,NA,29.81,1009.5,6,NA,SCT,BKN,   ,   ,4500,25000,NA,NA,DZ,NA,NA,NA,NA,NA,NA,89.8,METAR KLGA 101800Z 03009KT 6SM DZ SCT045 BKN250 31/18 A2981 RMK VALGA7/5 SLP095 T03110183 570/6,NA
LGA,1973-07-10T19:00:00Z,-73.8803,40.7794,88.88,63.86,43.5,230,8,NA,29.78,1008.5,6,NA,SCT,SCT,   ,   ,5000,25000,NA,NA,DZ,NA,NA,NA,NA,NA,NA,90.18,METAR KLGA 101900Z 23008KT 6SM DZ SCT050 SCT250 32/18 A2978 RMK VALGA7/5 SLP085 T03160177 570/6,NA
LGA,1973-07-10T20:00:00Z,-73.8803,40.7794,86.9,65.84,49.64,180,13,NA,29.76,1007.8,5,NA,OVC,SCT,SCT,   ,NA,5000,25000,NA,DZ,NA,NA,NA,NA,NA,NA,89.14,METAR KLGA 102000Z 18013KT 5SM DZ OVC/// SCT050 SCT250 31/19 A2976 RMK / HS2 VALGA7/5 SLP078 T03050188 570/6,NA
LGA,1973-07-10T20:26:00Z,-73.8803,40.7794,NA,NA,NA,140,11,NA,29.76,NA,3,NA,SCT,SCT,NA,NA,4900,24600,NA,NA,NA,NA,NA,NA,NA,NA,NA,NA,KLGA 102026Z AUTO 14011KT 3SM POB000 SCT049 SCT246 A2976 RMK IEM_DS3505,NA
LGA,1973-07-10T21:00:00Z,-73.8803,40.7794,84.92,69.98,60.98,180,11,NA,29.75,1007.5,3,NA,OVC,SCT,SCT,   ,NA,5000,25000,NA,DZ,NA,NA,NA,NA,NA,NA,89.42,METAR KLGA 102100Z 18011KT 3SM DZ OVC/// SCT050 SCT250 29/21 A2975 RMK / H2 1201LGA C7/6 SLP075 T02940211 56020,NA
LGA,1973-07-10T22:00:00Z,-73.8803,40.7794,84.92,68.9,58.77,180,10,NA,29.74,1007.1,3,NA,OVC,SCT,SCT,   ,NA,5000,25000,NA,DZ,NA,NA,NA,NA,NA,NA,88.73,METAR KLGA 102200Z 18010KT 3SM DZ OVC/// SCT050 SCT250 29/20 A2974 RMK / H2 VALGA7/5 SLP071 T02940205,NA
LGA,1973-07-10T23:00:00Z,-73.8803,40.7794,86,69.98,58.91,210,12,NA,29.73,1006.8,3,NA,OVC,BKN,   ,   ,NA,25000,NA,NA,DZ,NA,NA,NA,NA,NA,NA,90.71,METAR KLGA 102300Z 21012KT 3SM DZ OVC/// BKN250 30/21 A2973 RMK H2 VALGA7/5 SLP068 T03000211,NA
LGA,1973-07-11T00:00:00Z,-73.8803,40.7794,84.92,66.02,53.21,200,10,NA,29.73,1006.8,3,NA,OVC,   ,   ,   ,25000,NA,NA,NA,DZ,NA,NA,NA,NA,NA,NA,87.16,METAR KLGA 110000Z 20010KT 3SM DZ OVC250 29/19 A2973 RMK LGA7/5 SLP068 T02940189,NA
LGA,1973-07-11T01:00:00Z,-73.8803,40.7794,81.86,68,62.9,190,7,NA,29.74,1007.1,3,NA,SCT,OVC,   ,   ,5000,25000,NA,NA,DZ,NA,NA,NA,NA,NA,NA,84.76,METAR KLGA 110100Z 19007KT 3SM DZ SCT050 OVC250 28/20 A2974 RMK VALGA7/5 SLP071 T02770200,NA
LGA,1973-07-11T02:00:00Z,-73.8803,40.7794,81.86,68.9,64.88,190,8,NA,29.73,1006.8,3,NA,SCT,OVC,   ,   ,5000,25000,NA,NA,DZ,NA,NA,NA,NA,NA,NA,85.14,METAR KLGA 110200Z 19008KT 3SM DZ SCT050 OVC250 28/20 A2973 RMK LGA7/5 SLP068 T02770205,NA
LGA,1973-07-11T03:00:00Z,-73.8803,40.7794,80.96,69.08,67.22,210,10,NA,29.73,1006.8,3,NA,SCT,OVC,   ,   ,5000,25000,NA,NA,DZ,NA,NA,NA,NA,NA,NA,84.1,METAR KLGA 110300Z 21010KT 3SM DZ SCT050 OVC250 27/21 A2973 RMK / 1407LGA7/5 SLP068 T02720206 50000,NA
LGA,1973-07-11T04:00:00Z,-73.8803,40.7794,80.96,69.98,69.32,210,11,NA,29.72,1006.4,3,NA,OVC,   ,   ,   ,25000,NA,NA,NA,DZ,NA,NA,NA,NA,NA,NA,84.44,METAR KLGA 110400Z 21011KT 3SM DZ OVC250 27/21 A2972 RMK LGA OM 4 OTS 7/5 SLP064 T02720211 570/7,NA
LGA,1973-07-11T05:00:00Z,-73.8803,40.7794,79.88,69.98,71.81,220,10,NA,29.71,1006.1,3,NA,BKN,   ,   ,   ,25000,NA,NA,NA,DZ,NA,NA,NA,NA,NA,NA,82.97,METAR KLGA 110500Z 22010KT 3SM DZ BKN250 27/21 A2971 RMK LGA7/5 SLP061 T02660211 570/7,NA
LGA,1973-07-11T06:00:00Z,-73.8803,40.7794,78.08,69.08,73.88,230,7,NA,29.69,1005.4,3,NA,OVC,   ,   ,   ,25000,NA,NA,NA,DZ,NA,NA,NA,NA,NA,NA,80.26,METAR KLGA 110600Z 23007KT 3SM DZ OVC250 26/21 A2969 RMK LGA7/5 SLP054 T02560206 570/7,NA
LGA,1973-07-11T07:00:00Z,-73.8803,40.7794,77.9,68.9,73.86,230,8,NA,29.68,1005.1,3,NA,BKN,OVC,   ,   ,5000,25000,NA,NA,DZ,NA,NA,NA,NA,NA,NA,77.9,METAR KLGA 110700Z 23008KT 3SM DZ BKN050 OVC250 25/20 A2968 RMK LGA7/5 SLP051 T02550205 570/7,NA
LGA,1973-07-11T08:00:00Z,-73.8803,40.7794,78.98,65.84,64.14,260,8,NA,29.68,1005.1,3,NA,BKN,OVC,   ,   ,5000,25000,NA,NA,DZ,NA,NA,NA,NA,NA,NA,80.96,METAR KLGA 110800Z 26008KT 3SM DZ BKN050 OVC250 26/19 A2968 RMK LGA7/5 SLP051 T02610188 570/7,NA
LGA,1973-07-11T09:00:00Z,-73.8803,40.7794,78.08,64.04,62.05,280,8,NA,29.69,1005.4,3,NA,BKN,OVC,   ,   ,5000,25000,NA,NA,DZ,NA,NA,NA,NA,NA,NA,78.08,METAR KLGA 110900Z 28008KT 3SM DZ BKN050 OVC250 26/18 A2969 RMK / 1507LGA7/5 7/7 SLP054 T02560178 55000,NA
LGA,1973-07-11T10:00:00Z,-73.8803,40.7794,72.86,65.84,78.64,220,5,0.07,29.71,1006.1,2.5,NA,SCT,OVC,   ,   ,4000,7000,NA,NA,-SHRA DZ,NA,NA,NA,NA,NA,NA,72.86,METAR KLGA 111000Z 22005KT 21/2SM -SHRA DZ SCT040 OVC070 23/19 A2971 RMK RB18LGA7/5 SLP061 P0007 T02270188,NA
LGA,1973-07-11T11:00:00Z,-73.8803,40.7794,73.94,65.84,75.83,280,3,NA,29.71,1006.1,3,NA,SCT,OVC,   ,   ,5000,7000,NA,NA,DZ,NA,NA,NA,NA,NA,NA,73.94,METAR KLGA 111100Z 28003KT 3SM DZ SCT050 OVC070 23/19 A2971 RMK RE03LGA C7/77/5 SLP061 T02330188,NA
LGA,1973-07-11T12:00:00Z,-73.8803,40.7794,75.92,66.02,71.42,280,10,NA,29.73,1006.8,5,NA,BKN,OVC,   ,   ,6000,25000,NA,NA,DZ,NA,NA,NA,NA,NA,NA,75.92,METAR KLGA 111200Z 28010KT 5SM DZ BKN060 OVC250 24/19 A2973 RMK LGA7/5 SLP068 60008 70008 T02440189,NA
LGA,1973-07-11T13:00:00Z,-73.8803,40.7794,74.84,63.86,68.67,320,9,NA,29.73,1006.8,9,NA,BKN,OVC,   ,   ,6000,12000,NA,NA,NA,NA,NA,NA,NA,NA,NA,74.84,METAR KLGA 111300Z 32009KT 9SM BKN060 OVC120 24/18 A2973 RMK LGA7/5 SLP068 T02380177,NA
LGA,1973-07-11T14:00:00Z,-73.8803,40.7794,74.84,63.86,68.67,320,6,NA,29.73,1006.8,8,NA,BKN,OVC,   ,   ,6000,12000,NA,NA,NA,NA,NA,NA,NA,NA,NA,74.84,METAR KLGA 111400Z 32006KT 8SM BKN060 OVC120 24/18 A2973 RMK RB40E51LGA7/5 SLP068 T02380177,NA
LGA,1973-07-11T15:00:00Z,-73.8803,40.7794,75.92,64.94,68.78,310,5,NA,29.74,1007.5,7,NA,BKN,OVC,   ,   ,7000,12000,NA,NA,NA,NA,NA,NA,NA,NA,NA,75.92,METAR KLGA 111500Z 31005KT 7SM BKN070 OVC120 24/18 A2974 RMK / 107/LGA7/5 7/8 SLP075 T02440183 53007,NA
LGA,1973-07-11T16:00:00Z,-73.8803,40.7794,77.9,65.84,66.46,290,6,NA,29.74,1007.1,8,NA,SCT,SCT,SCT,BKN,3000,7000,12000,22000,NA,NA,NA,NA,NA,NA,NA,77.9,METAR KLGA 111600Z 29006KT 8SM SCT030 SCT070 SCT120 BKN220 25/19 A2974 RMK VALGA7/5 SLP071 T02550188 570/8,NA
LGA,1973-07-11T17:00:00Z,-73.8803,40.7794,79.88,63.86,58.11,330,4,NA,29.72,1006.4,10,NA,BKN,BKN,   ,   ,3500,22000,NA,NA,NA,NA,NA,NA,NA,NA,NA,81.48,METAR KLGA 111700Z 33004KT 10SM BKN035 BKN220 27/18 A2972 RMK VALGA7/5 SLP064 T02660177 570/8,NA
LGA,1973-07-11T18:00:00Z,-73.8803,40.7794,80.06,64.94,59.99,50,7,NA,29.71,1006.1,9,NA,BKN,BKN,   ,   ,3500,22000,NA,NA,NA,NA,NA,NA,NA,NA,NA,81.88,METAR KLGA 111800Z 05007KT 9SM BKN035 BKN220 27/18 A2971 RMK SLP061 T02670183,NA
LGA,1973-07-11T19:00:00Z,-73.8803,40.7794,79.88,64.94,60.35,10,9,NA,29.71,1006.1,10,NA,BKN,BKN,   ,   ,4200,20000,NA,NA,NA,NA,NA,NA,NA,NA,NA,81.71,METAR KLGA 111900Z 01009KT 10SM BKN042 BKN200 27/18 A2971 RMK VALGA7/5 SLP061 T02660183 570/8,NA
LGA,1973-07-11T20:00:00Z,-73.8803,40.7794,80.96,59,47.23,350,12,NA,29.7,1005.8,10,NA,BKN,BKN,   ,   ,4500,20000,NA,NA,NA,NA,NA,NA,NA,NA,NA,81.38,METAR KLGA 112000Z 35012KT 10SM BKN045 BKN200 27/15 A2970 RMK TCU N-E/DARK W LGA C7/87/5 SLP058 T02720150,NA
LGA,1973-07-11T20:22:00Z,-73.8803,40.7794,NA,NA,NA,20,10,NA,29.71,NA,8,NA,BKN,OVC,NA,NA,4900,19700,NA,NA,NA,NA,NA,NA,NA,NA,NA,NA,KLGA 112022Z AUTO 02010KT 8SM BKN049 OVC197 A2971 RMK IEM_DS3505,NA
LGA,1973-07-11T21:00:00Z,-73.8803,40.7794,71.96,60.08,66.2,310,15,0.03,29.74,1007.1,4,NA,SCT,BKN,OVC,   ,2000,4500,10000,NA,TSRA,NA,NA,NA,NA,NA,NA,71.96,METAR KLGA 112100Z 31015KT 4SM TSRA SCT020 BKN045 OVC100 22/16 A2974 RMK TB20 T W MOVG E OCNL LTGCG SLP071 P0003 T02220156,NA
LGA,1973-07-11T21:03:00Z,-73.8803,40.7794,NA,NA,NA,300,15,NA,29.75,NA,2.5,NA,SCT,BKN,OVC,NA,2000,4400,7900,NA,NA,NA,NA,NA,NA,NA,NA,NA,KLGA 112103Z AUTO 30015KT 2 1/2SM SCT020 BKN044 OVC079 A2975 RMK IEM_DS3505,NA
LGA,1973-07-11T21:21:00Z,-73.8803,40.7794,NA,NA,NA,330,8,NA,29.74,NA,4,NA,SCT,BKN,OVC,NA,3000,4400,7900,NA,NA,NA,NA,NA,NA,NA,NA,NA,KLGA 112121Z AUTO 33008KT 4SM SCT030 BKN044 OVC079 A2974 RMK IEM_DS3505,NA
LGA,1973-07-11T22:00:00Z,-73.8803,40.7794,69.98,60.98,73.11,30,9,0.08,29.74,1007.1,7,NA,BKN,OVC,   ,   ,4500,8000,NA,NA,-SHRA,NA,NA,NA,NA,NA,NA,69.98,METAR KLGA 112200Z 03009KT 7SM -SHRA BKN045 OVC080 21/16 A2974 RMK TE03 PK WND 02LGA7/5 SLP071 P0008 T02110161 5304/,NA
LGA,1973-07-11T23:00:00Z,-73.8803,40.7794,69.98,62.96,78.41,60,10,NA,29.75,1007.5,10,NA,SCT,BKN,   ,   ,3500,10000,NA,NA,NA,NA,NA,NA,NA,NA,NA,69.98,METAR KLGA 112300Z 06010KT 10SM SCT035 BKN100 21/17 A2975 RMK RE10/VALGA7/5 SLP075 T02110172,NA
LGA,1973-07-12T00:00:00Z,-73.8803,40.7794,69.08,62.96,80.86,60,8,NA,29.74,1007.1,8,NA,SCT,BKN,OVC,   ,3500,10000,25000,NA,NA,NA,NA,NA,NA,NA,NA,69.08,METAR KLGA 120000Z 06008KT 8SM SCT035 BKN100 OVC250 21/17 A2974 RMK VALGA7/5 SLP071 60012 T02060172,NA
LGA,1973-07-12T01:00:00Z,-73.8803,40.7794,68.9,62.96,81.36,20,6,NA,29.76,1007.8,8,NA,SCT,BKN,   ,   ,3500,10000,NA,NA,NA,NA,NA,NA,NA,NA,NA,68.9,METAR KLGA 120100Z 02006KT 8SM SCT035 BKN100 20/17 A2976 RMK VALGA7/5 SLP078 T02050172,NA
LGA,1973-07-12T02:00:00Z,-73.8803,40.7794,69.98,63.86,80.92,330,8,NA,29.78,1008.5,8,NA,BKN,BKN,   ,   ,4900,20000,NA,NA,NA,NA,NA,NA,NA,NA,NA,69.98,METAR KLGA 120200Z 33008KT 8SM BKN049 BKN200 21/18 A2978 RMK LGA7/5 SLP085 T02110177,NA
LGA,1973-07-12T03:00:00Z,-73.8803,40.7794,69.08,53.06,56.66,320,13,NA,29.8,1009.1,10,NA,SCT,   ,   ,   ,4500,NA,NA,NA,NA,NA,NA,NA,NA,NA,NA,69.08,METAR KLGA 120300Z 32013KT 10SM SCT045 21/12 A2980 RMK VALGA7/5 SLP091 8/500 T02060117 52020,NA
LGA,1973-07-12T04:00:00Z,-73.8803,40.7794,65.84,50.9,58.51,320,16,NA,29.82,1009.8,15,NA,SCT,   ,   ,   ,4500,NA,NA,NA,NA,NA,NA,NA,NA,NA,NA,65.84,METAR KLGA 120400Z 32016KT 15SM SCT045 19/11 A2982 RMK VALGA7/5 SLP098 T01880105,NA
LGA,1973-07-12T05:00:00Z,-73.8803,40.7794,63.86,50.9,62.69,320,15,NA,29.82,1009.8,15,NA,CLR,   ,   ,   ,NA,NA,NA,NA,NA,NA,NA,NA,NA,NA,NA,63.86,METAR KLGA 120500Z 32015KT 15SM CLR 18/11 A2982 RMK VALGA7/5 SLP098 T01770105,NA
LGA,1973-07-12T06:00:00Z,-73.8803,40.7794,62.96,50,62.58,320,16,NA,29.81,1009.5,15,NA,CLR,   ,   ,   ,NA,NA,NA,NA,NA,NA,NA,NA,NA,NA,NA,62.96,METAR KLGA 120600Z 32016KT 15SM CLR 17/10 A2981 RMK LGA7/5 SLP095 T01720100,NA
LGA,1973-07-12T07:00:00Z,-73.8803,40.7794,61.88,50,65.01,330,7,NA,29.81,1009.5,15,NA,CLR,   ,   ,   ,NA,NA,NA,NA,NA,NA,NA,NA,NA,NA,NA,61.88,METAR KLGA 120700Z 33007KT 15SM CLR 17/10 A2981 RMK VALGA7/5 SLP095 T01660100,NA
LGA,1973-07-12T08:00:00Z,-73.8803,40.7794,61.88,48.92,62.44,310,8,NA,29.82,1009.8,15,NA,CLR,   ,   ,   ,NA,NA,NA,NA,NA,NA,NA,NA,NA,NA,NA,61.88,METAR KLGA 120800Z 31008KT 15SM CLR 17/09 A2982 RMK LGA7/5 SLP098 T01660094,NA
LGA,1973-07-12T09:00:00Z,-73.8803,40.7794,60.98,48.02,62.33,310,10,NA,29.83,1010.2,15,NA,SCT,   ,   ,   ,7000,NA,NA,NA,NA,NA,NA,NA,NA,NA,NA,60.98,METAR KLGA 120900Z 31010KT 15SM SCT070 16/09 A2983 RMK 1400LGA7/5 SLP102 T01610089 53007,NA
LGA,1973-07-12T10:00:00Z,-73.8803,40.7794,59.9,47.84,64.33,330,6,NA,29.84,1010.5,15,NA,SCT,   ,   ,   ,6000,NA,NA,NA,NA,NA,NA,NA,NA,NA,NA,59.9,METAR KLGA 121000Z 33006KT 15SM SCT060 16/09 A2984 RMK LGA7/5 SLP105 T01550088,NA
LGA,1973-07-12T11:00:00Z,-73.8803,40.7794,60.98,47.84,61.91,320,10,NA,29.84,1010.5,15,NA,CLR,   ,   ,   ,NA,NA,NA,NA,NA,NA,NA,NA,NA,NA,NA,60.98,METAR KLGA 121100Z 32010KT 15SM CLR 16/09 A2984 RMK LGA7/5 SLP105 T01610088,NA
LGA,1973-07-12T12:00:00Z,-73.8803,40.7794,62.06,48.02,59.99,310,11,NA,29.87,1011.5,15,NA,CLR,   ,   ,   ,NA,NA,NA,NA,NA,NA,NA,NA,NA,NA,NA,62.06,METAR KLGA 121200Z 31011KT 15SM CLR 17/09 A2987 RMK LGA7/5 SLP115 70012 T01670089,NA
LGA,1973-07-12T13:00:00Z,-73.8803,40.7794,64.94,50,58.39,320,14,NA,29.89,1012.2,15,NA,CLR,   ,   ,   ,NA,NA,NA,NA,NA,NA,NA,NA,NA,NA,NA,64.94,METAR KLGA 121300Z 32014KT 15SM CLR 18/10 A2989 RMK FEW CULGA7/5 SLP122 T01830100,NA
LGA,1973-07-12T14:00:00Z,-73.8803,40.7794,66.92,46.94,48.6,320,14,NA,29.87,1011.5,15,NA,SCT,   ,   ,   ,4000,NA,NA,NA,NA,NA,NA,NA,NA,NA,NA,66.92,METAR KLGA 121400Z 32014KT 15SM SCT040 19/08 A2987 RMK LGA7/5 SLP115 T01940083,NA
LGA,1973-07-12T15:00:00Z,-73.8803,40.7794,69.08,46.04,43.61,340,14,NA,29.88,1011.9,15,NA,BKN,   ,   ,   ,4000,NA,NA,NA,NA,NA,NA,NA,NA,NA,NA,69.08,METAR KLGA 121500Z 34014KT 15SM BKN040 21/08 A2988 RMK / 1100LGA7/5 SLP119 T02060078 50003,NA
LGA,1973-07-12T16:00:00Z,-73.8803,40.7794,68.9,45.86,43.58,330,14,NA,29.89,1012.2,15,NA,BKN,   ,   ,   ,4500,NA,NA,NA,NA,NA,NA,NA,NA,NA,NA,68.9,METAR KLGA 121600Z 33014KT 15SM BKN045 20/08 A2989 RMK VALGA7/5 SLP122 T02050077,NA
LGA,1973-07-12T17:00:00Z,-73.8803,40.7794,70.88,48.92,45.71,330,17,NA,29.89,1012.2,15,NA,BKN,   ,   ,   ,4500,NA,NA,NA,NA,NA,NA,NA,NA,NA,NA,69.82,METAR KLGA 121700Z 33017KT 15SM BKN045 22/09 A2989 RMK VALGA 4-22 CLSD7/5 SLP122 T02160094 570/9,NA
LGA,1973-07-12T18:00:00Z,-73.8803,40.7794,69.98,44.96,40.59,320,15,NA,29.88,1011.9,15,NA,BKN,   ,   ,   ,5000,NA,NA,NA,NA,NA,NA,NA,NA,NA,NA,69.98,METAR KLGA 121800Z 32015KT 15SM BKN050 21/07 A2988 RMK VALGA7/5 SLP119 T02110072 570/9,NA
LGA,1973-07-12T20:00:00Z,-73.8803,40.7794,71.96,44.96,37.95,350,18,NA,29.87,1011.5,15,NA,BKN,   ,   ,   ,6000,NA,NA,NA,NA,NA,NA,NA,NA,NA,NA,70.64,METAR KLGA 122000Z 35018KT 15SM BKN060 22/07 A2987 RMK VALGA7/5 SLP115 T02220072,NA
LGA,1973-07-12T21:00:00Z,-73.8803,40.7794,73.04,44.96,36.59,10,12,NA,29.87,1011.5,15,NA,SCT,   ,   ,   ,6000,NA,NA,NA,NA,NA,NA,NA,NA,NA,NA,71.76,METAR KLGA 122100Z 01012KT 15SM SCT060 23/07 A2987 RMK VA/ 1100LGA7/5 SLP115 T02280072 56003,NA
LGA,1973-07-12T22:00:00Z,-73.8803,40.7794,72.86,44.96,36.81,310,13,NA,29.87,1011.5,15,NA,SCT,   ,   ,   ,6000,NA,NA,NA,NA,NA,NA,NA,NA,NA,NA,71.58,METAR KLGA 122200Z 31013KT 15SM SCT060 23/07 A2987 RMK VALGA7/5 SLP115 T02270072,NA
LGA,1973-07-12T23:00:00Z,-73.8803,40.7794,72.86,44.96,36.81,330,12,NA,29.88,1011.9,15,NA,SCT,   ,   ,   ,6000,NA,NA,NA,NA,NA,NA,NA,NA,NA,NA,71.58,METAR KLGA 122300Z 33012KT 15SM SCT060 23/07 A2988 RMK VALGA7/5 SLP119 T02270072,NA
LGA,1973-07-13T00:00:00Z,-73.8803,40.7794,73.04,42.98,33.92,330,13,NA,29.9,1012.5,15,NA,SCT,   ,   ,   ,6000,NA,NA,NA,NA,NA,NA,NA,NA,NA,NA,71.64,METAR KLGA 130000Z 33013KT 15SM SCT060 23/06 A2990 RMK LGA7/5 VA SLP125 T02280061,NA
LGA,1973-07-13T01:00:00Z,-73.8803,40.7794,69.98,45.86,42,310,10,NA,29.91,1012.9,15,NA,CLR,   ,   ,   ,NA,NA,NA,NA,NA,NA,NA,NA,NA,NA,NA,69.98,METAR KLGA 130100Z 31010KT 15SM CLR 21/08 A2991 RMK FEW CULGA7/5 SLP129 T02110077,NA
LGA,1973-07-13T02:00:00Z,-73.8803,40.7794,68.9,44.96,42.12,300,8,NA,29.94,1013.9,15,NA,CLR,   ,   ,   ,NA,NA,NA,NA,NA,NA,NA,NA,NA,NA,NA,68.9,METAR KLGA 130200Z 30008KT 15SM CLR 20/07 A2994 RMK LGA7/5 SLP139 T02050072,NA
LGA,1973-07-13T03:00:00Z,-73.8803,40.7794,68,44.96,43.44,280,8,NA,29.94,1013.9,15,NA,CLR,   ,   ,   ,NA,NA,NA,NA,NA,NA,NA,NA,NA,NA,NA,68,METAR KLGA 130300Z 28008KT 15SM CLR 20/07 A2994 RMK / 114LGA7/5 SLP139 T02000072,NA
LGA,1973-07-13T04:00:00Z,-73.8803,40.7794,66.92,45.86,46.66,260,7,NA,29.94,1013.9,15,NA,CLR,   ,   ,   ,NA,NA,NA,NA,NA,NA,NA,NA,NA,NA,NA,66.92,METAR KLGA 130400Z 26007KT 15SM CLR 19/08 A2994 RMK VALGA7/5 SLP139 T01940077,NA
LGA,1973-07-13T05:00:00Z,-73.8803,40.7794,66.92,45.86,46.66,300,9,NA,29.95,1014.2,15,NA,CLR,   ,   ,   ,NA,NA,NA,NA,NA,NA,NA,NA,NA,NA,NA,66.92,METAR KLGA 130500Z 30009KT 15SM CLR 19/08 A2995 RMK PALGA7/5 SLP142 T01940077,NA
LGA,1973-07-13T06:00:00Z,-73.8803,40.7794,66.92,46.04,46.98,260,5,NA,29.96,1014.6,15,NA,CLR,   ,   ,   ,NA,NA,NA,NA,NA,NA,NA,NA,NA,NA,NA,66.92,METAR KLGA 130600Z 26005KT 15SM CLR 19/08 A2996 RMK LGA7/5 SLP146 T01940078,NA
LGA,1973-07-13T07:00:00Z,-73.8803,40.7794,65.84,46.94,50.46,250,5,NA,29.97,1014.9,15,NA,CLR,   ,   ,   ,NA,NA,NA,NA,NA,NA,NA,NA,NA,NA,NA,65.84,METAR KLGA 130700Z 25005KT 15SM CLR 19/08 A2997 RMK LGA7/5 SLP149 T01880083,NA
LGA,1973-07-13T08:00:00Z,-73.8803,40.7794,64.94,50,58.39,220,5,NA,29.97,1014.9,15,NA,CLR,   ,   ,   ,NA,NA,NA,NA,NA,NA,NA,NA,NA,NA,NA,64.94,METAR KLGA 130800Z 22005KT 15SM CLR 18/10 A2997 RMK LGA7/5 SLP149 T01830100,NA
LGA,1973-07-13T09:00:00Z,-73.8803,40.7794,64.94,51.98,62.83,210,5,NA,29.96,1014.6,15,NA,SCT,   ,   ,   ,10000,NA,NA,NA,NA,NA,NA,NA,NA,NA,NA,64.94,METAR KLGA 130900Z 21005KT 15SM SCT100 18/11 A2996 RMK 1050LGA7/5 SLP146 T01830111 50000,NA
LGA,1973-07-13T10:00:00Z,-73.8803,40.7794,63.86,50.9,62.69,220,8,NA,29.96,1014.6,15,NA,SCT,   ,   ,   ,10000,NA,NA,NA,NA,NA,NA,NA,NA,NA,NA,63.86,METAR KLGA 131000Z 22008KT 15SM SCT100 18/11 A2996 RMK LGA7/5 SLP146 T01770105,NA
LGA,1973-07-13T11:00:00Z,-73.8803,40.7794,68,50.9,54.3,220,10,NA,29.97,1014.9,15,NA,BKN,   ,   ,   ,9000,NA,NA,NA,NA,NA,NA,NA,NA,NA,NA,68,METAR KLGA 131100Z 22010KT 15SM BKN090 20/11 A2997 RMK VALGA7/5 SLP149 T02000105,NA
LGA,1973-07-13T12:00:00Z,-73.8803,40.7794,68,51.98,56.51,230,8,NA,29.97,1014.9,10,NA,BKN,OVC,   ,   ,8000,12000,NA,NA,NA,NA,NA,NA,NA,NA,NA,68,METAR KLGA 131200Z 23008KT 10SM BKN080 OVC120 20/11 A2997 RMK BINOVCLGA7/5 SLP149 T02000111,NA
LGA,1973-07-13T13:00:00Z,-73.8803,40.7794,68,51.98,56.51,220,10,NA,29.97,1014.9,10,NA,BKN,OVC,   ,   ,8000,12000,NA,NA,NA,NA,NA,NA,NA,NA,NA,68,METAR KLGA 131300Z 22010KT 10SM BKN080 OVC120 20/11 A2997 RMK BINOVC WLGA7/5 SLP149 T02000111,NA
LGA,1973-07-13T14:00:00Z,-73.8803,40.7794,70.88,53.96,55.07,230,10,NA,29.97,1014.9,6,NA,SCT,BKN,BKN,   ,5000,8000,12000,NA,FU,NA,NA,NA,NA,NA,NA,70.88,METAR KLGA 131400Z 23010KT 6SM FU SCT050 BKN080 BKN120 22/12 A2997 RMK LGA7/5 SLP149 T02160122,NA
LGA,1973-07-13T15:00:00Z,-73.8803,40.7794,68,55.94,65.31,220,18,NA,29.95,1014.2,6,NA,SCT,BKN,OVC,   ,5000,7000,12000,NA,-SHRA FU,NA,NA,NA,NA,NA,NA,68,METAR KLGA 131500Z 22018KT 6SM -SHRA FU SCT050 BKN070 OVC120 20/13 A2995 RMK RB30 157/LGA7/5 SLP142 T02000133 58007,NA
LGA,1973-07-13T16:00:00Z,-73.8803,40.7794,71.96,56.84,58.94,230,13,0.02,29.92,1013.2,8,NA,SCT,SCT,BKN,   ,6000,12000,25000,NA,NA,NA,NA,NA,NA,NA,NA,71.96,METAR KLGA 131600Z 23013KT 8SM SCT060 SCT120 BKN250 22/14 A2992 RMK RE15LGA7/5 SLP132 P0002 T02220138,NA
LGA,1973-07-13T17:00:00Z,-73.8803,40.7794,77,54.86,46.33,230,13,NA,29.9,1012.5,9,NA,SCT,BKN,   ,   ,12000,25000,NA,NA,NA,NA,NA,NA,NA,NA,NA,77,METAR KLGA 131700Z 23013KT 9SM SCT120 BKN250 25/13 A2990 RMK VALGA7/5 SLP125 T02500127,NA
LGA,1973-07-13T18:00:00Z,-73.8803,40.7794,78.08,53.96,43.26,240,17,NA,29.9,1012.5,7,NA,SCT,OVC,   ,   ,6000,25000,NA,NA,NA,NA,NA,NA,NA,NA,NA,78.08,METAR KLGA 131800Z 24017KT 7SM SCT060 OVC250 26/12 A2990 RMK DARK WNWGA7/5 SLP125 60002 T02560122,NA
LGA,1973-07-13T19:00:00Z,-73.8803,40.7794,74.84,60.98,62.04,250,13,NA,29.85,1010.8,10,NA,SCT,SCT,BKN,   ,6000,12000,20000,NA,NA,NA,NA,NA,NA,NA,NA,74.84,METAR KLGA 131900Z 25013KT 10SM SCT060 SCT120 BKN200 24/16 A2985 RMK RB05E32LGA7/5 SLP108 T02380161,NA
LGA,1973-07-13T20:00:00Z,-73.8803,40.7794,74.84,59.9,59.7,260,15,NA,29.86,1011.2,8,NA,SCT,SCT,BKN,   ,4000,12000,20000,NA,NA,NA,NA,NA,NA,NA,NA,74.84,METAR KLGA 132000Z 26015KT 8SM SCT040 SCT120 BKN200 24/16 A2986 RMK TCU WLGA7/5 SLP112 T02380155,NA
LGA,1973-07-13T21:00:00Z,-73.8803,40.7794,75.92,62.06,62.17,280,14,NA,29.86,1011.2,8,NA,BKN,OVC,   ,   ,5000,12000,NA,NA,NA,NA,NA,NA,NA,NA,NA,75.92,METAR KLGA 132100Z 28014KT 8SM BKN050 OVC120 24/17 A2986 RMK / 123/LGA7/5 SLP112 T02440167 55014,NA
LGA,1973-07-13T22:00:00Z,-73.8803,40.7794,77.9,61.88,57.85,250,13,NA,29.83,1010.2,8,NA,SCT,BKN,   ,   ,10000,20000,NA,NA,NA,NA,NA,NA,NA,NA,NA,77.9,METAR KLGA 132200Z 25013KT 8SM SCT100 BKN200 25/17 A2983 RMK VALGA7/5 SLP102 T02550166,NA
LGA,1973-07-13T23:00:00Z,-73.8803,40.7794,79.88,61.88,54.2,250,12,NA,29.83,1010.2,8,NA,SCT,SCT,BKN,   ,5000,10000,20000,NA,NA,NA,NA,NA,NA,NA,NA,81.09,METAR KLGA 132300Z 25012KT 8SM SCT050 SCT100 BKN200 27/17 A2983 RMK VALGA7/5 SLP102 T02660166,NA
LGA,1973-07-14T00:00:00Z,-73.8803,40.7794,80.06,62.06,54.23,240,12,NA,29.83,1010.2,10,NA,SCT,BKN,   ,   ,10000,25000,NA,NA,NA,NA,NA,NA,NA,NA,NA,81.27,METAR KLGA 140000Z 24012KT 10SM SCT100 BKN250 27/17 A2983 RMK VALGA7/5 SLP102 T02670167,NA
LGA,1973-07-14T01:00:00Z,-73.8803,40.7794,79.88,61.88,54.2,240,10,NA,29.83,1010.2,7,NA,SCT,   ,   ,   ,25000,NA,NA,NA,NA,NA,NA,NA,NA,NA,NA,81.09,METAR KLGA 140100Z 24010KT 7SM SCT250 27/17 A2983 RMK VALGA7/5 SLP102 T02660166,NA
LGA,1973-07-14T02:00:00Z,-73.8803,40.7794,78.98,62.96,57.99,200,8,NA,29.84,1010.5,7,NA,SCT,   ,   ,   ,25000,NA,NA,NA,NA,NA,NA,NA,NA,NA,NA,80.52,METAR KLGA 140200Z 20008KT 7SM SCT250 26/17 A2984 RMK VALGA7/5 SLP105 T02610172,NA
LGA,1973-07-14T03:00:00Z,-73.8803,40.7794,78.08,62.96,59.74,210,9,NA,29.83,1010.2,10,NA,CLR,   ,   ,   ,NA,NA,NA,NA,NA,NA,NA,NA,NA,NA,NA,78.08,METAR KLGA 140300Z 21009KT 10SM CLR 26/17 A2983 RMK VALGA7/5 SLP102 T02560172 50000,NA
LGA,1973-07-14T04:00:00Z,-73.8803,40.7794,77,63.86,63.9,220,11,NA,29.83,1010.2,10,NA,CLR,   ,   ,   ,NA,NA,NA,NA,NA,NA,NA,NA,NA,NA,NA,77,METAR KLGA 140400Z 22011KT 10SM CLR 25/18 A2983 RMK LGA7/5 SLP102 T02500177,NA
LGA,1973-07-14T05:00:00Z,-73.8803,40.7794,75.92,64.94,68.78,200,8,NA,29.82,1009.8,10,NA,CLR,   ,   ,   ,NA,NA,NA,NA,NA,NA,NA,NA,NA,NA,NA,75.92,METAR KLGA 140500Z 20008KT 10SM CLR 24/18 A2982 RMK LGA7/5 SLP098 T02440183,NA
LGA,1973-07-14T06:00:00Z,-73.8803,40.7794,77,64.94,66.36,230,13,NA,29.82,1009.8,8,NA,FEW,   ,   ,   ,25000,NA,NA,NA,NA,NA,NA,NA,NA,NA,NA,77,METAR KLGA 140600Z 23013KT 8SM FEW250 25/18 A2982 RMK LGA7/5 SLP098 T02500183,NA
LGA,1973-07-14T07:00:00Z,-73.8803,40.7794,75.92,64.94,68.78,220,9,NA,29.81,1009.5,8,NA,SCT,   ,   ,   ,25000,NA,NA,NA,NA,NA,NA,NA,NA,NA,NA,75.92,METAR KLGA 140700Z 22009KT 8SM SCT250 24/18 A2981 RMK LGA 7/10 REIL OTS7/5 SLP095 T02440183,NA
LGA,1973-07-14T08:00:00Z,-73.8803,40.7794,75.92,65.84,70.97,230,9,NA,29.82,1009.8,9,NA,SCT,   ,   ,   ,25000,NA,NA,NA,NA,NA,NA,NA,NA,NA,NA,75.92,METAR KLGA 140800Z 23009KT 9SM SCT250 24/19 A2982 RMK VALGA7/5 7/10 SLP098 T02440188,NA
LGA,1973-07-14T09:00:00Z,-73.8803,40.7794,75.92,64.94,68.78,230,11,NA,29.82,1009.8,9,NA,FEW,   ,   ,   ,25000,NA,NA,NA,NA,NA,NA,NA,NA,NA,NA,75.92,METAR KLGA 140900Z 23011KT 9SM FEW250 24/18 A2982 RMK / VALGA7/5 7/10 SLP098 8/001 T02440183 55000,NA
LGA,1973-07-14T10:00:00Z,-73.8803,40.7794,74.84,64.94,71.31,230,9,NA,29.82,1009.8,7,NA,SCT,   ,   ,   ,25000,NA,NA,NA,NA,NA,NA,NA,NA,NA,NA,74.84,METAR KLGA 141000Z 23009KT 7SM SCT250 24/18 A2982 RMK VALGA7/5 7/10 SLP098 T02380183,NA
LGA,1973-07-14T11:00:00Z,-73.8803,40.7794,75.92,64.94,68.78,230,12,NA,29.82,1009.8,6,NA,SCT,   ,   ,   ,25000,NA,NA,NA,DZ,NA,NA,NA,NA,NA,NA,75.92,METAR KLGA 141100Z 23012KT 6SM DZ SCT250 24/18 A2982 RMK VALGA7/5 7/10 SLP098 T02440183,NA
LGA,1973-07-14T12:00:00Z,-73.8803,40.7794,78.08,64.94,64.03,230,13,NA,29.82,1009.8,6,NA,SCT,   ,   ,   ,25000,NA,NA,NA,DZ,NA,NA,NA,NA,NA,NA,78.08,METAR KLGA 141200Z 23013KT 6SM DZ SCT250 26/18 A2982 RMK LGA7/5 7/10 SLP098 70002 T02560183,NA
LGA,1973-07-14T13:00:00Z,-73.8803,40.7794,79.88,64.94,60.35,260,13,NA,29.83,1010.2,7,NA,SCT,   ,   ,   ,25000,NA,NA,NA,NA,NA,NA,NA,NA,NA,NA,81.71,METAR KLGA 141300Z 26013KT 7SM SCT250 27/18 A2983 RMK VALGA7/5 7/10 SLP102 T02660183,NA
LGA,1973-07-14T14:00:00Z,-73.8803,40.7794,82.94,64.94,54.63,250,15,NA,29.83,1010.2,8,NA,SCT,   ,   ,   ,25000,NA,NA,NA,NA,NA,NA,NA,NA,NA,NA,84.7,METAR KLGA 141400Z 25015KT 8SM SCT250 28/18 A2983 RMK SLP102 T02830183,NA
LGA,1973-07-14T15:00:00Z,-73.8803,40.7794,84.92,64.94,51.25,250,13,NA,29.83,1010.2,9,NA,FEW,   ,   ,   ,25000,NA,NA,NA,NA,NA,NA,NA,NA,NA,NA,86.66,METAR KLGA 141500Z 25013KT 9SM FEW250 29/18 A2983 RMK / 1001LGA7/5 7/10 SLP102 T02940183 51003,NA
LGA,1973-07-14T16:00:00Z,-73.8803,40.7794,86.9,64.94,48.11,260,15,NA,29.83,1010.2,9,NA,CLR,   ,   ,   ,NA,NA,NA,NA,NA,NA,NA,NA,NA,NA,NA,88.67,METAR KLGA 141600Z 26015KT 9SM CLR 31/18 A2983 RMK VALGA7/5 7/10 SLP102 T03050183,NA
LGA,1973-07-14T17:00:00Z,-73.8803,40.7794,88.88,63.86,43.5,260,16,NA,29.82,1009.8,9,NA,SCT,   ,   ,   ,25000,NA,NA,NA,NA,NA,NA,NA,NA,NA,NA,90.18,METAR KLGA 141700Z 26016KT 9SM SCT250 32/18 A2982 RMK VALGA7/5 7/10 SLP098 T03160177,NA
LGA,1973-07-14T18:00:00Z,-73.8803,40.7794,89.96,66.02,45.34,230,16,NA,29.8,1009.1,9,NA,BKN,   ,   ,   ,25000,NA,NA,NA,NA,NA,NA,NA,NA,NA,NA,92.56,METAR KLGA 141800Z 23016KT 9SM BKN250 32/19 A2980 RMK VALGA7/5 7/10 SLP091 T03220189,NA
LGA,1973-07-14T19:00:00Z,-73.8803,40.7794,90.86,65.84,43.8,250,15,NA,29.79,1008.8,8,NA,BKN,   ,   ,   ,25000,NA,NA,NA,NA,NA,NA,NA,NA,NA,NA,93.45,METAR KLGA 141900Z 25015KT 8SM BKN250 33/19 A2979 RMK VALGA7/5 7/10 SLP088 T03270188,NA
LGA,1973-07-14T20:00:00Z,-73.8803,40.7794,90.86,65.84,43.8,250,16,NA,29.79,1008.8,8,NA,SCT,BKN,   ,   ,5000,25000,NA,NA,NA,NA,NA,NA,NA,NA,NA,93.45,METAR KLGA 142000Z 25016KT 8SM SCT050 BKN250 33/19 A2979 RMK LGA7/5 7/10 SLP088 T03270188,NA
LGA,1973-07-14T21:00:00Z,-73.8803,40.7794,91.04,66.02,43.83,240,16,NA,29.79,1008.8,8,NA,SCT,FEW,   ,   ,5000,25000,NA,NA,NA,NA,NA,NA,NA,NA,NA,93.76,METAR KLGA 142100Z 24016KT 8SM SCT050 FEW250 33/19 A2979 RMK 1101LGA7/5 7/10 SLP088 T03280189 56003,NA
LGA,1973-07-14T22:00:00Z,-73.8803,40.7794,89.96,65.84,45.06,220,20,NA,29.78,1008.5,8,NA,SCT,   ,   ,   ,5000,NA,NA,NA,NA,NA,NA,NA,NA,NA,NA,92.45,METAR KLGA 142200Z 22020KT 8SM SCT050 32/19 A2978 RMK LGA7/5 7/10 SLP085 T03220188,NA
LGA,1973-07-14T23:00:00Z,-73.8803,40.7794,88.88,64.94,45.18,210,10,NA,29.78,1008.5,6,NA,SCT,   ,   ,   ,5000,NA,NA,NA,DZ,NA,NA,NA,NA,NA,NA,90.75,METAR KLGA 142300Z 21010KT 6SM DZ SCT050 32/18 A2978 RMK LGA7/5 7/10 SLP085 T03160183,NA
LGA,1973-07-15T00:00:00Z,-73.8803,40.7794,87.98,64.04,45.04,240,12,NA,29.8,1009.1,6,NA,SCT,SCT,   ,   ,12000,25000,NA,NA,DZ,NA,NA,NA,NA,NA,NA,89.34,METAR KLGA 150000Z 24012KT 6SM DZ SCT120 SCT250 31/18 A2980 RMK VALGA7/5 7/10 SLP091 T03110178,NA
LGA,1973-07-15T01:00:00Z,-73.8803,40.7794,86,64.94,49.51,240,10,NA,29.82,1009.8,6,NA,SCT,SCT,   ,   ,10000,25000,NA,NA,DZ,NA,NA,NA,NA,NA,NA,87.75,METAR KLGA 150100Z 24010KT 6SM DZ SCT100 SCT250 30/18 A2982 RMK VALGA7/5 7/10 SLP098 T03000183,NA
LGA,1973-07-15T02:00:00Z,-73.8803,40.7794,84.92,64.94,51.25,220,12,NA,29.83,1010.2,6,NA,SCT,SCT,   ,   ,10000,25000,NA,NA,DZ,NA,NA,NA,NA,NA,NA,86.66,METAR KLGA 150200Z 22012KT 6SM DZ SCT100 SCT250 29/18 A2983 RMK VALGA7/5 7/10 SLP102 T02940183,NA
LGA,1973-07-15T03:00:00Z,-73.8803,40.7794,84.92,66.92,54.9,220,11,NA,29.84,1010.5,6,NA,SCT,SCT,   ,   ,10000,25000,NA,NA,DZ,NA,NA,NA,NA,NA,NA,87.62,METAR KLGA 150300Z 22011KT 6SM DZ SCT100 SCT250 29/19 A2984 RMK VALGA7/5 7/10 SLP105 8/052 T02940194 52014,NA
LGA,1973-07-15T04:00:00Z,-73.8803,40.7794,80.96,68,64.77,280,6,NA,29.85,1010.8,6,NA,SCT,   ,   ,   ,25000,NA,NA,NA,DZ,NA,NA,NA,NA,NA,NA,83.72,METAR KLGA 150400Z 28006KT 6SM DZ SCT250 27/20 A2985 RMK LGA7/5 7/10 SLP108 T02720200,NA
LGA,1973-07-15T05:00:00Z,-73.8803,40.7794,78.98,68,69.11,310,4,NA,29.85,1010.8,6,NA,BKN,   ,   ,   ,30000,NA,NA,NA,DZ,NA,NA,NA,NA,NA,NA,81.32,METAR KLGA 150500Z 31004KT 6SM DZ BKN300 26/20 A2985 RMK LGA7/5 7/10 SLP108 T02610200,NA
LGA,1973-07-15T06:00:00Z,-73.8803,40.7794,80.06,68,66.7,290,3,NA,29.84,1010.5,6,NA,OVC,   ,   ,   ,30000,NA,NA,NA,DZ,NA,NA,NA,NA,NA,NA,82.65,METAR KLGA 150600Z 29003KT 6SM DZ OVC300 27/20 A2984 RMK BINOVCLGA7/5 7/10 SLP105 T02670200,NA
LGA,1973-07-15T07:00:00Z,-73.8803,40.7794,79.88,66.92,64.64,40,9,NA,29.82,1009.8,5,NA,SCT,OVC,   ,   ,8000,30000,NA,NA,TS DZ,NA,NA,NA,NA,NA,NA,82.16,METAR KLGA 150700Z 04009KT 5SM TS DZ SCT080 OVC300 27/19 A2982 RMK TB48 T W OCNL LTGCCLGA7/5 7 SLP098 T02660194 5/010,NA
LGA,1973-07-15T08:00:00Z,-73.8803,40.7794,72.86,68,84.74,10,10,NA,29.83,1010.2,3,NA,SCT,BKN,OVC,NA,2000,3900,7900,NA,NA,NA,NA,NA,NA,NA,NA,72.86,KLGA 150800Z AUTO 01010KT 3SM SCT020 BKN039 OVC079 23/20 A2983 RMK SLP102 T02270200 IEM_DS3505,NA
LGA,1973-07-15T08:22:00Z,-73.8803,40.7794,NA,NA,NA,340,7,NA,29.83,NA,2.5,NA,SCT,BKN,OVC,NA,1500,3500,4500,NA,NA,NA,NA,NA,NA,NA,NA,NA,KLGA 150822Z AUTO 34007KT 2 1/2SM SCT015 BKN035 OVC045 A2983 RMK IEM_DS3505,NA
LGA,1973-07-15T09:00:00Z,-73.8803,40.7794,71.96,68,87.35,90,8,0.21,29.83,1010.2,5,NA,SCT,BKN,OVC,   ,1500,3700,4600,NA,-TSRA DZ,NA,NA,NA,NA,NA,NA,72.96,METAR KLGA 150900Z 09008KT 5SM -TSRA DZ SCT015 BKN037 OVC046 22/20 A2983 RMK TE MOVGE LTGICCCG SLP102 P0021 T02220200,NA
LGA,1973-07-15T10:00:00Z,-73.8803,40.7794,70.88,68.9,93.46,40,11,0.19,29.83,1010.2,1,NA,SCT,BKN,OVC,   ,1500,3300,5000,NA,TSRA DZ,NA,NA,NA,NA,NA,NA,72.06,METAR KLGA 151000Z 04011KT 1SM TSRA DZ SCT015 BKN033 OVC050 22/20 A2983 RMK R22VR32V60& R04VV3/4 V2 T E MOVG E LTGCC CG RW& OCNLY RW- PK SLP102 P0019 T02160205,NA
LGA,1973-07-15T10:03:00Z,-73.8803,40.7794,NA,NA,NA,50,7,NA,29.83,NA,2,NA,SCT,BKN,OVC,NA,1500,3600,4900,NA,NA,NA,NA,NA,NA,NA,NA,NA,KLGA 151003Z AUTO 05007KT 2SM SCT015 BKN036 OVC049 A2983 RMK IEM_DS3505,NA
LGA,1973-07-15T10:28:00Z,-73.8803,40.7794,NA,NA,NA,50,8,NA,29.84,NA,2,NA,SCT,BKN,OVC,NA,500,3200,4300,NA,NA,NA,NA,NA,NA,NA,NA,NA,KLGA 151028Z AUTO 05008KT 2SM SCT005 BKN032 OVC043 A2984 RMK IEM_DS3505,NA
LGA,1973-07-15T11:00:00Z,-73.8803,40.7794,68.9,66.9,93.34,40,12,NA,29.85,NA,2,NA,   ,   ,   ,   ,NA,NA,NA,NA,NA,NA,NA,NA,NA,NA,NA,68.9,METAR KLGA 151100Z 04012KT 2SM FGDZ BKN005 BKN009 OVC034 20/19 A2985 RMK TE26 MOVD E DARK W PK WND 45LGA7/5 7/10 SLP108 T02050194 5005/,NA
LGA,1973-07-15T11:03:00Z,-73.8803,40.7794,NA,NA,NA,30,10,NA,29.84,NA,3,NA,SCT,SCT,OVC,NA,500,900,3100,NA,NA,NA,NA,NA,NA,NA,NA,NA,KLGA 151103Z AUTO 03010KT 3SM SCT005 SCT009 OVC031 A2984 RMK IEM_DS3505,NA
LGA,1973-07-15T11:19:00Z,-73.8803,40.7794,NA,NA,NA,40,14,NA,29.84,NA,1,NA,NA,NA,NA,NA,NA,NA,NA,NA,NA,NA,NA,NA,NA,NA,NA,NA,KLGA 151119Z AUTO 04014KT 1SM OBS005 A2984 RMK IEM_DS3505,NA
LGA,1973-07-15T11:35:00Z,-73.8803,40.7794,NA,NA,NA,70,7,NA,29.86,NA,1,NA,OVC,NA,NA,NA,1000,NA,NA,NA,NA,NA,NA,NA,NA,NA,NA,NA,KLGA 151135Z AUTO 07007KT 1SM POB000 OVC010 A2986 RMK IEM_DS3505,NA
LGA,1973-07-15T12:00:00Z,-73.8803,40.7794,68,66.02,93.38,70,11,0.89,29.85,1010.8,1.5,NA,BKN,OVC,   ,   ,1000,2500,NA,NA,-TSRA FG,NA,NA,NA,NA,NA,NA,68,METAR KLGA 151200Z 07011KT 11/2SM -TSRA FG BKN010 OVC025 20/19 A2985 RMK TB01 E MOVG E PK WND SLP108 P0089 60150 70150 T02000189 5004/,NA
LGA,1973-07-15T12:23:00Z,-73.8803,40.7794,NA,NA,NA,40,10,NA,29.87,NA,2.5,NA,SCT,BKN,OVC,NA,1000,1600,3000,NA,NA,NA,NA,NA,NA,NA,NA,NA,KLGA 151223Z AUTO 04010KT 2 1/2SM SCT010 BKN016 OVC030 A2987 RMK IEM_DS3505,NA
LGA,1973-07-15T13:00:00Z,-73.8803,40.7794,66.92,64.94,93.35,50,14,0.05,29.89,1012.2,2.5,NA,BKN,BKN,OVC,   ,800,1600,3000,NA,SHRA FG,NA,NA,NA,NA,NA,NA,66.92,METAR KLGA 151300Z 05014KT 21/2SM SHRA FG BKN008 BKN016 OVC030 19/18 A2989 RMK TE20 MOVD SE SLP122 P0005 T01940183,NA
LGA,1973-07-15T13:06:00Z,-73.8803,40.7794,NA,NA,NA,20,15,NA,29.88,NA,3,NA,SCT,BKN,OVC,NA,800,1600,3900,NA,NA,NA,NA,NA,NA,NA,NA,NA,KLGA 151306Z AUTO 02015KT 3SM SCT008 BKN016 OVC039 A2988 RMK IEM_DS3505,NA
LGA,1973-07-15T13:30:00Z,-73.8803,40.7794,NA,NA,NA,30,14,NA,29.89,NA,4,NA,SCT,SCT,OVC,NA,800,2000,5900,NA,NA,NA,NA,NA,NA,NA,NA,NA,KLGA 151330Z AUTO 03014KT 4SM SCT008 SCT020 OVC059 A2989 RMK IEM_DS3505,NA
LGA,1973-07-15T14:00:00Z,-73.8803,40.7794,66.92,62.96,87.1,50,15,0.01,29.87,1011.5,7,NA,SCT,OVC,   ,   ,1400,6000,NA,NA,-SHRA,NA,NA,NA,NA,NA,NA,66.92,METAR KLGA 151400Z 05015KT 7SM -SHRA SCT014 OVC060 19/17 A2987 RMK RE01B40LGA 7/11 FLU ARPT CLSD 7/10 SLP115 P0001 T01940172 570/5,NA
LGA,1973-07-15T15:00:00Z,-73.8803,40.7794,66.92,62.96,87.1,30,14,NA,29.89,1012.2,7,NA,SCT,OVC,   ,   ,1300,7000,NA,NA,NA,NA,NA,NA,NA,NA,NA,66.92,METAR KLGA 151500Z 03014KT 7SM SCT013 OVC070 19/17 A2989 RMK RE05/21410 177/LGA7/5 7/10 7/11 SLP122 T01940172,NA
LGA,1973-07-15T16:00:00Z,-73.8803,40.7794,66.92,62.96,87.1,40,13,NA,29.89,1012.2,7,NA,BKN,OVC,   ,   ,1500,5000,NA,NA,-SHRA,NA,NA,NA,NA,NA,NA,66.92,METAR KLGA 151600Z 04013KT 7SM -SHRA BKN015 OVC050 19/17 A2989 RMK RB02LGA7/5 7/10 SLP122 T01940172,NA
LGA,1973-07-15T17:00:00Z,-73.8803,40.7794,66.92,62.96,87.1,20,15,NA,29.9,1012.5,6,NA,SCT,BKN,OVC,   ,1200,1600,4400,NA,-SHRA DZ,NA,NA,NA,NA,NA,NA,66.92,METAR KLGA 151700Z 02015KT 6SM -SHRA DZ SCT012 BKN016 OVC044 19/17 A2990 RMK LGA7/5 7/10 7/11 SLP125 T01940172,NA
LGA,1973-07-15T17:22:00Z,-73.8803,40.7794,NA,NA,NA,50,14,NA,29.89,NA,2.5,NA,BKN,OVC,NA,NA,1400,3900,NA,NA,NA,NA,NA,NA,NA,NA,NA,NA,KLGA 151722Z AUTO 05014KT 2 1/2SM BKN014 OVC039 A2989 RMK IEM_DS3505,NA
LGA,1973-07-15T18:00:00Z,-73.8803,40.7794,66.92,64.04,90.46,50,14,0.11,29.88,1011.9,2.5,NA,SCT,OVC,   ,   ,800,1800,NA,NA,-SHRA DZ,NA,NA,NA,NA,NA,NA,66.92,METAR KLGA 151800Z 05014KT 21/2SM -SHRA DZ SCT008 OVC018 19/18 A2988 RMK LGA7/5 7/10 SLP119 P0011 60020 T01940178,NA
LGA,1973-07-15T19:00:00Z,-73.8803,40.7794,66.92,63.86,89.9,40,11,NA,29.89,1012.2,6,NA,BKN,OVC,   ,   ,700,2000,NA,NA,DZ,NA,NA,NA,NA,NA,NA,66.92,METAR KLGA 151900Z 04011KT 6SM DZ BKN007 OVC020 19/18 A2989 RMK RE10LGA7/5 7/10 7/11 7/12 SLP122 T01940177,NA
LGA,1973-07-15T19:23:00Z,-73.8803,40.7794,NA,NA,NA,40,12,NA,29.89,NA,2.5,NA,BKN,BKN,OVC,NA,600,1400,2000,NA,NA,NA,NA,NA,NA,NA,NA,NA,KLGA 151923Z AUTO 04012KT 2 1/2SM BKN006 BKN014 OVC020 A2989 RMK IEM_DS3505,NA
LGA,1973-07-15T20:00:00Z,-73.8803,40.7794,65.84,62.96,90.42,90,10,0.01,29.86,1011.2,4,NA,SCT,BKN,OVC,   ,800,2800,5000,NA,-SHRA DZ,NA,NA,NA,NA,NA,NA,65.84,METAR KLGA 152000Z 09010KT 4SM -SHRA DZ SCT008 BKN028 OVC050 19/17 A2986 RMK RB20LGA7/5 7/10 7/11 SLP112 P0001 T01880172,NA
LGA,1973-07-15T20:15:00Z,-73.8803,40.7794,NA,NA,NA,70,7,NA,29.87,NA,9,NA,SCT,BKN,OVC,NA,800,3600,11800,NA,NA,NA,NA,NA,NA,NA,NA,NA,KLGA 152015Z AUTO 07007KT 9SM SCT008 BKN036 OVC118 A2987 RMK IEM_DS3505,NA
LGA,1973-07-15T21:00:00Z,-73.8803,40.7794,66.92,60.08,78.66,50,10,NA,29.88,1011.9,10,NA,SCT,BKN,OVC,   ,800,4600,15000,NA,NA,NA,NA,NA,NA,NA,NA,66.92,METAR KLGA 152100Z 05010KT 10SM SCT008 BKN046 OVC150 19/16 A2988 RMK RE05 157/LGA7/5 7/10 7/11 SLP119 T01940156 55000,NA
LGA,1973-07-15T22:00:00Z,-73.8803,40.7794,68,59.9,75.3,30,12,NA,29.88,1011.9,10,NA,SCT,SCT,BKN,   ,1200,5000,15000,NA,NA,NA,NA,NA,NA,NA,NA,68,METAR KLGA 152200Z 03012KT 10SM SCT012 SCT050 BKN150 20/16 A2988 RMK LGA7/5 7/10 7/11 SLP119 T02000155,NA
LGA,1973-07-15T23:00:00Z,-73.8803,40.7794,68,59,72.92,40,11,NA,29.9,1012.5,10,NA,SCT,BKN,BKN,   ,1600,9000,15000,NA,NA,NA,NA,NA,NA,NA,NA,68,METAR KLGA 152300Z 04011KT 10SM SCT016 BKN090 BKN150 20/15 A2990 RMK LGA7/5 7/10 7/11 SLP125 T02000150,NA
LGA,1973-07-16T00:00:00Z,-73.8803,40.7794,68,60.08,75.78,70,8,NA,29.91,1012.9,10,NA,SCT,BKN,BKN,   ,1500,10000,20000,NA,NA,NA,NA,NA,NA,NA,NA,68,METAR KLGA 160000Z 07008KT 10SM SCT015 BKN100 BKN200 20/16 A2991 RMK LGA7/5 7/10 7/11 SLP129 60004 T02000156,NA
LGA,1973-07-16T01:00:00Z,-73.8803,40.7794,66.92,59.9,78.16,90,6,NA,29.92,1013.2,10,NA,SCT,BKN,   ,   ,5000,13000,NA,NA,NA,NA,NA,NA,NA,NA,NA,66.92,METAR KLGA 160100Z 09006KT 10SM SCT050 BKN130 19/16 A2992 RMK LGA7/5 7/10 7/11 ^ SLP132 T01940155,NA
LGA,1973-07-16T02:00:00Z,-73.8803,40.7794,66.92,59.9,78.16,60,5,NA,29.94,1013.9,10,NA,SCT,BKN,   ,   ,5000,13000,NA,NA,NA,NA,NA,NA,NA,NA,NA,66.92,METAR KLGA 160200Z 06005KT 10SM SCT050 BKN130 19/16 A2994 RMK LGA7/5 7/10 7/11 SLP139 T01940155,NA
LGA,1973-07-16T03:00:00Z,-73.8803,40.7794,66.92,60.08,78.66,60,6,NA,29.95,1014.2,10,NA,BKN,   ,   ,   ,13000,NA,NA,NA,NA,NA,NA,NA,NA,NA,NA,66.92,METAR KLGA 160300Z 06006KT 10SM BKN130 19/16 A2995 RMK / 1070LGA7/5 7/10 7/11 SLP142 T01940156 52014,NA
LGA,1973-07-16T04:00:00Z,-73.8803,40.7794,64.94,60.98,87,210,3,NA,29.95,1014.2,10,NA,BKN,   ,   ,   ,13000,NA,NA,NA,NA,NA,NA,NA,NA,NA,NA,64.94,METAR KLGA 160400Z 21003KT 10SM BKN130 18/16 A2995 RMK LGA7/5 7/10 7/11 SLP142 T01830161,NA
LGA,1973-07-16T05:00:00Z,-73.8803,40.7794,65.84,59.9,81.14,0,0,NA,29.95,1014.2,10,NA,BKN,   ,   ,   ,30000,NA,NA,NA,NA,NA,NA,NA,NA,NA,NA,65.84,METAR KLGA 160500Z 00000KT 10SM BKN300 19/16 A2995 RMK LGA7/5 7/10 7/11 SLP142 T01880155,NA
LGA,1973-07-16T06:00:00Z,-73.8803,40.7794,64.94,62.06,90.39,50,4,NA,29.95,1014.2,10,NA,BKN,   ,   ,   ,30000,NA,NA,NA,NA,NA,NA,NA,NA,NA,NA,64.94,METAR KLGA 160600Z 05004KT 10SM BKN300 18/17 A2995 RMK LGA7/5 7/10 7/11 SLP142 T01830167,NA
LGA,1973-07-16T07:00:00Z,-73.8803,40.7794,63.86,60.98,90.35,80,4,NA,29.95,1014.2,10,NA,SCT,BKN,   ,   ,18000,30000,NA,NA,NA,NA,NA,NA,NA,NA,NA,63.86,METAR KLGA 160700Z 08004KT 10SM SCT180 BKN300 18/16 A2995 RMK LGA7/5 7/10 7/11 SLP142 T01770161,NA
LGA,1973-07-16T08:00:00Z,-73.8803,40.7794,63.86,60.98,90.35,100,4,NA,29.95,1014.2,10,NA,BKN,BKN,   ,   ,20000,30000,NA,NA,NA,NA,NA,NA,NA,NA,NA,63.86,METAR KLGA 160800Z 10004KT 10SM BKN200 BKN300 18/16 A2995 RMK LGA7/5 7/10 7/11 SLP142 T01770161,NA
LGA,1973-07-16T09:00:00Z,-73.8803,40.7794,64.04,60.98,89.78,0,0,NA,29.96,1014.6,8,NA,SCT,BKN,   ,   ,15000,30000,NA,NA,NA,NA,NA,NA,NA,NA,NA,64.04,METAR KLGA 160900Z 00000KT 8SM SCT150 BKN300 18/16 A2996 RMK / 1031LGA7/5 7/10 7/11 SLP146 T01780161 53002,NA
LGA,1973-07-16T10:00:00Z,-73.8803,40.7794,63.86,60.98,90.35,70,3,NA,29.99,1015.6,7,NA,SCT,BKN,   ,   ,18000,22000,NA,NA,NA,NA,NA,NA,NA,NA,NA,63.86,METAR KLGA 161000Z 07003KT 7SM SCT180 BKN220 18/16 A2999 RMK LGA7/5 7/10 7/11 SLP156 T01770161,NA
LGA,1973-07-16T11:00:00Z,-73.8803,40.7794,64.94,62.96,93.3,50,5,NA,29.99,1015.6,4,NA,SCT,BKN,   ,   ,17000,22000,NA,NA,MIBCFG,NA,NA,NA,NA,NA,NA,64.94,METAR KLGA 161100Z 05005KT 4SM MIBCFG SCT170 BKN220 18/17 A2999 RMK LGA7/5 7/10 7/11 SLP156 T01830172,NA
LGA,1973-07-16T12:00:00Z,-73.8803,40.7794,66.92,62.06,84.38,40,6,NA,30,1015.9,5,NA,SCT,BKN,   ,   ,17000,22000,NA,NA,DZ,NA,NA,NA,NA,NA,NA,66.92,METAR KLGA 161200Z 04006KT 5SM DZ SCT170 BKN220 19/17 A3000 RMK LGA7/5 7/10 7/11 7/13 SLP159 70024 T01940167,NA
LGA,1973-07-16T13:00:00Z,-73.8803,40.7794,69.98,61.88,75.48,50,8,NA,30.02,1016.6,8,NA,SCT,SCT,BKN,   ,10000,17000,22000,NA,NA,NA,NA,NA,NA,NA,NA,69.98,METAR KLGA 161300Z 05008KT 8SM SCT100 SCT170 BKN220 21/17 A3002 RMK VALGA7/5 7/10 7/11 7/13 SLP166 T02110166,NA
LGA,1973-07-16T14:00:00Z,-73.8803,40.7794,71.96,62.96,73.3,50,6,NA,30.02,1016.6,8,NA,SCT,SCT,   ,   ,15000,22000,NA,NA,NA,NA,NA,NA,NA,NA,NA,71.96,METAR KLGA 161400Z 05006KT 8SM SCT150 SCT220 22/17 A3002 RMK FEW CU SW VALGA7/5 7/10 7/11 7/13 SLP166 T02220172,NA
LGA,1973-07-16T15:00:00Z,-73.8803,40.7794,73.94,64.04,71.22,60,6,NA,30.02,1016.6,10,NA,SCT,SCT,   ,   ,3000,22000,NA,NA,NA,NA,NA,NA,NA,NA,NA,73.94,METAR KLGA 161500Z 06006KT 10SM SCT030 SCT220 23/18 A3002 RMK VALGA7/5 7/1 7/11 7/13 SLP166 8/101 T02330178 51007,NA
LGA,1973-07-16T16:00:00Z,-73.8803,40.7794,77,61.88,59.6,60,8,NA,30.03,1016.9,12,NA,SCT,NA,NA,NA,3400,NA,NA,NA,NA,NA,NA,NA,NA,NA,NA,77,KLGA 161600Z AUTO 06008KT 12SM SCT034 25/17 A3003 RMK SLP169 T02500166 IEM_DS3505,NA
LGA,1973-07-16T17:00:00Z,-73.8803,40.7794,78.98,60.98,54.08,60,10,NA,30.03,1016.9,15,NA,SCT,   ,   ,   ,4000,NA,NA,NA,NA,NA,NA,NA,NA,NA,NA,80.24,METAR KLGA 161700Z 06010KT 15SM SCT040 26/16 A3003 RMK VALGA7/5 7/10 7/11 7/13 SLP169 T02610161,NA
LGA,1973-07-16T18:00:00Z,-73.8803,40.7794,80.06,59,48.64,60,10,NA,30.02,1016.6,15,NA,SCT,   ,   ,   ,NA,NA,NA,NA,NA,NA,NA,NA,NA,NA,NA,80.73,METAR KLGA 161800Z 06010KT 15SM SCT/// 27/15 A3002 RMK SLP166 T02670150,NA
LGA,1973-07-16T19:00:00Z,-73.8803,40.7794,79.88,59,48.93,70,8,NA,30.01,1016.3,15,NA,SCT,   ,   ,   ,4500,NA,NA,NA,NA,NA,NA,NA,NA,NA,NA,79.88,METAR KLGA 161900Z 07008KT 15SM SCT045 27/15 A3001 RMK VALGA7/5 7/10 7/11 7/13 SLP163 T02660150,NA
LGA,1973-07-16T20:00:00Z,-73.8803,40.7794,79.88,59.9,50.52,60,9,NA,30,1015.9,15,NA,SCT,   ,   ,   ,4500,NA,NA,NA,NA,NA,NA,NA,NA,NA,NA,79.88,METAR KLGA 162000Z 06009KT 15SM SCT045 27/16 A3000 RMK % LGA7/5 7/10 7/11 7/13 SLP159 T02660155,NA
LGA,1973-07-16T21:00:00Z,-73.8803,40.7794,80.96,60.08,49.09,50,12,NA,30,1015.9,15,NA,SCT,   ,   ,   ,4500,NA,NA,NA,NA,NA,NA,NA,NA,NA,NA,81.59,METAR KLGA 162100Z 05012KT 15SM SCT045 27/16 A3000 RMK / 1100VALGA7/5 7/10 7/11 7/13 SLP159 T02720156 56007,NA
LGA,1973-07-16T22:00:00Z,-73.8803,40.7794,77.9,59,52.22,50,10,NA,30,1015.9,15,NA,SCT,   ,   ,   ,4500,NA,NA,NA,NA,NA,NA,NA,NA,NA,NA,77.9,METAR KLGA 162200Z 05010KT 15SM SCT045 25/15 A3000 RMK VALGA7/5 7/10 7/11 7/13 SLP159 T02550150,NA
LGA,1973-07-16T23:00:00Z,-73.8803,40.7794,74.84,62.96,66.53,180,4,NA,30.01,1016.3,15,NA,SCT,   ,   ,   ,4000,NA,NA,NA,NA,NA,NA,NA,NA,NA,NA,74.84,METAR KLGA 162300Z 18004KT 15SM SCT040 24/17 A3001 RMK LGA GP OTS^C7/137/5 7/10 7/11 SLP163 T02380172,NA
LGA,1973-07-17T00:00:00Z,-73.8803,40.7794,73.94,62.06,66.43,180,6,NA,30.02,1016.6,15,NA,SCT,   ,   ,   ,4000,NA,NA,NA,NA,NA,NA,NA,NA,NA,NA,73.94,METAR KLGA 170000Z 18006KT 15SM SCT040 23/17 A3002 RMK LGA7/5 7/10 7/11 7/14 SLP166 T02330167,NA
LGA,1973-07-17T01:00:00Z,-73.8803,40.7794,72.86,60.98,66.3,180,7,NA,30.04,1017.3,8,NA,SCT,SCT,   ,   ,4000,8000,NA,NA,NA,NA,NA,NA,NA,NA,NA,72.86,METAR KLGA 170100Z 18007KT 8SM SCT040 SCT080 23/16 A3004 RMK LGA7/5 7/10 7/11 7/14 SLP173 T02270161,NA
LGA,1973-07-17T02:00:00Z,-73.8803,40.7794,70.88,60.98,70.9,180,5,NA,30.06,1018,10,NA,CLR,   ,   ,   ,NA,NA,NA,NA,NA,NA,NA,NA,NA,NA,NA,70.88,METAR KLGA 170200Z 18005KT 10SM CLR 22/16 A3006 RMK LGA7/5 7/10 7/11 7/14 SLP180 T02160161,NA
LGA,1973-07-17T03:00:00Z,-73.8803,40.7794,69.98,60.98,73.11,240,4,NA,30.08,1018.6,10,NA,CLR,   ,   ,   ,NA,NA,NA,NA,NA,NA,NA,NA,NA,NA,NA,69.98,METAR KLGA 170300Z 24004KT 10SM CLR 21/16 A3008 RMK / 1030LGA7/5 7/10 7/11 7/14 SLP186 T02110161 51019,NA
LGA,1973-07-17T04:00:00Z,-73.8803,40.7794,69.98,57.92,65.54,200,4,NA,30.08,1018.6,10,NA,SCT,   ,   ,   ,10000,NA,NA,NA,NA,NA,NA,NA,NA,NA,NA,69.98,METAR KLGA 170400Z 20004KT 10SM SCT100 21/14 A3008 RMK LGA7/5 7/10 7/11 7/14 SLP186 T02110144,NA
LGA,1973-07-17T05:00:00Z,-73.8803,40.7794,69.98,59.9,70.36,340,4,NA,30.07,1018.3,10,NA,SCT,SCT,   ,   ,10000,30000,NA,NA,NA,NA,NA,NA,NA,NA,NA,69.98,METAR KLGA 170500Z 34004KT 10SM SCT100 SCT300 21/16 A3007 RMK LGA7/5 7/10 /711 7/14 SLP183 T02110155,NA
LGA,1973-07-17T06:00:00Z,-73.8803,40.7794,68,62.06,81.29,0,0,NA,30.08,1018.6,10,NA,CLR,   ,   ,   ,NA,NA,NA,NA,NA,NA,NA,NA,NA,NA,NA,68,METAR KLGA 170600Z 00000KT 10SM CLR/// 20/17 A3008 RMK FEW ACLGA7/5 7/10 7/11 7/14 SLP186 T02000167,NA
LGA,1973-07-17T07:00:00Z,-73.8803,40.7794,68,60.98,78.25,340,3,NA,30.07,1018.3,9,NA,SCT,   ,   ,   ,20000,NA,NA,NA,NA,NA,NA,NA,NA,NA,NA,68,METAR KLGA 170700Z 34003KT 9SM SCT200 20/16 A3007 RMK LGA7/5 7/10 7/11 7/14 SLP183 T02000161,NA
LGA,1973-07-17T08:00:00Z,-73.8803,40.7794,66.92,62.96,87.1,60,3,NA,30.08,1018.6,8,NA,SCT,BKN,   ,   ,20000,30000,NA,NA,NA,NA,NA,NA,NA,NA,NA,66.92,METAR KLGA 170800Z 06003KT 8SM SCT200 BKN300 19/17 A3008 RMK LGA7/5 7/10 7/11 7/14 SLP186 T01940172,NA
LGA,1973-07-17T09:00:00Z,-73.8803,40.7794,66.92,62.06,84.38,50,5,NA,30.08,1018.6,8,NA,SCT,BKN,   ,   ,20000,30000,NA,NA,NA,NA,NA,NA,NA,NA,NA,66.92,METAR KLGA 170900Z 05005KT 8SM SCT200 BKN300 19/17 A3008 RMK / VALGA7/5 7/10 7/11 7/14 SLP186 8/006 T01940167 55000,NA
LGA,1973-07-17T10:00:00Z,-73.8803,40.7794,65.84,61.88,87.04,20,4,NA,30.1,1019.3,6,NA,SCT,BKN,   ,   ,20000,30000,NA,NA,DZ,NA,NA,NA,NA,NA,NA,65.84,METAR KLGA 171000Z 02004KT 6SM DZ SCT200 BKN300 19/17 A3010 RMK LGA7/5 7/10 7/11 7/14 SLP193 T01880166,NA
LGA,1973-07-17T11:00:00Z,-73.8803,40.7794,68,62.96,83.91,40,5,NA,30.11,1019.6,7,NA,SCT,SCT,   ,   ,15000,20000,NA,NA,NA,NA,NA,NA,NA,NA,NA,68,METAR KLGA 171100Z 04005KT 7SM SCT150 SCT200 20/17 A3011 RMK LGA7/5 7/10 7/11 7/14 SLP196 T02000172,NA
LGA,1973-07-17T12:00:00Z,-73.8803,40.7794,69.98,62.96,78.41,20,8,NA,30.12,1020,7,NA,BKN,   ,   ,   ,25000,NA,NA,NA,NA,NA,NA,NA,NA,NA,NA,69.98,METAR KLGA 171200Z 02008KT 7SM BKN250 21/17 A3012 RMK VALGA C7/117/5 7/10 7/14 SLP200 T02110172,NA
LGA,1973-07-17T13:00:00Z,-73.8803,40.7794,74.84,63.86,68.67,50,8,NA,30.13,1020.3,7,NA,SCT,   ,   ,   ,25000,NA,NA,NA,NA,NA,NA,NA,NA,NA,NA,74.84,METAR KLGA 171300Z 05008KT 7SM SCT250 24/18 A3013 RMK VALGA 7/16 GP OTS^C7/157/5 7/10 SLP203 T02380177,NA
LGA,1973-07-17T14:00:00Z,-73.8803,40.7794,74.84,63.86,68.67,30,9,NA,30.14,1020.7,8,NA,SCT,SCT,   ,   ,4000,25000,NA,NA,NA,NA,NA,NA,NA,NA,NA,74.84,METAR KLGA 171400Z 03009KT 8SM SCT040 SCT250 24/18 A3014 RMK VALGA7/5 7/10 7/16 SLP207 T02380177,NA
LGA,1973-07-17T15:00:00Z,-73.8803,40.7794,77,62.96,61.91,60,10,NA,30.16,1021.3,10,NA,SCT,   ,   ,   ,4000,NA,NA,NA,NA,NA,NA,NA,NA,NA,NA,77,METAR KLGA 171500Z 06010KT 10SM SCT040 25/17 A3016 RMK VALGA7/5 7/10 7/16 SLP213 8/100 T02500172 53014,NA
LGA,1973-07-17T16:00:00Z,-73.8803,40.7794,77.9,57.92,50.24,50,11,NA,30.16,1021.3,10,NA,SCT,SCT,   ,   ,4500,25000,NA,NA,NA,NA,NA,NA,NA,NA,NA,77.9,METAR KLGA 171600Z 05011KT 10SM SCT045 SCT250 25/14 A3016 RMK VALGA7/5 7/10 7/16 SLP213 T02550144,NA
LGA,1973-07-17T17:00:00Z,-73.8803,40.7794,79.88,54.86,42.14,60,10,NA,30.17,1021.3,10,NA,SCT,BKN,   ,   ,4500,25000,NA,NA,NA,NA,NA,NA,NA,NA,NA,79.88,METAR KLGA 171700Z 06010KT 10SM SCT045 BKN250 27/13 A3017 RMK VALGA7/5 7/10 7/16 SLP213 T02660127,NA
LGA,1973-07-17T18:00:00Z,-73.8803,40.7794,80.06,55.04,42.16,60,12,NA,30.15,1021,10,NA,SCT,BKN,   ,   ,4500,25000,NA,NA,NA,NA,NA,NA,NA,NA,NA,80.15,METAR KLGA 171800Z 06012KT 10SM SCT045 BKN250 27/13 A3015 RMK VALGA7/5 7/10 7/16 SLP210 T02670128,NA
LGA,1973-07-17T19:00:00Z,-73.8803,40.7794,79.88,54.86,42.14,50,10,NA,30.14,1020.7,15,NA,SCT,BKN,   ,   ,4500,25000,NA,NA,NA,NA,NA,NA,NA,NA,NA,79.88,METAR KLGA 171900Z 05010KT 15SM SCT045 BKN250 27/13 A3014 RMK VALGA7/5 7/10 7/16 SLP207 T02660127,NA
LGA,1973-07-17T20:00:00Z,-73.8803,40.7794,79.88,57.92,47.07,60,10,NA,30.14,1020.7,15,NA,SCT,BKN,   ,   ,5000,6000,NA,NA,NA,NA,NA,NA,NA,NA,NA,79.88,METAR KLGA 172000Z 06010KT 15SM SCT050 BKN060 27/14 A3014 RMK LGA7/5 7/10 SLP207 T02660144,NA
LGA,1973-07-17T21:00:00Z,-73.8803,40.7794,80.06,55.04,42.16,60,6,NA,30.14,1020.7,15,NA,SCT,SCT,BKN,   ,5000,7000,22000,NA,NA,NA,NA,NA,NA,NA,NA,80.15,METAR KLGA 172100Z 06006KT 15SM SCT050 SCT070 BKN220 27/13 A3014 RMK / 1276LGA7/5 7/10 SLP207 T02670128 55003,NA
LGA,1973-07-17T22:00:00Z,-73.8803,40.7794,79.88,55.94,43.82,60,6,NA,30.13,1020.3,15,NA,SCT,SCT,   ,   ,5000,22000,NA,NA,NA,NA,NA,NA,NA,NA,NA,79.88,METAR KLGA 172200Z 06006KT 15SM SCT050 SCT220 27/13 A3013 RMK LGA7/5 SLP203 T02660133,NA
LGA,1973-07-17T23:00:00Z,-73.8803,40.7794,78.98,56.84,46.63,60,7,NA,30.14,1020.7,15,NA,SCT,SCT,   ,   ,5000,22000,NA,NA,NA,NA,NA,NA,NA,NA,NA,78.98,METAR KLGA 172300Z 06007KT 15SM SCT050 SCT220 26/14 A3014 RMK LGA7/5 SLP207 T02610138,NA
LGA,1973-07-18T00:00:00Z,-73.8803,40.7794,75.92,57.02,51.94,50,8,NA,30.15,1021,15,NA,SCT,SCT,   ,   ,5000,7000,NA,NA,NA,NA,NA,NA,NA,NA,NA,75.92,METAR KLGA 180000Z 05008KT 15SM SCT050 SCT070 24/14 A3015 RMK LGA7/5 SLP210 T02440139,NA
LGA,1973-07-18T01:00:00Z,-73.8803,40.7794,74.84,55.94,51.78,50,6,NA,30.15,1021,15,NA,SCT,SCT,   ,   ,5000,7000,NA,NA,NA,NA,NA,NA,NA,NA,NA,74.84,METAR KLGA 180100Z 05006KT 15SM SCT050 SCT070 24/13 A3015 RMK VALGA7/5 SLP210 T02380133,NA
LGA,1973-07-18T02:00:00Z,-73.8803,40.7794,73.94,54.86,51.31,70,6,NA,30.17,1021.7,15,NA,SCT,   ,   ,   ,8000,NA,NA,NA,NA,NA,NA,NA,NA,NA,NA,73.94,METAR KLGA 180200Z 07006KT 15SM SCT080 23/13 A3017 RMK VALGAAGUXT SLP217 T02330127,NA
LGA,1973-07-18T03:00:00Z,-73.8803,40.7794,73.94,57.92,57.32,150,7,NA,30.17,1021.7,15,NA,SCT,   ,   ,   ,8000,NA,NA,NA,NA,NA,NA,NA,NA,NA,NA,73.94,METAR KLGA 180300Z 15007KT 15SM SCT080 23/14 A3017 RMK / VALGA7/5 SLP217 8/070 T02330144 51007,NA
LGA,1973-07-18T04:00:00Z,-73.8803,40.7794,72.86,59,61.79,170,5,NA,30.17,1021.7,15,NA,SCT,   ,   ,   ,8000,NA,NA,NA,NA,NA,NA,NA,NA,NA,NA,72.86,METAR KLGA 180400Z 17005KT 15SM SCT080 23/15 A3017 RMK LGA7/5 SLP217 T02270150,NA
LGA,1973-07-18T05:00:00Z,-73.8803,40.7794,71.96,60.98,68.35,120,5,NA,30.17,1021.7,10,NA,BKN,   ,   ,   ,10000,NA,NA,NA,NA,NA,NA,NA,NA,NA,NA,71.96,METAR KLGA 180500Z 12005KT 10SM BKN100 22/16 A3017 RMK LGA7/11 SLP217 T02220161,NA
LGA,1973-07-18T06:00:00Z,-73.8803,40.7794,71.96,62.96,73.3,20,5,NA,30.17,1021.7,9,NA,BKN,BKN,   ,   ,8000,10000,NA,NA,NA,NA,NA,NA,NA,NA,NA,71.96,METAR KLGA 180600Z 02005KT 9SM BKN080 BKN100 22/17 A3017 RMK LGA7/5 SLP217 T02220172,NA
LGA,1973-07-18T07:00:00Z,-73.8803,40.7794,68.9,63.86,83.97,40,7,NA,30.17,1021.7,10,NA,BKN,BKN,   ,   ,8000,10000,NA,NA,NA,NA,NA,NA,NA,NA,NA,68.9,METAR KLGA 180700Z 04007KT 10SM BKN080 BKN100 20/18 A3017 RMK LGA7/5 SLP217 T02050177,NA
LGA,1973-07-18T08:00:00Z,-73.8803,40.7794,68,62.96,83.91,50,6,NA,30.17,1021.7,9,NA,BKN,BKN,   ,   ,7000,10000,NA,NA,NA,NA,NA,NA,NA,NA,NA,68,METAR KLGA 180800Z 05006KT 9SM BKN070 BKN100 20/17 A3017 RMK LGA7/5 SLP217 T02000172,NA
LGA,1973-07-18T09:00:00Z,-73.8803,40.7794,68,62.06,81.29,70,5,NA,30.17,1021.7,9,NA,SCT,SCT,   ,   ,8000,10000,NA,NA,NA,NA,NA,NA,NA,NA,NA,68,METAR KLGA 180900Z 07005KT 9SM SCT080 SCT100 20/17 A3017 RMK / 1070LGA7/5 SLP217 T02000167 55000,NA
LGA,1973-07-18T10:00:00Z,-73.8803,40.7794,68,61.88,80.78,60,5,NA,30.19,1022.4,10,NA,BKN,BKN,   ,   ,7000,9000,NA,NA,NA,NA,NA,NA,NA,NA,NA,68,METAR KLGA 181000Z 06005KT 10SM BKN070 BKN090 20/17 A3019 RMK LGA7/5 SLP224 T02000166,NA
LGA,1973-07-18T11:00:00Z,-73.8803,40.7794,68.9,59.9,73.01,60,5,NA,30.2,1022.7,8,NA,BKN,BKN,   ,   ,7000,9000,NA,NA,NA,NA,NA,NA,NA,NA,NA,68.9,METAR KLGA 181100Z 06005KT 8SM BKN070 BKN090 20/16 A3020 RMK LGA7/5 SLP227 T02050155,NA
LGA,1973-07-18T12:00:00Z,-73.8803,40.7794,71.06,60.08,68.25,60,6,NA,30.2,1022.7,8,NA,SCT,   ,   ,   ,7000,NA,NA,NA,NA,NA,NA,NA,NA,NA,NA,71.06,METAR KLGA 181200Z 06006KT 8SM SCT070 22/16 A3020 RMK / KOCTY VALGA7/5 SLP227 T02170156,NA
LGA,1973-07-18T13:00:00Z,-73.8803,40.7794,72.86,60.98,66.3,60,5,NA,30.21,1023,8,NA,CLR,   ,   ,   ,NA,NA,NA,NA,NA,NA,NA,NA,NA,NA,NA,72.86,METAR KLGA 181300Z 06005KT 8SM CLR 23/16 A3021 RMK VALGA7/5 ^ SLP230 T02270161,NA
LGA,1973-07-18T14:00:00Z,-73.8803,40.7794,77,61.88,59.6,60,5,NA,30.21,1023,8,NA,CLR,   ,   ,   ,NA,NA,NA,NA,NA,NA,NA,NA,NA,NA,NA,77,METAR KLGA 181400Z 06005KT 8SM CLR 25/17 A3021 RMK / FEW CU SW VALGA7/5 SLP230 T02500166,NA
LGA,1973-07-18T15:00:00Z,-73.8803,40.7794,80.06,60.98,52.19,40,5,NA,30.2,1022.7,10,NA,CLR,   ,   ,   ,NA,NA,NA,NA,NA,NA,NA,NA,NA,NA,NA,81.07,METAR KLGA 181500Z 04005KT 10SM CLR 27/16 A3020 RMK / FEW CU/ VALGA7/5 SLP227 8/100 T02670161 50000,NA
LGA,1973-07-18T16:00:00Z,-73.8803,40.7794,80.96,53.96,39.36,70,6,NA,30.2,1022.7,15,NA,SCT,   ,   ,   ,5000,NA,NA,NA,NA,NA,NA,NA,NA,NA,NA,80.96,METAR KLGA 181600Z 07006KT 15SM SCT050 27/12 A3020 RMK VALGA7/5 SLP227 T02720122,NA
LGA,1973-07-18T17:00:00Z,-73.8803,40.7794,82.94,55.94,39.67,60,6,NA,30.18,1022,15,NA,SCT,   ,   ,   ,5000,NA,NA,NA,NA,NA,NA,NA,NA,NA,NA,82.94,METAR KLGA 181700Z 06006KT 15SM SCT050 28/13 A3018 RMK VALGA7/5 SLP220 T02830133,NA
LGA,1973-07-18T18:00:00Z,-73.8803,40.7794,82.94,55.94,39.67,260,2,NA,30.17,1021.7,15,NA,SCT,   ,   ,   ,5000,NA,NA,NA,NA,NA,NA,NA,NA,NA,NA,82.94,METAR KLGA 181800Z 26002KT 15SM SCT050 28/13 A3017 RMK VALGA7/5 SLP217 T02830133,NA
LGA,1973-07-18T19:00:00Z,-73.8803,40.7794,82.94,55.94,39.67,30,3,NA,30.16,1021.3,15,NA,SCT,   ,   ,   ,5000,NA,NA,NA,NA,NA,NA,NA,NA,NA,NA,82.94,METAR KLGA 181900Z 03003KT 15SM SCT050 28/13 A3016 RMK VALGA7/5 SLP213 T02830133,NA
LGA,1973-07-18T20:00:00Z,-73.8803,40.7794,83.84,57.92,41.38,60,5,NA,30.15,1021,15,NA,SCT,   ,   ,   ,5000,NA,NA,NA,NA,NA,NA,NA,NA,NA,NA,83.35,METAR KLGA 182000Z 06005KT 15SM SCT050 29/14 A3015 RMK LGA7/5 SLP210 T02880144,NA
LGA,1973-07-18T21:00:00Z,-73.8803,40.7794,82.04,55.94,40.84,160,9,NA,30.14,1020.7,15,NA,SCT,   ,   ,   ,5000,NA,NA,NA,NA,NA,NA,NA,NA,NA,NA,81.58,METAR KLGA 182100Z 16009KT 15SM SCT050 28/13 A3014 RMK 1100LGA7/5 SLP207 T02780133 57010,NA
LGA,1973-07-18T22:00:00Z,-73.8803,40.7794,81.86,55.94,41.08,180,12,NA,30.14,1020.7,15,NA,SCT,   ,   ,   ,5000,NA,NA,NA,NA,NA,NA,NA,NA,NA,NA,81.46,METAR KLGA 182200Z 18012KT 15SM SCT050 28/13 A3014 RMK LGA7/5 SLP207 T02770133,NA
LGA,1973-07-18T23:00:00Z,-73.8803,40.7794,79.88,54.86,42.14,160,10,NA,30.14,1020.7,15,NA,SCT,   ,   ,   ,5000,NA,NA,NA,NA,NA,NA,NA,NA,NA,NA,79.88,METAR KLGA 182300Z 16010KT 15SM SCT050 27/13 A3014 RMK VALGA7/5 SLP207 T02660127,NA
LGA,1973-07-19T00:00:00Z,-73.8803,40.7794,78.08,53.06,41.86,180,10,NA,30.15,1021,15,NA,SCT,   ,   ,   ,5000,NA,NA,NA,NA,NA,NA,NA,NA,NA,NA,78.08,METAR KLGA 190000Z 18010KT 15SM SCT050 26/12 A3015 RMK VALGA7/5 SLP210 T02560117,NA
LGA,1973-07-19T01:00:00Z,-73.8803,40.7794,77,50.9,40.06,210,10,NA,30.15,1021,10,NA,SCT,   ,   ,   ,5000,NA,NA,NA,NA,NA,NA,NA,NA,NA,NA,77,METAR KLGA 190100Z 21010KT 10SM SCT050 25/11 A3015 RMK VALGA7/5 SLP210 T02500105,NA
LGA,1973-07-19T02:00:00Z,-73.8803,40.7794,75.92,51.98,43.21,210,11,NA,30.16,1021.3,10,NA,CLR,   ,   ,   ,NA,NA,NA,NA,NA,NA,NA,NA,NA,NA,NA,75.92,METAR KLGA 190200Z 21011KT 10SM CLR 24/11 A3016 RMK LGA7/5 SLP213 T02440111,NA
LGA,1973-07-19T03:00:00Z,-73.8803,40.7794,75.02,53.96,47.89,220,9,NA,30.16,1021.3,10,NA,CLR,   ,   ,   ,NA,NA,NA,NA,NA,NA,NA,NA,NA,NA,NA,75.02,METAR KLGA 190300Z 22009KT 10SM CLR 24/12 A3016 RMK LGA SLP213 T02390122 570/5,NA
LGA,1973-07-19T04:00:00Z,-73.8803,40.7794,74.84,54.86,49.79,220,10,NA,30.15,1021,10,NA,SCT,   ,   ,   ,4000,NA,NA,NA,NA,NA,NA,NA,NA,NA,NA,74.84,METAR KLGA 190400Z 22010KT 10SM SCT040 24/13 A3015 RMK LGA7/5 SLP210 T02380127,NA
LGA,1973-07-19T05:00:00Z,-73.8803,40.7794,72.86,57.92,59.44,200,7,NA,30.15,1021,10,NA,BKN,   ,   ,   ,6000,NA,NA,NA,NA,NA,NA,NA,NA,NA,NA,72.86,METAR KLGA 190500Z 20007KT 10SM BKN060 23/14 A3015 RMK LGA7/5 SLP210 T02270144,NA
LGA,1973-07-19T06:00:00Z,-73.8803,40.7794,73.04,59,61.41,210,7,NA,30.15,1021,8,NA,BKN,   ,   ,   ,6000,NA,NA,NA,NA,NA,NA,NA,NA,NA,NA,73.04,METAR KLGA 190600Z 21007KT 8SM BKN060 23/15 A3015 RMK LGA7/5 SLP210 T02280150,NA
LGA,1973-07-19T07:00:00Z,-73.8803,40.7794,71.96,59.9,65.78,220,4,NA,30.14,1020.7,8,NA,SCT,   ,   ,   ,5000,NA,NA,NA,NA,NA,NA,NA,NA,NA,NA,71.96,METAR KLGA 190700Z 22004KT 8SM SCT050 22/16 A3014 RMK LGA7/5 SLP207 T02220155,NA
LGA,1973-07-19T08:00:00Z,-73.8803,40.7794,70.88,59.9,68.23,200,5,NA,30.14,1020.7,7,NA,CLR,   ,   ,   ,NA,NA,NA,NA,NA,NA,NA,NA,NA,NA,NA,70.88,METAR KLGA 190800Z 20005KT 7SM CLR 22/16 A3014 RMK LGA7/5 SLP207 T02160155,NA
LGA,1973-07-19T09:00:00Z,-73.8803,40.7794,69.98,60.98,73.11,210,4,NA,30.13,1020.3,7,NA,CLR,   ,   ,   ,NA,NA,NA,NA,NA,NA,NA,NA,NA,NA,NA,69.98,METAR KLGA 190900Z 21004KT 7SM CLR 21/16 A3013 RMK / 705LGA7/5 SLP203 T02110161,NA
LGA,1973-07-19T10:00:00Z,-73.8803,40.7794,69.98,61.88,75.48,200,5,NA,30.15,1021,4,NA,CLR,   ,   ,   ,NA,NA,NA,NA,DZ,NA,NA,NA,NA,NA,NA,69.98,METAR KLGA 191000Z 20005KT 4SM DZ CLR 21/17 A3015 RMK VALGA7/5 SLP210 T02110166,NA
LGA,1973-07-19T11:00:00Z,-73.8803,40.7794,70.9,63,76.09,330,3.04,NA,30.16,NA,10.5,NA,   ,   ,   ,   ,NA,NA,NA,NA,NA,NA,NA,NA,NA,NA,NA,70.9,METAR KLGA 191100Z 33003KT 21/2SM FUDZ CLR 22/17 A3016 RMK LGA7/5 SLP213 T02160172,NA
LGA,1973-07-19T12:00:00Z,-73.8803,40.7794,73,64,73.4,320,5.04,NA,30.17,NA,10.5,NA,   ,   ,   ,   ,NA,NA,NA,NA,NA,NA,NA,NA,NA,NA,NA,73,METAR KLGA 191200Z 32005KT 21/2SM FUDZ CLR 23/18 A3017 RMK LGA7/5 SLP217 T02280178,NA
LGA,1973-07-19T13:00:00Z,-73.8803,40.7794,75.9,63,64.31,310,3.04,NA,30.17,NA,10.5,NA,   ,   ,   ,   ,NA,NA,NA,NA,NA,NA,NA,NA,NA,NA,NA,75.9,METAR KLGA 191300Z 31003KT 21/2SM FUDZ OVC/// 24/17 A3017 RMK HK2LGA7/5 SLP217 T02440172,NA
LGA,1973-07-19T15:00:00Z,-73.8803,40.7794,81,64,56.3,290,4,NA,30.16,NA,3,NA,   ,   ,   ,   ,NA,NA,NA,NA,NA,NA,NA,NA,NA,NA,NA,82.54,METAR KLGA 191500Z 29004KT 3SM FUDZ SCT045 27/18 A3016 RMK 1100LGA7/5 SLP213 T02720178 58005,NA
LGA,1973-07-19T16:00:00Z,-73.8803,40.7794,81.9,63,52.79,320,2,NA,30.15,NA,4,NA,   ,   ,   ,   ,NA,NA,NA,NA,NA,NA,NA,NA,NA,NA,NA,83.08,METAR KLGA 191600Z 32002KT 4SM FUDZ SCT045 28/17 A3015 RMK LGA7/5 VA SLP210 T02770172,NA
LGA,1973-07-19T17:00:00Z,-73.8803,40.7794,81.9,61,49.19,250,12,NA,30.14,NA,6,NA,   ,   ,   ,   ,NA,NA,NA,NA,NA,NA,NA,NA,NA,NA,NA,82.54,METAR KLGA 191700Z 24012KT 6SM FUDZ SCT050 28/16 A3014 RMK %VLGA7/5 SLP207 T02770161,NA
LGA,1973-07-19T18:00:00Z,-73.8803,40.7794,86,61,43.1,230,11.04,NA,30.12,NA,6,NA,   ,   ,   ,   ,NA,NA,NA,NA,NA,NA,NA,NA,NA,NA,NA,86.12,METAR KLGA 191800Z 23011KT 6SM FUDZ SCT050 30/16 A3012 RMK LGA7/5 VA SLP200 T03000161,NA
LGA,1973-07-19T20:00:00Z,-73.8803,40.7794,84.9,64.9,51.21,150,16,NA,30.1,NA,5,24,   ,   ,   ,   ,NA,NA,NA,NA,NA,NA,NA,NA,NA,NA,NA,86.62,METAR KLGA 192000Z 15016G24KT 5SM FUDZ SCT045 29/18 A3010 RMK LGA7/5 VA SLP193 T02940183,NA
LGA,1973-07-19T21:00:00Z,-73.8803,40.7794,84.02,64.94,52.75,160,15,NA,30.07,1018.3,6,NA,SCT,   ,   ,   ,5000,NA,NA,NA,DZ,NA,NA,NA,NA,NA,NA,85.76,METAR KLGA 192100Z 16015KT 6SM DZ SCT050 29/18 A3007 RMK / 1100LGA7/5 SLP183 T02890183 58015,NA
LGA,1973-07-19T22:00:00Z,-73.8803,40.7794,82.94,64.94,54.63,160,13,NA,30.07,1018.3,7,NA,SCT,   ,   ,   ,5000,NA,NA,NA,NA,NA,NA,NA,NA,NA,NA,84.7,METAR KLGA 192200Z 16013KT 7SM SCT050 28/18 A3007 RMK LGA7/5 SLP183 T02830183,NA
LGA,1973-07-19T23:00:00Z,-73.8803,40.7794,81.86,64.94,56.57,180,12,NA,30.06,1018,7,NA,SCT,   ,   ,   ,5000,NA,NA,NA,NA,NA,NA,NA,NA,NA,NA,83.64,METAR KLGA 192300Z 18012KT 7SM SCT050 28/18 A3006 RMK LGA7/5 % SLP180 T02770183,NA
LGA,1973-07-20T00:00:00Z,-73.8803,40.7794,80.96,64.94,58.25,180,10,NA,30.07,1018.3,7,NA,SCT,   ,   ,   ,5000,NA,NA,NA,NA,NA,NA,NA,NA,NA,NA,82.76,METAR KLGA 200000Z 18010KT 7SM SCT050 27/18 A3007 RMK VALGA7/5 SLP183 T02720183,NA
LGA,1973-07-20T01:00:00Z,-73.8803,40.7794,80.96,62.96,54.35,180,9,NA,30.07,1018.3,7,NA,CLR,   ,   ,   ,NA,NA,NA,NA,NA,NA,NA,NA,NA,NA,NA,82.24,METAR KLGA 200100Z 18009KT 7SM CLR 27/17 A3007 RMK VALGA7/5 SLP183 T02720172,NA
LGA,1973-07-20T02:00:00Z,-73.8803,40.7794,79.88,59.9,50.52,200,9,NA,30.07,1018.3,7,NA,CLR,   ,   ,   ,NA,NA,NA,NA,NA,NA,NA,NA,NA,NA,NA,79.88,METAR KLGA 200200Z 20009KT 7SM CLR 27/16 A3007 RMK VALGA7/5 SLP183 T02660155,NA
LGA,1973-07-20T03:00:00Z,-73.8803,40.7794,78.98,64.04,60.23,220,12,NA,30.09,1019,8,NA,CLR,   ,   ,   ,NA,NA,NA,NA,NA,NA,NA,NA,NA,NA,NA,80.68,METAR KLGA 200300Z 22012KT 8SM CLR 26/18 A3009 RMK / VALGA7/5 SLP190 T02610178 53007,NA
LGA,1973-07-20T04:00:00Z,-73.8803,40.7794,77.9,62.96,60.1,210,9,NA,30.09,1019,8,NA,CLR,   ,   ,   ,NA,NA,NA,NA,NA,NA,NA,NA,NA,NA,NA,77.9,METAR KLGA 200400Z 21009KT 8SM CLR 25/17 A3009 RMK LGA7/5 SLP190 T02550172,NA
LGA,1973-07-20T05:00:00Z,-73.8803,40.7794,77,62.96,61.91,230,10,NA,30.09,1019,8,NA,BKN,   ,   ,   ,6000,NA,NA,NA,NA,NA,NA,NA,NA,NA,NA,77,METAR KLGA 200500Z 23010KT 8SM BKN060 25/17 A3009 RMK LGA7/5 SLP190 T02500172,NA
LGA,1973-07-20T06:00:00Z,-73.8803,40.7794,75.92,62.96,64.17,220,7,NA,30.08,1018.6,8,NA,BKN,   ,   ,   ,6000,NA,NA,NA,NA,NA,NA,NA,NA,NA,NA,75.92,METAR KLGA 200600Z 22007KT 8SM BKN060 24/17 A3008 RMK LGA7/5 SLP186 T02440172,NA
LGA,1973-07-20T07:00:00Z,-73.8803,40.7794,74.84,63.86,68.67,240,11,NA,30.07,1018.3,8,NA,SCT,   ,   ,   ,6000,NA,NA,NA,NA,NA,NA,NA,NA,NA,NA,74.84,METAR KLGA 200700Z 24011KT 8SM SCT060 24/18 A3007 RMK LGA7/5 SLP183 T02380177,NA
LGA,1973-07-20T08:00:00Z,-73.8803,40.7794,74.84,62.96,66.53,230,9,NA,30.06,1018,8,NA,BKN,   ,   ,   ,7000,NA,NA,NA,NA,NA,NA,NA,NA,NA,NA,74.84,METAR KLGA 200800Z 23009KT 8SM BKN070 24/17 A3006 RMK LGA7/5 SLP180 T02380172,NA
LGA,1973-07-20T09:00:00Z,-73.8803,40.7794,73.04,64.04,73.41,210,10,NA,30.07,1018.3,7,NA,SCT,BKN,   ,   ,5000,7000,NA,NA,NA,NA,NA,NA,NA,NA,NA,73.04,METAR KLGA 200900Z 21010KT 7SM SCT050 BKN070 23/18 A3007 RMK / 1570LGA7/5 SLP183 T02280178 55003,NA
LGA,1973-07-20T11:00:00Z,-73.8803,40.7794,72.86,63.86,73.39,200,10,NA,30.07,1018.3,5,NA,SCT,BKN,   ,   ,12000,25000,NA,NA,FU,NA,NA,NA,NA,NA,NA,72.86,METAR KLGA 201100Z 20010KT 5SM FU SCT120 BKN250 23/18 A3007 RMK LGA7/5 SLP183 T02270177,NA
LGA,1973-07-20T12:00:00Z,-73.8803,40.7794,73.9,64,71.21,200,10,NA,30.08,NA,5,NA,   ,   ,   ,   ,NA,NA,NA,NA,NA,NA,NA,NA,NA,NA,NA,73.9,METAR KLGA 201200Z 20010KT 5SM FUDZ SCT120 BKN250 23/18 A3008 RMK VALGA7/5 SLP186 T02330178,NA
LGA,1973-07-20T13:00:00Z,-73.8803,40.7794,75.92,65.84,70.97,200,11,NA,30.06,1018,4,NA,OVC,   ,   ,   ,25000,NA,NA,NA,FU,NA,NA,NA,NA,NA,NA,75.92,METAR KLGA 201300Z 20011KT 4SM FU OVC250 24/19 A3006 RMK VALGA7/5 SLP180 T02440188,NA
LGA,1973-07-20T14:00:00Z,-73.8803,40.7794,77.9,66.9,68.95,210,9.04,NA,30.05,NA,4,NA,   ,   ,   ,   ,NA,NA,NA,NA,NA,NA,NA,NA,NA,NA,NA,77.9,METAR KLGA 201400Z 21009KT 4SM FUDZ SCT100 BKN250 25/19 A3005 RMK VALGA7/5 SLP176 T02550194,NA
LGA,1973-07-20T15:00:00Z,-73.8803,40.7794,80.1,68,66.62,180,10,NA,30.03,NA,5,NA,   ,   ,   ,   ,NA,NA,NA,NA,NA,NA,NA,NA,NA,NA,NA,82.7,METAR KLGA 201500Z 19010KT 5SM FUDZ FEW250 27/20 A3003 RMK VALGA 7/17 GP 22 OTS7/5 SLP169 8/001 T02670200 57015,NA
LGA,1973-07-20T16:00:00Z,-73.8803,40.7794,81,68,64.69,220,12,NA,30.02,NA,5,NA,   ,   ,   ,   ,NA,NA,NA,NA,NA,NA,NA,NA,NA,NA,NA,83.76,METAR KLGA 201600Z 22012KT 5SM FUDZ SCT250 27/20 A3002 RMK FEW CULGA7/5 7/17 SLP166 T02720200,NA
LGA,1973-07-20T17:00:00Z,-73.8803,40.7794,82.9,68.9,62.72,210,13.04,NA,30.01,NA,5,NA,   ,   ,   ,   ,NA,NA,NA,NA,NA,NA,NA,NA,NA,NA,NA,86.38,METAR KLGA 201700Z 21013KT 5SM FUDZ SCT040 BKN250 28/20 A3001 RMK LGA7/5 SLP163 T02830205,NA
LGA,1973-07-20T18:00:00Z,-73.8803,40.7794,84.9,69.1,59.21,210,13.04,NA,29.98,NA,5,NA,   ,   ,   ,   ,NA,NA,NA,NA,NA,NA,NA,NA,NA,NA,NA,88.83,METAR KLGA 201800Z 21013KT 5SM FUDZ SCT040 BKN120 29/21 A2998 RMK LGA7/5 SLP152 T02940206,NA
LGA,1973-07-20T19:00:00Z,-73.8803,40.7794,82.9,70,65.13,140,15.04,NA,29.97,NA,5,NA,   ,   ,   ,   ,NA,NA,NA,NA,NA,NA,NA,NA,NA,NA,NA,86.95,METAR KLGA 201900Z 14015KT 5SM FUDZ SCT040 BKN100 28/21 A2991 RMK LGA7/5 SLP149 T02830211,NA
LGA,1973-07-20T21:00:00Z,-73.8803,40.7794,80.96,69.98,69.32,160,12,NA,29.93,1013.5,6,NA,BKN,OVC,   ,   ,4000,10000,NA,NA,DZ,NA,NA,NA,NA,NA,NA,84.44,METAR KLGA 202100Z 16012KT 6SM DZ BKN040 OVC100 27/21 A2993 RMK RB02E10 / VALGA7/5 SLP135 8/23/ T02720211 57017,NA
LGA,1973-07-20T22:00:00Z,-73.8803,40.7794,82.94,69.98,65,160,10,NA,29.91,1012.9,6,NA,BKN,OVC,   ,   ,3500,10000,NA,NA,DZ,NA,NA,NA,NA,NA,NA,86.99,METAR KLGA 202200Z 16010KT 6SM DZ BKN035 OVC100 28/21 A2991 RMK VALGA7/5 SLP129 T02830211,NA
LGA,1973-07-20T23:00:00Z,-73.8803,40.7794,82.94,68.9,62.64,180,10,NA,29.9,1012.5,7,NA,BKN,OVC,   ,   ,3500,10000,NA,NA,-SHRA,NA,NA,NA,NA,NA,NA,86.43,METAR KLGA 202300Z 18010KT 7SM -SHRA BKN035 OVC100 28/20 A2990 RMK RB45/ VSBY NE3 VALGA7/5 SLP125 T02830205,NA
LGA,1973-07-21T00:00:00Z,-73.8803,40.7794,84.02,69.08,60.87,210,13,NA,29.91,1012.9,7,NA,BKN,OVC,   ,   ,3500,10000,NA,NA,NA,NA,NA,NA,NA,NA,NA,87.79,METAR KLGA 210000Z 21013KT 7SM BKN035 OVC100 29/21 A2991 RMK RE06LGA7/5 SLP129 T02890206,NA
LGA,1973-07-21T01:00:00Z,-73.8803,40.7794,75.92,69.98,81.85,60,9,0.04,29.92,1013.2,7,NA,BKN,OVC,   ,   ,3000,10000,NA,NA,NA,NA,NA,NA,NA,NA,NA,77.06,METAR KLGA 210100Z 06009KT 7SM BKN030 OVC100 24/21 A2992 RMK VALGA7/5 SLP132 P0004 T02440211,NA
LGA,1973-07-21T01:09:00Z,-73.8803,40.7794,NA,NA,NA,20,9,NA,29.93,NA,3,NA,OVC,NA,NA,NA,2200,NA,NA,NA,NA,NA,NA,NA,NA,NA,NA,NA,KLGA 210109Z AUTO 02009KT 3SM OVC022 A2993 RMK IEM_DS3505,NA
LGA,1973-07-21T01:15:00Z,-73.8803,40.7794,NA,NA,NA,30,10,NA,29.93,NA,2,NA,OVC,NA,NA,NA,2000,NA,NA,NA,NA,NA,NA,NA,NA,NA,NA,NA,KLGA 210115Z AUTO 03010KT 2SM OVC020 A2993 RMK IEM_DS3505,NA
LGA,1973-07-21T01:25:00Z,-73.8803,40.7794,NA,NA,NA,50,8,NA,29.93,NA,2.5,NA,OVC,NA,NA,NA,2300,NA,NA,NA,NA,NA,NA,NA,NA,NA,NA,NA,KLGA 210125Z AUTO 05008KT 2 1/2SM OVC023 A2993 RMK IEM_DS3505,NA
LGA,1973-07-21T01:35:00Z,-73.8803,40.7794,NA,NA,NA,60,8,NA,29.93,NA,3,NA,OVC,NA,NA,NA,3000,NA,NA,NA,NA,NA,NA,NA,NA,NA,NA,NA,KLGA 210135Z AUTO 06008KT 3SM OVC030 A2993 RMK IEM_DS3505,NA
LGA,1973-07-21T02:00:00Z,-73.8803,40.7794,75.92,71.96,87.55,80,9,0.19,29.93,1013.5,3,NA,OVC,   ,   ,   ,3000,NA,NA,NA,-SHRA,NA,NA,NA,NA,NA,NA,77.33,METAR KLGA 210200Z 08009KT 3SM -SHRA OVC030 24/22 A2993 RMK / SFC VSBY 4 RB0055LGA7/5 SLP135 P0019 T02440222,NA
LGA,1973-07-21T03:00:00Z,-73.8803,40.7794,75.92,69.98,81.85,100,9,0.03,29.92,1013.2,4,NA,BKN,OVC,   ,   ,2700,5000,NA,NA,-TSRA DZ,NA,NA,NA,NA,NA,NA,77.06,METAR KLGA 210300Z 10009KT 4SM -TSRA DZ BKN027 OVC050 24/21 A2992 RMK / TB47 T OVHD MOVG E PK WND 00322 13//LGA7/5 SLP132 P0003 T02440211 5100/,NA
LGA,1973-07-21T04:00:00Z,-73.8803,40.7794,73.94,69.98,87.45,50,4,0.29,29.93,1013.5,3,NA,SCT,OVC,   ,   ,1300,2200,NA,NA,SHRA,NA,NA,NA,NA,NA,NA,75.14,METAR KLGA 210400Z 05004KT 3SM SHRA SCT013 OVC022 23/21 A2993 RMK TE20 TSTM MOVD E OCNL LTGCC PK WND 08LGA7/5 SLP135 P0029 T02330211 5102/,NA
LGA,1973-07-21T05:00:00Z,-73.8803,40.7794,72.86,70.88,93.51,280,5,0.3,29.91,1012.9,3,NA,SCT,OVC,   ,   ,1000,1800,NA,NA,-SHRA FG,NA,NA,NA,NA,NA,NA,74.24,METAR KLGA 210500Z 28005KT 3SM -SHRA FG SCT010 OVC018 23/22 A2991 RMK TE17 MOVD E OCNL LTG NE PK WND 12LGA7/5 SLP129 P0030 T02270216 5005/,NA
LGA,1973-07-21T06:00:00Z,-73.8803,40.7794,73.04,71.06,93.52,180,4,0.13,29.89,1012.2,3,NA,SCT,OVC,   ,   ,500,1500,NA,NA,-SHRA FG,NA,NA,NA,NA,NA,NA,74.44,METAR KLGA 210600Z 18004KT 3SM -SHRA FG SCT005 OVC015 23/22 A2989 RMK LGA7/5 SLP122 P0013 60098 T02280217,NA
LGA,1973-07-21T07:00:00Z,-73.8803,40.7794,73.94,71.96,93.54,200,9,0.02,29.87,1011.5,3,NA,SCT,OVC,   ,   ,900,1400,NA,NA,-SHRA FG,NA,NA,NA,NA,NA,NA,75.43,METAR KLGA 210700Z 20009KT 3SM -SHRA FG SCT009 OVC014 23/22 A2987 RMK LGA7/5 ^ SLP115 P0002 T02330222,NA
LGA,1973-07-21T08:00:00Z,-73.8803,40.7794,72.86,69.98,90.69,220,11,0.02,29.86,1011.2,3,NA,OVC,   ,   ,   ,1400,NA,NA,NA,-SHRA FG,NA,NA,NA,NA,NA,NA,74.11,METAR KLGA 210800Z 22011KT 3SM -SHRA FG OVC014 23/21 A2986 RMK LGA7/5 SLP112 P0002 T02270211,NA
LGA,1973-07-21T09:00:00Z,-73.8803,40.7794,73,68,84.34,230,11.04,NA,29.85,NA,3,NA,   ,   ,   ,   ,NA,NA,NA,NA,NA,NA,NA,NA,NA,NA,NA,73,METAR KLGA 210900Z 23011KT 3SM FGDZ OVC013 23/20 A2985 RMK RE11 17//LGA7/5 SLP108 T02280200 57005,NA
LGA,1973-07-21T10:00:00Z,-73.8803,40.7794,70.9,68.9,93.4,200,10,0.06,29.85,NA,3,NA,   ,   ,   ,   ,NA,NA,NA,NA,NA,NA,NA,NA,NA,NA,NA,72.08,METAR KLGA 211000Z 20010KT 3SM -SHRA FGDZ OVC011 22/20 A2985 RMK RB03LGA7/5 SLP108 P0006 T02160205,NA
LGA,1973-07-21T11:00:00Z,-73.8803,40.7794,72,68.9,89.98,250,8,0.01,29.85,NA,10.5,NA,   ,   ,   ,   ,NA,NA,NA,NA,NA,NA,NA,NA,NA,NA,NA,73.13,METAR KLGA 211100Z 24008KT 21/2SM TSRA FGDZ SCT006 OVC011 22/20 A2985 RMK LGA7/5 SLP108 P0001 T02220205,NA
LGA,1973-07-21T11:23:00Z,-73.8803,40.7794,NA,NA,NA,290,6,NA,29.85,NA,3,NA,SCT,OVC,NA,NA,800,1100,NA,NA,NA,NA,NA,NA,NA,NA,NA,NA,KLGA 211123Z AUTO 29006KT 3SM SCT008 OVC011 A2985 RMK IEM_DS3505,NA
LGA,1973-07-21T12:00:00Z,-73.8803,40.7794,72,69.1,90.59,300,4,0.01,29.85,NA,10.5,NA,   ,   ,   ,   ,NA,NA,NA,NA,NA,NA,NA,NA,NA,NA,NA,73.16,METAR KLGA 211200Z 30004KT 21/2SM -RA FGDZ SCT008 BKN012 OVC030 22/21 A2985 RMK SFC VSBY 4ELGA7/5 SLP108 P0001 60012 70110 T02220206,NA
LGA,1973-07-21T13:00:00Z,-73.8803,40.7794,72,68.9,89.98,330,4,NA,29.85,NA,5,NA,   ,   ,   ,   ,NA,NA,NA,NA,NA,NA,NA,NA,NA,NA,NA,73.13,METAR KLGA 211300Z 33004KT 5SM -RA FGDZ BKN012 OVC030 22/20 A2985 RMK LGA7/5 SLP108 T02220205,NA
LGA,1973-07-21T13:08:00Z,-73.8803,40.7794,NA,NA,NA,310,5,NA,29.86,NA,5,NA,SCT,BKN,OVC,NA,600,800,2500,NA,NA,NA,NA,NA,NA,NA,NA,NA,KLGA 211308Z AUTO 31005KT 5SM SCT006 BKN008 OVC025 A2986 RMK IEM_DS3505,NA
LGA,1973-07-21T14:00:00Z,-73.8803,40.7794,70.88,68.9,93.46,60,5,NA,29.86,1011.2,4,NA,BKN,OVC,   ,   ,700,2500,NA,NA,-RA FG,NA,NA,NA,NA,NA,NA,72.06,METAR KLGA 211400Z 06005KT 4SM -RA FG BKN007 OVC025 22/20 A2986 RMK RE1256B45LGA7/5 SLP112 T02160205,NA
LGA,1973-07-21T14:12:00Z,-73.8803,40.7794,NA,NA,NA,30,6,NA,29.86,NA,2.5,NA,BKN,OVC,NA,NA,500,2500,NA,NA,NA,NA,NA,NA,NA,NA,NA,NA,KLGA 211412Z AUTO 03006KT 2 1/2SM BKN005 OVC025 A2986 RMK IEM_DS3505,NA
LGA,1973-07-21T15:00:00Z,-73.8803,40.7794,71.06,68,90.06,30,8,NA,29.86,1011.2,2.5,NA,BKN,OVC,   ,   ,700,1500,NA,NA,FG,NA,NA,NA,NA,NA,NA,72.1,METAR KLGA 211500Z 03008KT 21/2SM FG BKN007 OVC015 22/20 A2986 RMK RE10/ 16//LGA7/5 SLP112 T02170200 51003,NA
LGA,1973-07-21T15:08:00Z,-73.8803,40.7794,NA,NA,NA,50,9,NA,29.86,NA,2.5,NA,BKN,OVC,NA,NA,1000,2000,NA,NA,NA,NA,NA,NA,NA,NA,NA,NA,KLGA 211508Z AUTO 05009KT 2 1/2SM BKN010 OVC020 A2986 RMK IEM_DS3505,NA
LGA,1973-07-21T16:00:00Z,-73.8803,40.7794,70.88,68,90.61,50,8,NA,29.86,1011.2,2.5,NA,BKN,OVC,   ,   ,1500,2500,NA,NA,-SHRA FG,NA,NA,NA,NA,NA,NA,71.93,METAR KLGA 211600Z 05008KT 21/2SM -SHRA FG BKN015 OVC025 22/20 A2986 RMK RB40LGA7/5 SLP112 T02160200,NA
LGA,1973-07-21T17:00:00Z,-73.8803,40.7794,69.98,68,93.44,30,10,NA,29.87,1011.5,2.5,NA,SCT,OVC,   ,   ,700,1500,NA,NA,-SHRA FG,NA,NA,NA,NA,NA,NA,69.98,METAR KLGA 211700Z 03010KT 21/2SM -SHRA FG SCT007 OVC015 21/20 A2987 RMK RE05B40LGA7/5 SLP115 T02110200,NA
LGA,1973-07-21T18:00:00Z,-73.8803,40.7794,69.98,66.92,90.02,40,13,0.05,29.86,1011.2,1.5,NA,BKN,BKN,OVC,   ,600,900,2100,NA,-SHRA FG,NA,NA,NA,NA,NA,NA,69.98,METAR KLGA 211800Z 04013KT 11/2SM -SHRA FG BKN006 BKN009 OVC021 21/19 A2986 RMK LWRV%LGA7/5 SLP112 P0005 60004 T02110194,NA
LGA,1973-07-21T19:00:00Z,-73.8803,40.7794,66.92,64.94,93.35,30,13,0.09,29.88,1011.9,2.5,NA,SCT,BKN,OVC,   ,500,800,1800,NA,-SHRA FG,NA,NA,NA,NA,NA,NA,66.92,METAR KLGA 211900Z 03013KT 21/2SM -SHRA FG SCT005 BKN008 OVC018 19/18 A2988 RMK LGA7/5 SLP119 P0009 T01940183,NA
LGA,1973-07-21T20:00:00Z,-73.8803,40.7794,68,64.94,89.94,40,13,0.02,29.88,1011.9,4,NA,SCT,OVC,   ,   ,1000,2700,NA,NA,FG,NA,NA,NA,NA,NA,NA,68,METAR KLGA 212000Z 04013KT 4SM FG SCT010 OVC027 20/18 A2988 RMK RE45LGA7/5 SLP119 P0002 T02000183,NA
LGA,1973-07-21T21:00:00Z,-73.8803,40.7794,68,64.04,87.16,30,11,NA,29.89,1012.2,7,NA,BKN,OVC,   ,   ,2500,4000,NA,NA,NA,NA,NA,NA,NA,NA,NA,68,METAR KLGA 212100Z 03011KT 7SM BKN025 OVC040 20/18 A2989 RMK / VALGA7/5 SLP122 8/5// T02000178 51008,NA
LGA,1973-07-21T22:00:00Z,-73.8803,40.7794,68.9,64.94,87.2,30,12,NA,29.89,1012.2,7,NA,BKN,OVC,   ,   ,1400,1800,NA,NA,NA,NA,NA,NA,NA,NA,NA,68.9,METAR KLGA 212200Z 03012KT 7SM BKN014 OVC018 20/18 A2989 RMK / UA 2102 N LGA 95VALGA7/5 SLP122 T02050183,NA
LGA,1973-07-21T22:13:00Z,-73.8803,40.7794,NA,NA,NA,40,11,NA,29.9,NA,7,NA,SCT,SCT,OVC,NA,1400,2000,3400,NA,NA,NA,NA,NA,NA,NA,NA,NA,KLGA 212213Z AUTO 04011KT 7SM SCT014 SCT020 OVC034 A2990 RMK IEM_DS3505,NA
LGA,1973-07-21T23:00:00Z,-73.8803,40.7794,69.98,64.94,84.04,50,9,NA,29.89,1012.2,7,NA,SCT,SCT,OVC,   ,1200,2000,4000,NA,NA,NA,NA,NA,NA,NA,NA,69.98,METAR KLGA 212300Z 05009KT 7SM SCT012 SCT020 OVC040 21/18 A2989 RMK VALGA7/5 SLP122 T02110183,NA
LGA,1973-07-21T23:06:00Z,-73.8803,40.7794,NA,NA,NA,50,8,NA,29.9,NA,6,NA,BKN,BKN,OVC,NA,900,2000,3900,NA,NA,NA,NA,NA,NA,NA,NA,NA,KLGA 212306Z AUTO 05008KT 6SM BKN009 BKN020 OVC039 A2990 RMK IEM_DS3505,NA
LGA,1973-07-22T00:00:00Z,-73.8803,40.7794,69.08,64.94,86.66,40,8,NA,29.91,1012.9,6,NA,SCT,OVC,   ,   ,900,4500,NA,NA,FG,NA,NA,NA,NA,NA,NA,69.08,METAR KLGA 220000Z 04008KT 6SM FG SCT009 OVC045 21/18 A2991 RMK BINOVC VALGA7/5 SLP129 60012 T02060183,NA
LGA,1973-07-22T01:00:00Z,-73.8803,40.7794,68.9,65.84,89.98,30,5,NA,29.93,1013.5,6,NA,SCT,OVC,   ,   ,900,4900,NA,NA,FG,NA,NA,NA,NA,NA,NA,68.9,METAR KLGA 220100Z 03005KT 6SM FG SCT009 OVC049 20/19 A2993 RMK VALGA7/5 SLP135 T02050188,NA
LGA,1973-07-22T02:00:00Z,-73.8803,40.7794,68.9,65.84,89.98,20,5,NA,29.94,1013.9,6,NA,SCT,BKN,OVC,   ,900,5000,6000,NA,FG,NA,NA,NA,NA,NA,NA,68.9,METAR KLGA 220200Z 02005KT 6SM FG SCT009 BKN050 OVC060 20/19 A2994 RMK BINOVC VALGA7/5 SLP139 T02050188,NA
LGA,1973-07-22T03:00:00Z,-73.8803,40.7794,69.08,64.94,86.66,30,6,NA,29.95,1014.2,7,NA,BKN,OVC,   ,   ,6000,20000,NA,NA,NA,NA,NA,NA,NA,NA,NA,69.08,METAR KLGA 220300Z 03006KT 7SM BKN060 OVC200 21/18 A2995 RMK / 1077VALGA7/5 SLP142 T02060183 51014,NA
LGA,1973-07-22T04:00:00Z,-73.8803,40.7794,68.9,64.94,87.2,360,4,NA,29.95,1014.2,7,NA,SCT,BKN,OVC,   ,6000,10000,20000,NA,NA,NA,NA,NA,NA,NA,NA,68.9,METAR KLGA 220400Z 36004KT 7SM SCT060 BKN100 OVC200 20/18 A2995 RMK LGA7/5 SLP142 T02050183,NA
LGA,1973-07-22T04:31:00Z,-73.8803,40.7794,NA,NA,NA,20,4,NA,29.96,NA,7,NA,BKN,OVC,NA,NA,2200,9800,NA,NA,NA,NA,NA,NA,NA,NA,NA,NA,KLGA 220431Z AUTO 02004KT 7SM BKN022 OVC098 A2996 RMK IEM_DS3505,NA
LGA,1973-07-22T05:00:00Z,-73.8803,40.7794,68.9,64.94,87.2,80,5,NA,29.97,1014.9,6,NA,BKN,OVC,   ,   ,2200,6000,NA,NA,DZ,NA,NA,NA,NA,NA,NA,68.9,METAR KLGA 220500Z 08005KT 6SM DZ BKN022 OVC060 20/18 A2997 RMK LGA7/5 SLP149 T02050183,NA
LGA,1973-07-22T06:00:00Z,-73.8803,40.7794,69.08,64.94,86.66,70,3,NA,29.97,1014.9,5,NA,SCT,BKN,OVC,   ,2100,3100,7000,NA,DZ,NA,NA,NA,NA,NA,NA,69.08,METAR KLGA 220600Z 07003KT 5SM DZ SCT021 BKN031 OVC070 21/18 A2997 RMK RB01E15LGA7/5 SLP149 T02060183,NA
LGA,1973-07-22T07:00:00Z,-73.8803,40.7794,68.9,65.84,89.98,40,3,NA,29.96,1014.6,4,NA,SCT,OVC,   ,   ,3000,7000,NA,NA,-SHRA DZ,NA,NA,NA,NA,NA,NA,68.9,METAR KLGA 220700Z 04003KT 4SM -SHRA DZ SCT030 OVC070 20/19 A2996 RMK RB35LGA7/5 SLP146 T02050188,NA
LGA,1973-07-22T08:00:00Z,-73.8803,40.7794,68.9,65.84,89.98,0,0,NA,29.96,1014.6,4,NA,OVC,   ,   ,   ,7000,NA,NA,NA,DZ,NA,NA,NA,NA,NA,NA,68.9,METAR KLGA 220800Z 00000KT 4SM DZ OVC070 20/19 A2996 RMK RE25 MOON DIMLY VSBLGA7/5 SLP146 T02050188,NA
LGA,1973-07-22T09:00:00Z,-73.8803,40.7794,69.08,64.94,86.66,350,5,NA,29.98,1015.2,4,NA,OVC,   ,   ,   ,7000,NA,NA,NA,DZ,NA,NA,NA,NA,NA,NA,69.08,METAR KLGA 220900Z 35005KT 4SM DZ OVC070 21/18 A2998 RMK 107/LGA7/5 SLP152 T02060183 53003,NA
LGA,1973-07-22T10:00:00Z,-73.8803,40.7794,68.9,64.94,87.2,10,7,NA,29.99,1015.6,3,NA,OVC,   ,   ,   ,9000,NA,NA,NA,-SHRA DZ,NA,NA,NA,NA,NA,NA,68.9,METAR KLGA 221000Z 01007KT 3SM -SHRA DZ OVC090 20/18 A2999 RMK RB40LGA7/5 SLP156 T02050183,NA
LGA,1973-07-22T11:00:00Z,-73.8803,40.7794,68.9,64.94,87.2,20,7,NA,30,1015.9,2.5,NA,OVC,   ,   ,   ,9000,NA,NA,NA,DZ,NA,NA,NA,NA,NA,NA,68.9,METAR KLGA 221100Z 02007KT 21/2SM DZ OVC090 20/18 A3000 RMK RE30LGA7/5 SLP159 T02050183,NA
LGA,1973-07-22T12:00:00Z,-73.8803,40.7794,71.06,66.02,84.1,30,7,NA,30.04,1017.3,2.5,NA,BKN,BKN,   ,   ,10000,15000,NA,NA,DZ,NA,NA,NA,NA,NA,NA,71.06,METAR KLGA 221200Z 03007KT 21/2SM DZ BKN100 BKN150 22/19 A3004 RMK LGA7/5 SLP173 70016 T02170189,NA
LGA,1973-07-22T13:00:00Z,-73.8803,40.7794,70.88,63.86,78.48,50,10,NA,30.06,1018,6,NA,BKN,   ,   ,   ,10000,NA,NA,NA,DZ,NA,NA,NA,NA,NA,NA,70.88,METAR KLGA 221300Z 05010KT 6SM DZ BKN100 22/18 A3006 RMK LGA7/5 SLP180 T02160177,NA
LGA,1973-07-22T14:00:00Z,-73.8803,40.7794,72.86,64.94,76.21,50,9,NA,30.07,1018.3,5,NA,SCT,SCT,   ,   ,10000,25000,NA,NA,DZ,NA,NA,NA,NA,NA,NA,72.86,METAR KLGA 221400Z 05009KT 5SM DZ SCT100 SCT250 23/18 A3007 RMK LGA7/5 SLP183 T02270183,NA
LGA,1973-07-22T15:00:00Z,-73.8803,40.7794,73.04,64.94,75.75,50,10,NA,30.08,1018.6,5,NA,SCT,SCT,   ,   ,10000,25000,NA,NA,DZ,NA,NA,NA,NA,NA,NA,73.04,METAR KLGA 221500Z 05010KT 5SM DZ SCT100 SCT250 23/18 A3008 RMK VALGA7/5 SLP186 8/031 T02280183 51012,NA
LGA,1973-07-22T16:00:00Z,-73.8803,40.7794,73.94,64.94,73.49,40,8,NA,30.08,1018.6,5,NA,BKN,   ,   ,   ,10000,NA,NA,NA,DZ,NA,NA,NA,NA,NA,NA,73.94,METAR KLGA 221600Z 04008KT 5SM DZ BKN100 23/18 A3008 RMK LGA7/5 SLP186 T02330183,NA
LGA,1973-07-22T17:00:00Z,-73.8803,40.7794,77,65.84,68.47,60,8,NA,30.08,1018.6,5,NA,SCT,   ,   ,   ,10000,NA,NA,NA,DZ,NA,NA,NA,NA,NA,NA,77,METAR KLGA 221700Z 06008KT 5SM DZ SCT100 25/19 A3008 RMK LGA7/5 SLP186 T02500188,NA
LGA,1973-07-22T18:00:00Z,-73.8803,40.7794,78.08,62.96,59.74,30,9,NA,30.08,1018.6,6,NA,SCT,SCT,   ,   ,4000,25000,NA,NA,DZ,NA,NA,NA,NA,NA,NA,78.08,METAR KLGA 221800Z 03009KT 6SM DZ SCT040 SCT250 26/17 A3008 RMK LGA7/5 SLP186 T02560172,NA
LGA,1973-07-22T19:00:00Z,-73.8803,40.7794,78.98,64.94,62.16,40,8,NA,30.08,1018.6,6,NA,BKN,   ,   ,   ,10000,NA,NA,NA,DZ,NA,NA,NA,NA,NA,NA,80.82,METAR KLGA 221900Z 04008KT 6SM DZ BKN100 26/18 A3008 RMK / FEW CULGA7/5 SLP186 T02610183,NA
LGA,1973-07-22T20:00:00Z,-73.8803,40.7794,79.88,61.88,54.2,50,8,NA,30.09,1019,6,NA,SCT,BKN,   ,   ,4000,20000,NA,NA,DZ,NA,NA,NA,NA,NA,NA,81.09,METAR KLGA 222000Z 05008KT 6SM DZ SCT040 BKN200 27/17 A3009 RMK VALGA7/5 SLP190 T02660166,NA
LGA,1973-07-22T21:00:00Z,-73.8803,40.7794,80.96,62.06,52.66,30,9,NA,30.03,1018.6,7,NA,SCT,SCT,   ,   ,4000,25000,NA,NA,NA,NA,NA,NA,NA,NA,NA,82.02,METAR KLGA 222100Z 03009KT 7SM SCT040 SCT250 27/17 A3003 RMK / 1201LGA7/5 SLP186 T02720167 50000,NA
LGA,1973-07-22T22:00:00Z,-73.8803,40.7794,80.96,61.88,52.32,40,9,NA,30.08,1018.6,7,NA,SCT,SCT,   ,   ,4000,18000,NA,NA,NA,NA,NA,NA,NA,NA,NA,81.98,METAR KLGA 222200Z 04009KT 7SM SCT040 SCT180 27/17 A3008 RMK VALGA7/5 SLP186 T02720166,NA
LGA,1973-07-22T23:00:00Z,-73.8803,40.7794,79.88,64.94,60.35,170,7,NA,30.09,1019,5,NA,SCT,SCT,   ,   ,4000,18000,NA,NA,DZ,NA,NA,NA,NA,NA,NA,81.71,METAR KLGA 222300Z 17007KT 5SM DZ SCT040 SCT180 27/18 A3009 RMK VALGA7/5 SLP190 T02660183,NA
LGA,1973-07-23T00:00:00Z,-73.8803,40.7794,77,64.94,66.36,180,9,NA,30.1,1019.3,5,NA,SCT,BKN,   ,   ,4000,20000,NA,NA,DZ,NA,NA,NA,NA,NA,NA,77,METAR KLGA 230000Z 18009KT 5SM DZ SCT040 BKN200 25/18 A3010 RMK VALGA7/5 SLP193 T02500183,NA
LGA,1973-07-23T01:00:00Z,-73.8803,40.7794,74.84,63.86,68.67,180,8,NA,30.12,1020,5,NA,SCT,SCT,   ,   ,18000,25000,NA,NA,DZ,NA,NA,NA,NA,NA,NA,74.84,METAR KLGA 230100Z 18008KT 5SM DZ SCT180 SCT250 24/18 A3012 RMK VALGA7/5 SLP200 T02380177,NA
LGA,1973-07-23T02:00:00Z,-73.8803,40.7794,73.94,62.96,68.57,190,5,NA,30.14,1020.7,6,NA,SCT,   ,   ,   ,25000,NA,NA,NA,DZ,NA,NA,NA,NA,NA,NA,73.94,METAR KLGA 230200Z 19005KT 6SM DZ SCT250 23/17 A3014 RMK VALGA7/5 SLP207 T02330172,NA
LGA,1973-07-23T03:00:00Z,-73.8803,40.7794,73.04,62.96,70.68,210,6,NA,30.16,1021.3,6,NA,FEW,   ,   ,   ,25000,NA,NA,NA,DZ,NA,NA,NA,NA,NA,NA,73.04,METAR KLGA 230300Z 21006KT 6SM DZ FEW250 23/17 A3016 RMK VALGA7/5 SLP213 8/001 T02280172 52020,NA
LGA,1973-07-23T04:00:00Z,-73.8803,40.7794,72.86,63.86,73.39,230,6,NA,30.17,1021.7,6,NA,BKN,BKN,   ,   ,7000,25000,NA,NA,DZ,NA,NA,NA,NA,NA,NA,72.86,METAR KLGA 230400Z 23006KT 6SM DZ BKN070 BKN250 23/18 A3017 RMK LGA7/5 SLP217 T02270177,NA
LGA,1973-07-23T05:00:00Z,-73.8803,40.7794,72.86,61.88,68.45,230,4,NA,30.18,1022,5,NA,BKN,BKN,   ,   ,7000,25000,NA,NA,DZ,NA,NA,NA,NA,NA,NA,72.86,METAR KLGA 230500Z 23004KT 5SM DZ BKN070 BKN250 23/17 A3018 RMK LGA7/5 SLP220 T02270166,NA
LGA,1973-07-23T06:00:00Z,-73.8803,40.7794,71.96,62.96,73.3,250,3,NA,30.19,1022.4,6,NA,BKN,BKN,   ,   ,7000,25000,NA,NA,DZ,NA,NA,NA,NA,NA,NA,71.96,METAR KLGA 230600Z 25003KT 6SM DZ BKN070 BKN250 22/17 A3019 RMK LGA7/5 SLP224 T02220172,NA
LGA,1973-07-23T07:00:00Z,-73.8803,40.7794,70.88,63.86,78.48,260,5,NA,30.19,1022.4,6,NA,BKN,   ,   ,   ,8000,NA,NA,NA,DZ,NA,NA,NA,NA,NA,NA,70.88,METAR KLGA 230700Z 26005KT 6SM DZ BKN080 22/18 A3019 RMK LGA7/5 LGB %6HK 098/66/56/1205/982LGB7/6 SLP224 T02160177,NA
LGA,1973-07-23T08:00:00Z,-73.8803,40.7794,71.96,64.94,78.57,360,7,NA,30.21,1023,6,NA,BKN,BKN,   ,   ,6000,7000,NA,NA,DZ,NA,NA,NA,NA,NA,NA,71.96,METAR KLGA 230800Z 36007KT 6SM DZ BKN060 BKN070 22/18 A3021 RMK LGA7/5 SLP230 T02220183,NA
LGA,1973-07-23T09:00:00Z,-73.8803,40.7794,69.98,62.96,78.41,10,5,NA,30.23,1023.7,7,NA,BKN,   ,   ,   ,7000,NA,NA,NA,NA,NA,NA,NA,NA,NA,NA,69.98,METAR KLGA 230900Z 01005KT 7SM BKN070 21/17 A3023 RMK VALGA7/5 SLP237 8/030 T02110172 53012,NA
LGA,1973-07-23T10:00:00Z,-73.8803,40.7794,69.98,59,68.13,30,9,NA,30.25,1024.4,15,NA,SCT,   ,   ,   ,7000,NA,NA,NA,NA,NA,NA,NA,NA,NA,NA,69.98,METAR KLGA 231000Z 03009KT 15SM SCT070 21/15 A3025 RMK VALGA7/5 SLP244 T02110150,NA
LGA,1973-07-23T11:00:00Z,-73.8803,40.7794,68.9,57.92,68.01,10,6,NA,30.27,1025.1,15,NA,SCT,   ,   ,   ,10000,NA,NA,NA,NA,NA,NA,NA,NA,NA,NA,68.9,METAR KLGA 231100Z 01006KT 15SM SCT100 20/14 A3027 RMK VALGA7/5 SLP251 T02050144,NA
LGA,1973-07-23T12:00:00Z,-73.8803,40.7794,71.06,57.92,63.18,20,8,NA,30.29,1025.7,15,NA,SCT,   ,   ,   ,12000,NA,NA,NA,NA,NA,NA,NA,NA,NA,NA,71.06,METAR KLGA 231200Z 02008KT 15SM SCT120 22/14 A3029 RMK LGA7/5 SLP257 T02170144,NA
LGA,1973-07-23T14:00:00Z,-73.8803,40.7794,72.86,54.86,53.21,50,13,NA,30.32,1026.8,15,NA,SCT,SCT,   ,   ,12000,25000,NA,NA,NA,NA,NA,NA,NA,NA,NA,72.86,METAR KLGA 231400Z 05013KT 15SM SCT120 SCT250 23/13 A3032 RMK SLP268 T02270127,NA
LGA,1973-07-23T15:00:00Z,-73.8803,40.7794,75.02,57.02,53.52,50,12,NA,30.33,1027.1,15,NA,SCT,   ,   ,   ,15000,NA,NA,NA,NA,NA,NA,NA,NA,NA,NA,75.02,METAR KLGA 231500Z 05012KT 15SM SCT150 24/14 A3033 RMK 1030LGA7/5 SLP271 T02390139 51014,NA
LGA,1973-07-23T16:00:00Z,-73.8803,40.7794,77.9,55.94,46.77,80,8,NA,30.33,1027.1,15,NA,SCT,   ,   ,   ,20000,NA,NA,NA,NA,NA,NA,NA,NA,NA,NA,77.9,METAR KLGA 231600Z 08008KT 15SM SCT200 25/13 A3033 RMK LGA7/5 SLP271 T02550133,NA
LGA,1973-07-23T17:00:00Z,-73.8803,40.7794,79.88,56.84,45.27,60,8,NA,30.33,1027.1,15,NA,SCT,   ,   ,   ,20000,NA,NA,NA,NA,NA,NA,NA,NA,NA,NA,79.88,METAR KLGA 231700Z 06008KT 15SM SCT200 27/14 A3033 RMK LGA7/5 SLP271 T02660138,NA
LGA,1973-07-23T18:00:00Z,-73.8803,40.7794,80.96,57.92,45.44,50,10,NA,30.32,1026.8,15,NA,FEW,   ,   ,   ,23000,NA,NA,NA,NA,NA,NA,NA,NA,NA,NA,81.18,METAR KLGA 231800Z 05010KT 15SM FEW230 27/14 A3032 RMK FEW CULGA7/5 SLP268 T02720144,NA
LGA,1973-07-23T20:00:00Z,-73.8803,40.7794,80.96,56.84,43.7,50,9,NA,30.32,1026.8,15,NA,CLR,   ,   ,   ,NA,NA,NA,NA,NA,NA,NA,NA,NA,NA,NA,80.99,METAR KLGA 232000Z 05009KT 15SM CLR 27/14 A3032 RMK FEW CU VALGA7/5 SLP268 T02720138,NA
LGA,1973-07-23T21:00:00Z,-73.8803,40.7794,82.04,55.04,39.53,60,9,NA,30.31,1026.4,15,NA,CLR,   ,   ,   ,NA,NA,NA,NA,NA,NA,NA,NA,NA,NA,NA,82.04,METAR KLGA 232100Z 06009KT 15SM CLR 28/13 A3031 RMK / VALGA7/5 SLP264 8/101 T02780128 58003,NA
LGA,1973-07-23T23:00:00Z,-73.8803,40.7794,77.9,59.9,53.93,180,10,NA,30.32,1026.8,15,NA,CLR,   ,   ,   ,NA,NA,NA,NA,NA,NA,NA,NA,NA,NA,NA,77.9,METAR KLGA 232300Z 18010KT 15SM CLR 25/16 A3032 RMK VALGA7/5 SLP268 T02550155,NA
LGA,1973-07-24T00:00:00Z,-73.8803,40.7794,75.92,59,55.77,150,8,NA,30.33,1027.1,15,NA,CLR,   ,   ,   ,NA,NA,NA,NA,NA,NA,NA,NA,NA,NA,NA,75.92,METAR KLGA 240000Z 15008KT 15SM CLR 24/15 A3033 RMK VALGA7/5 SLP271 T02440150,NA
LGA,1973-07-24T01:00:00Z,-73.8803,40.7794,72.86,55.94,55.34,140,6,NA,30.33,1027.1,15,NA,CLR,   ,   ,   ,NA,NA,NA,NA,NA,NA,NA,NA,NA,NA,NA,72.86,METAR KLGA 240100Z 14006KT 15SM CLR 23/13 A3033 RMK VALGA7/5 SLP271 T02270133,NA
LGA,1973-07-24T02:00:00Z,-73.8803,40.7794,71.96,54.86,54.86,170,5,NA,30.34,1027.4,15,NA,CLR,   ,   ,   ,NA,NA,NA,NA,NA,NA,NA,NA,NA,NA,NA,71.96,METAR KLGA 240200Z 17005KT 15SM CLR 22/13 A3034 RMK VALGA7/5 SLP274 T02220127,NA
LGA,1973-07-24T03:00:00Z,-73.8803,40.7794,71.06,55.94,58.82,140,5,NA,30.35,1027.8,15,NA,CLR,   ,   ,   ,NA,NA,NA,NA,NA,NA,NA,NA,NA,NA,NA,71.06,METAR KLGA 240300Z 14005KT 15SM CLR 22/13 A3035 RMK / VALGA7/5 SLP278 T02170133 53007,NA
LGA,1973-07-24T04:00:00Z,-73.8803,40.7794,70.88,55.94,59.18,220,4,NA,30.36,1028.1,15,NA,CLR,   ,   ,   ,NA,NA,NA,NA,NA,NA,NA,NA,NA,NA,NA,70.88,METAR KLGA 240400Z 22004KT 15SM CLR 22/13 A3036 RMK VALGA7/5 SLP281 T02160133,NA
LGA,1973-07-24T05:00:00Z,-73.8803,40.7794,69.98,55.94,61.02,200,7,NA,30.35,1027.8,15,NA,CLR,   ,   ,   ,NA,NA,NA,NA,NA,NA,NA,NA,NA,NA,NA,69.98,METAR KLGA 240500Z 20007KT 15SM CLR 21/13 A3035 RMK VALGA7/5 SLP278 T02110133,NA
LGA,1973-07-24T06:00:00Z,-73.8803,40.7794,69.98,57.02,63.45,210,5,NA,30.35,1027.8,15,NA,CLR,   ,   ,   ,NA,NA,NA,NA,NA,NA,NA,NA,NA,NA,NA,69.98,METAR KLGA 240600Z 21005KT 15SM CLR 21/14 A3035 RMK VALGA7/5 SLP278 T02110139,NA
LGA,1973-07-24T07:00:00Z,-73.8803,40.7794,68.9,56.84,65.42,200,3,NA,30.35,1027.8,15,NA,CLR,   ,   ,   ,NA,NA,NA,NA,NA,NA,NA,NA,NA,NA,NA,68.9,METAR KLGA 240700Z 20003KT 15SM CLR 20/14 A3035 RMK VALGA7/5 SLP278 T02050138,NA
LGA,1973-07-24T08:00:00Z,-73.8803,40.7794,68.9,55.94,63.32,210,3,NA,30.35,1027.8,15,NA,CLR,   ,   ,   ,NA,NA,NA,NA,NA,NA,NA,NA,NA,NA,NA,68.9,METAR KLGA 240800Z 21003KT 15SM CLR 20/13 A3035 RMK VALGA7/5 SLP278 T02050133,NA
LGA,1973-07-24T09:00:00Z,-73.8803,40.7794,68,59,72.92,260,4,NA,30.34,1027.4,15,NA,CLR,   ,   ,   ,NA,NA,NA,NA,NA,NA,NA,NA,NA,NA,NA,68,METAR KLGA 240900Z 26004KT 15SM CLR 20/15 A3034 RMK / 803LGA7/5 SLP274 T02000150,NA
LGA,1973-07-24T10:00:00Z,-73.8803,40.7794,68,59.9,75.3,310,4,NA,30.35,1027.8,8,NA,CLR,   ,   ,   ,NA,NA,NA,NA,NA,NA,NA,NA,NA,NA,NA,68,METAR KLGA 241000Z 31004KT 8SM CLR 20/16 A3035 RMK / KLYR NW-NE VSBY LWR NW VALGA7/5 SLP278 T02000155,NA
LGA,1973-07-24T11:00:00Z,-73.8803,40.7794,68.9,59.9,73.01,300,5,NA,30.35,1027.8,8,NA,CLR,   ,   ,   ,NA,NA,NA,NA,NA,NA,NA,NA,NA,NA,NA,68.9,METAR KLGA 241100Z 30005KT 8SM CLR 20/16 A3035 RMK / KLYR N/ KOCTY VALGA7/5 SLP278 T02050155,NA
LGA,1973-07-24T12:00:00Z,-73.8803,40.7794,71.06,60.08,68.25,290,5,NA,30.35,1027.8,8,NA,CLR,   ,   ,   ,NA,NA,NA,NA,NA,NA,NA,NA,NA,NA,NA,71.06,METAR KLGA 241200Z 29005KT 8SM CLR 22/16 A3035 RMK VALGA7/5 SLP278 T02170156,NA
LGA,1973-07-24T13:00:00Z,-73.8803,40.7794,73.94,57.92,57.32,300,6,NA,30.35,1027.8,8,NA,CLR,   ,   ,   ,NA,NA,NA,NA,NA,NA,NA,NA,NA,NA,NA,73.94,METAR KLGA 241300Z 30006KT 8SM CLR 23/14 A3035 RMK VALGA C7/187/5 SLP278 T02330144,NA
LGA,1973-07-24T14:00:00Z,-73.8803,40.7794,77,57.92,51.76,260,8,NA,30.34,1027.4,10,NA,CLR,   ,   ,   ,NA,NA,NA,NA,NA,NA,NA,NA,NA,NA,NA,77,METAR KLGA 241400Z 26008KT 10SM CLR 25/14 A3034 RMK VALGA7/5 SLP274 T02500144,NA
LGA,1973-07-24T15:00:00Z,-73.8803,40.7794,80.06,57.92,46.79,280,10,NA,30.33,1027.1,10,NA,CLR,   ,   ,   ,NA,NA,NA,NA,NA,NA,NA,NA,NA,NA,NA,80.56,METAR KLGA 241500Z 28010KT 10SM CLR 27/14 A3033 RMK / VALGA7/5 SLP271 T02670144 58007,NA
LGA,1973-07-24T16:00:00Z,-73.8803,40.7794,82.94,60.98,47.52,290,8,NA,30.31,1026.4,10,NA,CLR,   ,   ,   ,NA,NA,NA,NA,NA,NA,NA,NA,NA,NA,NA,83.4,METAR KLGA 241600Z 29008KT 10SM CLR 28/16 A3031 RMK FEW CU VALGA7/5 SLP264 T02830161,NA
LGA,1973-07-24T17:00:00Z,-73.8803,40.7794,81.86,59.9,47.36,300,9,NA,30.29,1025.7,10,NA,SCT,   ,   ,   ,4000,NA,NA,NA,NA,NA,NA,NA,NA,NA,NA,82.25,METAR KLGA 241700Z 30009KT 10SM SCT040 28/16 A3029 RMK VALGA7/5 SLP257 T02770155,NA
LGA,1973-07-24T18:00:00Z,-73.8803,40.7794,82.94,57.02,41.25,330,9,NA,30.26,1024.7,10,NA,SCT,   ,   ,   ,4000,NA,NA,NA,NA,NA,NA,NA,NA,NA,NA,82.45,METAR KLGA 241800Z 33009KT 10SM SCT040 28/14 A3026 RMK VALGA7/5 SLP247 T02830139,NA
LGA,1973-07-24T19:00:00Z,-73.8803,40.7794,83.84,59,43.02,290,6,NA,30.25,1024.4,10,NA,SCT,   ,   ,   ,4500,NA,NA,NA,NA,NA,NA,NA,NA,NA,NA,83.62,METAR KLGA 241900Z 29006KT 10SM SCT045 29/15 A3025 RMK %V VALGA7/5 SLP244 T02880150,NA
LGA,1973-07-24T20:00:00Z,-73.8803,40.7794,83.84,57.92,41.38,300,7,NA,30.23,1023.7,10,NA,SCT,   ,   ,   ,4500,NA,NA,NA,NA,NA,NA,NA,NA,NA,NA,83.35,METAR KLGA 242000Z 30007KT 10SM SCT045 29/14 A3023 RMK %VLGA7/5 SLP237 T02880144,NA
LGA,1973-07-24T21:00:00Z,-73.8803,40.7794,84.92,59,41.55,60,5,NA,30.21,1023,10,NA,SCT,   ,   ,   ,5000,NA,NA,NA,NA,NA,NA,NA,NA,NA,NA,84.52,METAR KLGA 242100Z 06005KT 10SM SCT050 29/15 A3021 RMK / 1100LGA7/5 SLP230 T02940150 58017,NA
LGA,1973-07-24T22:00:00Z,-73.8803,40.7794,82.94,62.96,50.97,140,10,NA,30.2,1022.7,15,NA,CLR,   ,   ,   ,NA,NA,NA,NA,NA,NA,NA,NA,NA,NA,NA,84,METAR KLGA 242200Z 14010KT 15SM CLR 28/17 A3020 RMK FEW CULGA7/5 VA SLP227 T02830172,NA
LGA,1973-07-24T23:00:00Z,-73.8803,40.7794,81.86,61.88,50.81,150,9,NA,30.19,1022.4,15,NA,CLR,   ,   ,   ,NA,NA,NA,NA,NA,NA,NA,NA,NA,NA,NA,82.74,METAR KLGA 242300Z 15009KT 15SM CLR 28/17 A3019 RMK FEW CU WLGA7/5 VA SLP224 T02770166,NA
LGA,1973-07-25T00:00:00Z,-73.8803,40.7794,80.96,60.98,50.68,130,8,NA,30.19,1022.4,10,NA,SCT,   ,   ,   ,4500,NA,NA,NA,NA,NA,NA,NA,NA,NA,NA,81.78,METAR KLGA 250000Z 13008KT 10SM SCT045 27/16 A3019 RMK LGA7/5 SLP224 T02720161,NA
LGA,1973-07-25T01:00:00Z,-73.8803,40.7794,78.98,61.88,55.83,40,7,NA,30.19,1022.4,10,NA,SCT,SCT,   ,   ,4500,20000,NA,NA,NA,NA,NA,NA,NA,NA,NA,80.36,METAR KLGA 250100Z 04007KT 10SM SCT045 SCT200 26/17 A3019 RMK LGA7/5 SLP224 T02610166,NA
LGA,1973-07-25T02:00:00Z,-73.8803,40.7794,77.9,57.92,50.24,210,10,NA,30.2,1022.7,15,NA,SCT,   ,   ,   ,20000,NA,NA,NA,NA,NA,NA,NA,NA,NA,NA,77.9,METAR KLGA 250200Z 21010KT 15SM SCT200 25/14 A3020 RMK LGA7/5 SLP227 T02550144,NA
LGA,1973-07-25T03:00:00Z,-73.8803,40.7794,77,55.94,48.19,220,10,NA,30.2,1022.7,15,NA,FEW,   ,   ,   ,20000,NA,NA,NA,NA,NA,NA,NA,NA,NA,NA,77,METAR KLGA 250300Z 22010KT 15SM FEW200 25/13 A3020 RMK 1001LGA7/5 SLP227 T02500133 51003,NA
LGA,1973-07-25T04:00:00Z,-73.8803,40.7794,75.92,55.94,49.95,220,8,NA,30.19,1022.4,15,NA,CLR,   ,   ,   ,NA,NA,NA,NA,NA,NA,NA,NA,NA,NA,NA,75.92,METAR KLGA 250400Z 22008KT 15SM CLR 24/13 A3019 RMK LGA7/5 SLP224 T02440133,NA
LGA,1973-07-25T05:00:00Z,-73.8803,40.7794,73.94,55.94,53.37,240,8,NA,30.18,1022,10,NA,CLR,   ,   ,   ,NA,NA,NA,NA,NA,NA,NA,NA,NA,NA,NA,73.94,METAR KLGA 250500Z 24008KT 10SM CLR 23/13 A3018 RMK LGA7/5 SLP220 T02330133,NA
LGA,1973-07-25T06:00:00Z,-73.8803,40.7794,73.94,57.02,55.49,240,10,NA,30.17,1021.7,15,NA,CLR,   ,   ,   ,NA,NA,NA,NA,NA,NA,NA,NA,NA,NA,NA,73.94,METAR KLGA 250600Z 24010KT 15SM CLR 23/14 A3017 RMK LGA7/5 SLP217 T02330139,NA
LGA,1973-07-25T07:00:00Z,-73.8803,40.7794,72.86,56.84,57.17,240,8,NA,30.16,1021.3,10,NA,CLR,   ,   ,   ,NA,NA,NA,NA,NA,NA,NA,NA,NA,NA,NA,72.86,METAR KLGA 250700Z 24008KT 10SM CLR 23/14 A3016 RMK LGA7/5 SLP213 T02270138,NA
LGA,1973-07-25T08:00:00Z,-73.8803,40.7794,71.96,59,63.7,260,8,NA,30.15,1021,10,NA,CLR,   ,   ,   ,NA,NA,NA,NA,NA,NA,NA,NA,NA,NA,NA,71.96,METAR KLGA 250800Z 26008KT 10SM CLR 22/15 A3015 RMK LGA7/5 SLP210 T02220150,NA
LGA,1973-07-25T09:00:00Z,-73.8803,40.7794,71.96,60.08,66.2,250,6,NA,30.15,1021,10,NA,FEW,   ,   ,   ,30000,NA,NA,NA,NA,NA,NA,NA,NA,NA,NA,71.96,METAR KLGA 250900Z 25006KT 10SM FEW300 22/16 A3015 RMK VALGA7/5 SLP210 8/001 T02220156 56007,NA
LGA,1973-07-25T10:00:00Z,-73.8803,40.7794,70.88,59,66.07,250,4,NA,30.16,1021.3,8,NA,SCT,   ,   ,   ,30000,NA,NA,NA,NA,NA,NA,NA,NA,NA,NA,70.88,METAR KLGA 251000Z 25004KT 8SM SCT300 22/15 A3016 RMK VALGA7/5 SLP213 T02160150,NA
LGA,1973-07-25T12:00:00Z,-73.8803,40.7794,73.94,62.06,66.43,250,6,NA,30.17,1021.7,6,NA,BKN,   ,   ,   ,NA,NA,NA,NA,FU,NA,NA,NA,NA,NA,NA,73.94,METAR KLGA 251200Z 25006KT 6SM FU BKN/// 23/17 A//// RMK SLP217 T02330167,NA
LGA,1973-07-25T13:00:00Z,-73.8803,40.7794,77,60.98,57.73,290,6,NA,30.16,1021.3,4,NA,BKN,   ,   ,   ,25000,NA,NA,NA,FU,NA,NA,NA,NA,NA,NA,77,METAR KLGA 251300Z 29006KT 4SM FU BKN250 25/16 A3016 RMK VALGA7/5 SLP213 T02500161,NA
LGA,1973-07-25T14:00:00Z,-73.8803,40.7794,78.98,61.88,55.83,320,5,NA,30.15,1021,4,NA,BKN,   ,   ,   ,25000,NA,NA,NA,FU,NA,NA,NA,NA,NA,NA,80.36,METAR KLGA 251400Z 32005KT 4SM FU BKN250 26/17 A3015 RMK VALGA7/5 SLP210 T02610166,NA
LGA,1973-07-25T15:00:00Z,-73.8803,40.7794,80.96,62.06,52.66,220,8,NA,30.14,1020.7,4,NA,SCT,BKN,   ,   ,4500,25000,NA,NA,FU,NA,NA,NA,NA,NA,NA,82.02,METAR KLGA 251500Z 22008KT 4SM FU SCT045 BKN250 27/17 A3014 RMK VALGA7/5 SLP207 8/106 T02720167 57008,NA
LGA,1973-07-25T16:00:00Z,-73.8803,40.7794,81.86,59,45.87,220,9,NA,30.13,1020.3,7,NA,SCT,OVC,   ,   ,5000,23000,NA,NA,NA,NA,NA,NA,NA,NA,NA,82.05,METAR KLGA 251600Z 22009KT 7SM SCT050 OVC230 28/15 A3013 RMK LGA7/5 SLP203 T02770150,NA
LGA,1973-07-25T17:00:00Z,-73.8803,40.7794,81.86,57.92,44.12,230,13,NA,30.12,1020,8,NA,SCT,BKN,   ,   ,5000,23000,NA,NA,NA,NA,NA,NA,NA,NA,NA,81.82,METAR KLGA 251700Z 23013KT 8SM SCT050 BKN230 28/14 A3012 RMK LGA7/5 SLP200 T02770144,NA
LGA,1973-07-25T18:00:00Z,-73.8803,40.7794,84.02,59,42.77,190,12,NA,30.11,1019.6,8,NA,SCT,BKN,   ,   ,5000,23000,NA,NA,NA,NA,NA,NA,NA,NA,NA,83.77,METAR KLGA 251800Z 19012KT 8SM SCT050 BKN230 29/15 A3011 RMK LGA7/5 SLP196 T02890150,NA
LGA,1973-07-25T19:00:00Z,-73.8803,40.7794,83.84,59,43.02,230,11,NA,30.09,1019,8,NA,SCT,BKN,   ,   ,5000,20000,NA,NA,NA,NA,NA,NA,NA,NA,NA,83.62,METAR KLGA 251900Z 23011KT 8SM SCT050 BKN200 29/15 A3009 RMK LGA7/5 SLP190 T02880150,NA
LGA,1973-07-25T20:00:00Z,-73.8803,40.7794,82.94,57.92,42.61,210,12,NA,30.08,1018.6,7,NA,SCT,BKN,   ,   ,5000,20000,NA,NA,NA,NA,NA,NA,NA,NA,NA,82.64,METAR KLGA 252000Z 21012KT 7SM SCT050 BKN200 28/14 A3008 RMK VALGA7/5 SLP186 T02830144,NA
LGA,1973-07-25T21:00:00Z,-73.8803,40.7794,82.04,62.96,52.47,160,14,NA,30.07,1018.3,8,NA,SCT,BKN,   ,   ,5000,20000,NA,NA,NA,NA,NA,NA,NA,NA,NA,83.19,METAR KLGA 252100Z 16014KT 8SM SCT050 BKN200 28/17 A3007 RMK VALGA7/5 SLP183 T02780172 57014,NA
LGA,1973-07-25T22:00:00Z,-73.8803,40.7794,81.86,59.9,47.36,170,16,NA,30.06,1018,8,NA,SCT,BKN,   ,   ,5000,20000,NA,NA,NA,NA,NA,NA,NA,NA,NA,82.25,METAR KLGA 252200Z 17016KT 8SM SCT050 BKN200 28/16 A3006 RMK 1111117/5 SLP180 T02770155,NA
LGA,1973-07-25T23:00:00Z,-73.8803,40.7794,78.98,62.96,57.99,160,13,NA,30.06,1018,8,NA,SCT,BKN,   ,   ,5000,20000,NA,NA,NA,NA,NA,NA,NA,NA,NA,80.52,METAR KLGA 252300Z 16013KT 8SM SCT050 BKN200 26/17 A3006 RMK LGA7/5 SLP180 T02610172,NA
LGA,1973-07-26T00:00:00Z,-73.8803,40.7794,77,64.04,64.3,170,11,NA,30.06,1018,7,NA,BKN,OVC,   ,   ,12000,20000,NA,NA,NA,NA,NA,NA,NA,NA,NA,77,METAR KLGA 260000Z 17011KT 7SM BKN120 OVC200 25/18 A3006 RMK VAEWR7/5 SLP180 T02500178,NA
LGA,1973-07-26T01:00:00Z,-73.8803,40.7794,77,61.88,59.6,180,10,NA,30.06,1018,7,NA,BKN,OVC,   ,   ,12000,20000,NA,NA,NA,NA,NA,NA,NA,NA,NA,77,METAR KLGA 260100Z 18010KT 7SM BKN120 OVC200 25/17 A3006 RMK LGA7/5 SLP180 T02500166,NA
LGA,1973-07-26T02:00:00Z,-73.8803,40.7794,75.92,60.98,59.84,200,11,NA,30.07,1018.3,15,NA,BKN,OVC,   ,   ,12000,25000,NA,NA,NA,NA,NA,NA,NA,NA,NA,75.92,METAR KLGA 260200Z 20011KT 15SM BKN120 OVC250 24/16 A3007 RMK VALGA7/5 SLP183 T02440161,NA
LGA,1973-07-26T03:00:00Z,-73.8803,40.7794,75.02,57.02,53.52,200,12,NA,30.07,1018.3,15,NA,BKN,OVC,   ,   ,12000,25000,NA,NA,NA,NA,NA,NA,NA,NA,NA,75.02,METAR KLGA 260300Z 20012KT 15SM BKN120 OVC250 24/14 A3007 RMK / 1078LGA7/5 SLP183 T02390139 52003,NA
LGA,1973-07-26T04:00:00Z,-73.8803,40.7794,73.94,57.92,57.32,200,11,NA,30.06,1018,15,NA,BKN,OVC,   ,   ,12000,25000,NA,NA,NA,NA,NA,NA,NA,NA,NA,73.94,METAR KLGA 260400Z 20011KT 15SM BKN120 OVC250 23/14 A3006 RMK VALGA7/5 SLP180 T02330144,NA
LGA,1973-07-26T05:00:00Z,-73.8803,40.7794,73.94,56.84,55.13,210,11,NA,30.05,1017.6,15,NA,OVC,   ,   ,   ,9000,NA,NA,NA,NA,NA,NA,NA,NA,NA,NA,73.94,METAR KLGA 260500Z 21011KT 15SM OVC090 23/14 A3005 RMK WND 180V240 VALGA7/5 SLP176 T02330138,NA
LGA,1973-07-26T06:00:00Z,-73.8803,40.7794,73.04,60.98,65.9,200,12,NA,30.04,1017.3,15,NA,OVC,   ,   ,   ,9000,NA,NA,NA,NA,NA,NA,NA,NA,NA,NA,73.04,METAR KLGA 260600Z 20012KT 15SM OVC090 23/16 A3004 RMK VALGA7/5 SLP173 T02280161,NA
LGA,1973-07-26T07:00:00Z,-73.8803,40.7794,72.86,60.98,66.3,220,8,NA,30.04,1017.3,15,NA,SCT,OVC,   ,   ,5000,9000,NA,NA,NA,NA,NA,NA,NA,NA,NA,72.86,METAR KLGA 260700Z 22008KT 15SM SCT050 OVC090 23/16 A3004 RMK VALGA7/5 SLP173 T02270161,NA
LGA,1973-07-26T08:00:00Z,-73.8803,40.7794,72.86,60.98,66.3,210,11,NA,30.03,1016.9,15,NA,BKN,OVC,   ,   ,4600,5000,NA,NA,NA,NA,NA,NA,NA,NA,NA,72.86,METAR KLGA 260800Z 21011KT 15SM BKN046 OVC050 23/16 A3003 RMK WND 190V230 VALGA7/5 SLP169 T02270161,NA
LGA,1973-07-26T09:00:00Z,-73.8803,40.7794,73.04,62.06,68.47,220,10,NA,30.02,1016.6,15,NA,OVC,   ,   ,   ,4100,NA,NA,NA,NA,NA,NA,NA,NA,NA,NA,73.04,METAR KLGA 260900Z 22010KT 15SM OVC041 23/17 A3002 RMK / 15//LGA7/5 SLP166 T02280167 56007,NA
LGA,1973-07-26T10:00:00Z,-73.8803,40.7794,69.98,64.94,84.04,200,8,0.01,30.02,1016.6,7,NA,SCT,BKN,OVC,   ,3400,4100,7000,NA,-SHRA,NA,NA,NA,NA,NA,NA,69.98,METAR KLGA 261000Z 20008KT 7SM -SHRA SCT034 BKN041 OVC070 21/18 A3002 RMK / RB07 FEW LWR CUFRA SWLGA SLP166 P0001 T02110183,NA
LGA,1973-07-26T11:00:00Z,-73.8803,40.7794,69.98,65.84,86.71,170,5,0.09,30.02,1016.6,5,NA,SCT,BKN,OVC,   ,2000,3700,7000,NA,-SHRA,NA,NA,NA,NA,NA,NA,69.98,METAR KLGA 261100Z 17005KT 5SM -SHRA SCT020 BKN037 OVC070 21/19 A3002 RMK LGA7/5 SLP166 P0009 T02110188,NA
LGA,1973-07-26T12:00:00Z,-73.8803,40.7794,69.98,66.92,90.02,170,6,0.08,30.01,1016.3,3,NA,SCT,BKN,OVC,   ,1000,3700,5000,NA,-SHRA DZ,NA,NA,NA,NA,NA,NA,69.98,METAR KLGA 261200Z 17006KT 3SM -SHRA DZ SCT010 BKN037 OVC050 21/19 A3001 RMK LGA7/5 SLP163 P0008 60016 70016 T02110194,NA
LGA,1973-07-26T12:32:00Z,-73.8803,40.7794,NA,NA,NA,180,7,NA,30.01,NA,4,NA,SCT,BKN,OVC,NA,1000,3600,4900,NA,NA,NA,NA,NA,NA,NA,NA,NA,KLGA 261232Z AUTO 18007KT 4SM SCT010 BKN036 OVC049 A3001 RMK IEM_DS3505,NA
LGA,1973-07-26T13:00:00Z,-73.8803,40.7794,70.88,68,90.61,200,7,0.07,30,1015.9,5,NA,SCT,BKN,OVC,   ,1300,2100,3100,NA,-SHRA DZ,NA,NA,NA,NA,NA,NA,71.93,METAR KLGA 261300Z 20007KT 5SM -SHRA DZ SCT013 BKN021 OVC031 22/20 A3000 RMK TWR VSBY 3LGA7/5 SLP159 P0007 T02160200,NA
LGA,1973-07-26T14:00:00Z,-73.8803,40.7794,71.96,68,87.35,200,8,0.01,29.99,1015.6,6,NA,SCT,BKN,OVC,   ,1500,2400,3000,NA,-SHRA DZ,NA,NA,NA,NA,NA,NA,72.96,METAR KLGA 261400Z 20008KT 6SM -SHRA DZ SCT015 BKN024 OVC030 22/20 A2999 RMK RE10B40LGA7/5 SLP156 P0001 T02220200,NA
LGA,1973-07-26T15:00:00Z,-73.8803,40.7794,75.02,68,78.81,210,9,NA,29.99,1015.6,8,NA,SCT,BKN,OVC,   ,2000,2300,3000,NA,NA,NA,NA,NA,NA,NA,NA,75.02,METAR KLGA 261500Z 21009KT 8SM SCT020 BKN023 OVC030 24/20 A2999 RMK RE56/ 15//LGA7/5 SLP156 T02390200 56007,NA
LGA,1973-07-26T16:00:00Z,-73.8803,40.7794,74.84,68,79.28,230,9,NA,29.98,1015.2,7,NA,BKN,OVC,   ,   ,1800,3000,NA,NA,NA,NA,NA,NA,NA,NA,NA,74.84,METAR KLGA 261600Z 23009KT 7SM BKN018 OVC030 24/20 A2998 RMK VALGA7/5 SLP152 T02380200,NA
LGA,1973-07-26T17:00:00Z,-73.8803,40.7794,77,68.9,76.1,240,10,NA,29.97,1014.9,8,NA,SCT,BKN,OVC,   ,2000,2300,3000,NA,NA,NA,NA,NA,NA,NA,NA,77,METAR KLGA 261700Z 24010KT 8SM SCT020 BKN023 OVC030 25/20 A2997 RMK LGA7/5 SLP149 T02500205,NA
LGA,1973-07-26T18:00:00Z,-73.8803,40.7794,78.08,69.08,73.88,220,12,NA,29.96,1014.6,7,NA,BKN,OVC,   ,   ,2200,3000,NA,NA,NA,NA,NA,NA,NA,NA,NA,80.26,METAR KLGA 261800Z 22012KT 7SM BKN022 OVC030 26/21 A2996 RMK LGA7/5 SLP146 60012 T02560206,NA
LGA,1973-07-26T19:00:00Z,-73.8803,40.7794,79.88,68.9,69.21,210,12,NA,29.94,1013.9,7,NA,BKN,OVC,   ,   ,2300,3000,NA,NA,NA,NA,NA,NA,NA,NA,NA,82.67,METAR KLGA 261900Z 21012KT 7SM BKN023 OVC030 27/20 A2994 RMK LGA7/5 SLP139 T02660205,NA
LGA,1973-07-26T20:00:00Z,-73.8803,40.7794,80.96,69.98,69.32,200,12,NA,29.93,1013.5,7,NA,BKN,OVC,   ,   ,3000,5000,NA,NA,NA,NA,NA,NA,NA,NA,NA,84.44,METAR KLGA 262000Z 20012KT 7SM BKN030 OVC050 27/21 A2993 RMK VALGA7/5 SLP135 T02720211,NA
LGA,1973-07-26T21:00:00Z,-73.8803,40.7794,80.06,69.98,71.39,160,13,NA,29.91,1012.9,7,NA,BKN,BKN,   ,   ,3000,5000,NA,NA,NA,NA,NA,NA,NA,NA,NA,83.22,METAR KLGA 262100Z 16013KT 7SM BKN030 BKN050 27/21 A2991 RMK / VALGA7/5 SLP129 8/800 T02670211 57017,NA
LGA,1973-07-26T22:00:00Z,-73.8803,40.7794,79.88,69.98,71.81,160,12,NA,29.9,1012.5,7,NA,BKN,BKN,   ,   ,3000,5000,NA,NA,NA,NA,NA,NA,NA,NA,NA,82.97,METAR KLGA 262200Z 16012KT 7SM BKN030 BKN050 27/21 A2990 RMK VALGA7/5 SLP125 T02660211,NA
LGA,1973-07-26T23:00:00Z,-73.8803,40.7794,77.9,68.9,73.86,150,11,NA,29.89,1012.2,7,NA,SCT,SCT,BKN,   ,3000,5000,20000,NA,NA,NA,NA,NA,NA,NA,NA,77.9,METAR KLGA 262300Z 15011KT 7SM SCT030 SCT050 BKN200 25/20 A2989 RMK VALGA7/5 SLP122 T02550205,NA
LGA,1973-07-27T00:00:00Z,-73.8803,40.7794,75.92,68,76.48,180,11,NA,29.89,1012.2,7,NA,SCT,BKN,   ,   ,3000,20000,NA,NA,NA,NA,NA,NA,NA,NA,NA,75.92,METAR KLGA 270000Z 18011KT 7SM SCT030 BKN200 24/20 A2989 RMK LGA7/5 LGB 7 129/65/60/106/991/707 78LGB7/6 7/15 7/17 SLP122 T02440200,NA
LGA,1973-07-27T01:00:00Z,-73.8803,40.7794,75.92,66.92,73.68,190,11,NA,29.91,1012.9,7,NA,BKN,OVC,   ,   ,3500,20000,NA,NA,NA,NA,NA,NA,NA,NA,NA,75.92,METAR KLGA 270100Z 19011KT 7SM BKN035 OVC200 24/19 A2991 RMK LGA7/5 SLP129 T02440194,NA
LGA,1973-07-27T02:00:00Z,-73.8803,40.7794,74.84,65.84,73.58,160,10,NA,29.92,1013.2,8,NA,SCT,OVC,   ,   ,10000,20000,NA,NA,NA,NA,NA,NA,NA,NA,NA,74.84,METAR KLGA 270200Z 16010KT 8SM SCT100 OVC200 24/19 A2992 RMK LGA7/5 SLP132 T02380188,NA
LGA,1973-07-27T03:00:00Z,-73.8803,40.7794,73.94,66.02,76.31,180,10,NA,29.93,1013.5,8,NA,SCT,OVC,   ,   ,3500,25000,NA,NA,NA,NA,NA,NA,NA,NA,NA,73.94,METAR KLGA 270300Z 18010KT 8SM SCT035 OVC250 23/19 A2993 RMK 1507LGA7/5 SLP135 T02330189 52014,NA
LGA,1973-07-27T04:00:00Z,-73.8803,40.7794,73.94,65.84,75.83,190,11,NA,29.92,1013.2,8,NA,SCT,OVC,   ,   ,10000,25000,NA,NA,NA,NA,NA,NA,NA,NA,NA,73.94,METAR KLGA 270400Z 19011KT 8SM SCT100 OVC250 23/19 A2992 RMK LGA7/5 SLP132 T02330188,NA
LGA,1973-07-27T05:00:00Z,-73.8803,40.7794,73.94,66.92,78.72,180,10,NA,29.91,1012.9,8,NA,BKN,BKN,OVC,   ,3800,10000,25000,NA,NA,NA,NA,NA,NA,NA,NA,73.94,METAR KLGA 270500Z 18010KT 8SM BKN038 BKN100 OVC250 23/19 A2991 RMK LGA7/5 SLP129 T02330194,NA
LGA,1973-07-27T06:00:00Z,-73.8803,40.7794,75.02,66.92,75.93,190,10,NA,29.9,1012.5,8,NA,BKN,   ,   ,   ,4500,NA,NA,NA,NA,NA,NA,NA,NA,NA,NA,75.02,METAR KLGA 270600Z 19010KT 8SM BKN045 24/19 A2990 RMK LGA7/5 SLP125 T02390194,NA
LGA,1973-07-27T07:00:00Z,-73.8803,40.7794,73.94,66.92,78.72,190,9,NA,29.89,1012.2,10,NA,SCT,BKN,   ,   ,3400,4900,NA,NA,NA,NA,NA,NA,NA,NA,NA,73.94,METAR KLGA 270700Z 19009KT 10SM SCT034 BKN049 23/19 A2989 RMK LGA7/5 SLP122 T02330194,NA
LGA,1973-07-27T08:00:00Z,-73.8803,40.7794,74.84,68,79.28,210,8,NA,29.88,1011.9,10,NA,SCT,BKN,   ,   ,3700,5000,NA,NA,NA,NA,NA,NA,NA,NA,NA,74.84,METAR KLGA 270800Z 21008KT 10SM SCT037 BKN050 24/20 A2988 RMK LGA7/5 SLP119 T02380200,NA
LGA,1973-07-27T09:00:00Z,-73.8803,40.7794,73.94,68,81.71,190,9,NA,29.88,1011.9,10,NA,BKN,   ,   ,   ,5000,NA,NA,NA,NA,NA,NA,NA,NA,NA,NA,73.94,METAR KLGA 270900Z 19009KT 10SM BKN050 23/20 A2988 RMK VALGA7/5 SLP119 8/500 T02330200 56008,NA
LGA,1973-07-27T10:00:00Z,-73.8803,40.7794,74.84,68.9,81.77,200,10,NA,29.87,1011.5,7,NA,SCT,BKN,OVC,   ,1700,6000,20000,NA,NA,NA,NA,NA,NA,NA,NA,75.87,METAR KLGA 271000Z 20010KT 7SM SCT017 BKN060 OVC200 24/20 A2987 RMK VALGA7/5 SLP115 T02380205,NA
LGA,1973-07-27T11:00:00Z,-73.8803,40.7794,75.92,69.98,81.85,210,11,NA,29.88,1011.9,7,NA,BKN,OVC,   ,   ,1500,6000,NA,NA,NA,NA,NA,NA,NA,NA,NA,77.06,METAR KLGA 271100Z 21011KT 7SM BKN015 OVC060 24/21 A2988 RMK VALGA7/5 SLP119 T02440211,NA
LGA,1973-07-27T12:00:00Z,-73.8803,40.7794,75.92,71.06,84.92,210,10,NA,29.88,1011.9,7,NA,BKN,OVC,   ,   ,1500,6000,NA,NA,NA,NA,NA,NA,NA,NA,NA,77.2,METAR KLGA 271200Z 21010KT 7SM BKN015 OVC060 24/22 A2988 RMK VALGA7/5 SLP119 70012 T02440217,NA
LGA,1973-07-27T13:00:00Z,-73.8803,40.7794,77,71.96,84.46,210,11,NA,29.87,1011.5,5,NA,SCT,BKN,OVC,   ,1300,1600,5000,NA,DZ,NA,NA,NA,NA,NA,NA,78.37,METAR KLGA 271300Z 21011KT 5SM DZ SCT013 BKN016 OVC050 25/22 A2987 RMK RB28E40 VALGA7/5 SLP115 T02500222,NA
LGA,1973-07-27T14:00:00Z,-73.8803,40.7794,77.9,70.88,79.03,230,15,NA,29.87,1011.5,4,NA,SCT,OVC,   ,   ,1400,1800,NA,NA,DZ,NA,NA,NA,NA,NA,NA,80.1,METAR KLGA 271400Z 23015KT 4SM DZ SCT014 OVC018 25/22 A2987 RMK VA LGA7/5 SLP115 T02550216,NA
LGA,1973-07-27T15:00:00Z,-73.8803,40.7794,78.98,71.96,79.12,210,11,NA,29.88,1011.9,5,NA,SCT,OVC,   ,   ,1800,2100,NA,NA,DZ,NA,NA,NA,NA,NA,NA,82.08,METAR KLGA 271500Z 21011KT 5SM DZ SCT018 OVC021 26/22 A2988 RMK / VA LGA7/5 SLP119 8/5// T02610222 55002,NA
LGA,1973-07-27T17:00:00Z,-73.8803,40.7794,81.86,71.96,72.01,220,14,NA,29.86,1011.2,5,NA,BKN,OVC,   ,   ,2500,4000,NA,NA,DZ,NA,NA,NA,NA,NA,NA,86.6,METAR KLGA 271700Z 22014KT 5SM DZ BKN025 OVC040 28/22 A2986 RMK LGA7/5 SLP112 T02770222,NA
LGA,1973-07-27T18:00:00Z,-73.8803,40.7794,84.02,71.96,67.15,200,12,NA,29.85,1010.8,5,NA,BKN,OVC,   ,   ,2500,4000,NA,NA,DZ,NA,NA,NA,NA,NA,NA,89.62,METAR KLGA 271800Z 20012KT 5SM DZ BKN025 OVC040 29/22 A2985 RMK BINOVCLGA7/5 SLP108 T02890222,NA
LGA,1973-07-27T19:00:00Z,-73.8803,40.7794,83.84,72.86,69.62,170,11,NA,29.83,1010.2,6,NA,BKN,BKN,   ,   ,3000,4500,NA,NA,DZ,NA,NA,NA,NA,NA,NA,90.01,METAR KLGA 271900Z 17011KT 6SM DZ BKN030 BKN045 29/23 A2983 RMK 30V%LGA7/5 SLP102 T02880227,NA
LGA,1973-07-27T20:00:00Z,-73.8803,40.7794,84.92,72.86,67.25,160,13,NA,29.82,1009.8,6,NA,SCT,BKN,   ,   ,3000,25000,NA,NA,DZ,NA,NA,NA,NA,NA,NA,91.51,METAR KLGA 272000Z 16013KT 6SM DZ SCT030 BKN250 29/23 A2982 RMK LGA7/5 VA SLP098 T02940227,NA
LGA,1973-07-27T21:00:00Z,-73.8803,40.7794,84.02,71.96,67.15,160,12,NA,29.81,1009.5,6,NA,BKN,BKN,   ,   ,3000,5000,NA,NA,DZ,NA,NA,NA,NA,NA,NA,89.62,METAR KLGA 272100Z 16012KT 6SM DZ BKN030 BKN050 29/22 A2981 RMK / 1800LGA7/5 SLP095 T02890222 57012,NA
LGA,1973-07-27T22:00:00Z,-73.8803,40.7794,84.92,70.88,62.88,170,11,NA,29.81,1009.5,6,NA,BKN,   ,   ,   ,3000,NA,NA,NA,DZ,NA,NA,NA,NA,NA,NA,90.03,METAR KLGA 272200Z 17011KT 6SM DZ BKN030 29/22 A2981 RMK LGA7/5 VA SLP095 T02940216,NA
LGA,1973-07-27T23:00:00Z,-73.8803,40.7794,86,68.9,56.77,230,13,NA,29.81,1009.5,7,NA,SCT,   ,   ,   ,12000,NA,NA,NA,NA,NA,NA,NA,NA,NA,NA,89.98,METAR KLGA 272300Z 23013KT 7SM SCT120 30/20 A2981 RMK WNDSHFT 2215LGA7/5 SLP095 T03000205,NA
LGA,1973-07-28T00:00:00Z,-73.8803,40.7794,82.94,69.08,63.03,170,11,NA,29.82,1009.8,7,NA,BKN,   ,   ,   ,25000,NA,NA,NA,NA,NA,NA,NA,NA,NA,NA,86.52,METAR KLGA 280000Z 17011KT 7SM BKN250 28/21 A2982 RMK LGA7/5 SLP098 T02830206,NA
LGA,1973-07-28T01:00:00Z,-73.8803,40.7794,79.88,68.9,69.21,190,10,NA,29.84,1010.5,7,NA,SCT,BKN,   ,   ,1500,20000,NA,NA,DZ,NA,NA,NA,NA,NA,NA,82.67,METAR KLGA 280100Z 19010KT 7SM DZ SCT015 BKN200 27/20 A2984 RMK LGA7/5 SLP105 T02660205,NA
LGA,1973-07-28T02:00:00Z,-73.8803,40.7794,78.98,69.98,73.97,180,8,NA,29.86,1011.2,7,NA,BKN,   ,   ,   ,25000,NA,NA,NA,NA,NA,NA,NA,NA,NA,NA,81.69,METAR KLGA 280200Z 18008KT 7SM BKN250 26/21 A2986 RMK LGA7/5 SLP112 T02610211,NA
LGA,1973-07-28T03:00:00Z,-73.8803,40.7794,78.98,69.98,73.97,210,10,NA,29.87,1011.5,7,NA,BKN,   ,   ,   ,25000,NA,NA,NA,NA,NA,NA,NA,NA,NA,NA,81.69,METAR KLGA 280300Z 21010KT 7SM BKN250 26/21 A2987 RMK 1001LGA7/5 SLP115 T02610211 52017,NA
LGA,1973-07-28T04:00:00Z,-73.8803,40.7794,79.88,69.98,71.81,220,9,NA,29.87,1011.5,7,NA,SCT,   ,   ,   ,25000,NA,NA,NA,NA,NA,NA,NA,NA,NA,NA,82.97,METAR KLGA 280400Z 22009KT 7SM SCT250 27/21 A2987 RMK LGA7/5 SLP115 T02660211,NA
LGA,1973-07-28T05:00:00Z,-73.8803,40.7794,80.96,69.98,69.32,220,13,NA,29.88,1011.9,7,NA,SCT,   ,   ,   ,25000,NA,NA,NA,NA,NA,NA,NA,NA,NA,NA,84.44,METAR KLGA 280500Z 22013KT 7SM SCT250 27/21 A2988 RMK LGA7/5 SLP119 T02720211,NA
LGA,1973-07-28T06:00:00Z,-73.8803,40.7794,80.06,71.06,74.07,240,13,NA,29.89,1012.2,7,NA,CLR,   ,   ,   ,NA,NA,NA,NA,NA,NA,NA,NA,NA,NA,NA,83.56,METAR KLGA 280600Z 24013KT 7SM CLR 27/22 A2989 RMK LGA7/5 SLP122 T02670217,NA
LGA,1973-07-28T07:00:00Z,-73.8803,40.7794,78.98,70.88,76.27,240,7,NA,29.89,1012.2,7,NA,CLR,   ,   ,   ,NA,NA,NA,NA,NA,NA,NA,NA,NA,NA,NA,81.86,METAR KLGA 280700Z 24007KT 7SM CLR 26/22 A2989 RMK LGA7/5 SLP122 T02610216,NA
LGA,1973-07-28T08:00:00Z,-73.8803,40.7794,78.98,70.88,76.27,240,9,NA,29.89,1012.2,5,NA,SCT,   ,   ,   ,4500,NA,NA,NA,FU,NA,NA,NA,NA,NA,NA,81.86,METAR KLGA 280800Z 24009KT 5SM FU SCT045 26/22 A2989 RMK LGA7/5 SLP122 T02610216,NA
LGA,1973-07-28T09:00:00Z,-73.8803,40.7794,78.08,71.06,79.05,220,9,NA,29.9,1012.5,5,NA,BKN,   ,   ,   ,12000,NA,NA,NA,FU,NA,NA,NA,NA,NA,NA,80.42,METAR KLGA 280900Z 22009KT 5SM FU BKN120 26/22 A2990 RMK 1070LGA7/5 SLP125 T02560217 53005,NA
LGA,1973-07-28T10:00:00Z,-73.8803,40.7794,77,70,79.02,220,8,NA,29.91,NA,4,NA,   ,   ,   ,   ,NA,NA,NA,NA,NA,NA,NA,NA,NA,NA,NA,78.11,METAR KLGA 281000Z 22008KT 4SM FUDZ SCT120 BKN250 25/21 A2991 RMK LGA7/5 SLP129 T02500211,NA
LGA,1973-07-28T11:00:00Z,-73.8803,40.7794,77,70,79.02,140,5.04,NA,29.91,NA,5,NA,   ,   ,   ,   ,NA,NA,NA,NA,NA,NA,NA,NA,NA,NA,NA,78.11,METAR KLGA 281100Z 14005KT 5SM FUDZ BKN250 25/21 A2991 RMK VALGA7/5 SLP129 T02500211,NA
LGA,1973-07-28T12:00:00Z,-73.8803,40.7794,78.08,69.08,73.88,250,6,NA,29.92,1013.2,7,NA,BKN,   ,   ,   ,25000,NA,NA,NA,NA,NA,NA,NA,NA,NA,NA,80.26,METAR KLGA 281200Z 25006KT 7SM BKN250 26/21 A2992 RMK VALGA7/5 SLP132 T02560206,NA
LGA,1973-07-28T13:00:00Z,-73.8803,40.7794,79.88,68,67.1,230,6,NA,29.94,1013.9,6,NA,BKN,   ,   ,   ,25000,NA,NA,NA,DZ,NA,NA,NA,NA,NA,NA,82.43,METAR KLGA 281300Z 23006KT 6SM DZ BKN250 27/20 A2994 RMK VALGA7/5 SLP139 T02660200,NA
LGA,1973-07-28T14:00:00Z,-73.8803,40.7794,81.86,69.98,67.32,330,6,NA,29.94,1013.9,5,NA,OVC,   ,   ,   ,25000,NA,NA,NA,DZ,NA,NA,NA,NA,NA,NA,85.62,METAR KLGA 281400Z 33006KT 5SM DZ OVC250 28/21 A2994 RMK VALGA7/5 SLP139 T02770211,NA
LGA,1973-07-28T15:00:00Z,-73.8803,40.7794,82.94,68,60.74,320,7,NA,29.94,1013.9,5,NA,OVC,   ,   ,   ,25000,NA,NA,NA,DZ,NA,NA,NA,NA,NA,NA,85.99,METAR KLGA 281500Z 32007KT 5SM DZ OVC250 28/20 A2994 RMK / VALGA7/5 SLP139 8/007 T02830200 51007,NA
LGA,1973-07-28T16:00:00Z,-73.8803,40.7794,84.92,62.96,47.82,260,8,NA,29.94,1013.9,6,NA,SCT,OVC,   ,   ,10000,25000,NA,NA,DZ,NA,NA,NA,NA,NA,NA,85.83,METAR KLGA 281600Z 26008KT 6SM DZ SCT100 OVC250 29/17 A2994 RMK VALGA7/5 SLP139 T02940172,NA
LGA,1973-07-28T17:00:00Z,-73.8803,40.7794,86.9,62.96,44.88,230,9,NA,29.93,1013.5,8,NA,SCT,OVC,   ,   ,12000,25000,NA,NA,NA,NA,NA,NA,NA,NA,NA,87.75,METAR KLGA 281700Z 23009KT 8SM SCT120 OVC250 31/17 A2993 RMK VALGA7/5 SLP135 T03050172,NA
LGA,1973-07-28T18:00:00Z,-73.8803,40.7794,87.98,60.98,40.44,210,11,NA,29.92,1013.2,8,NA,SCT,BKN,OVC,   ,6000,12000,25000,NA,NA,NA,NA,NA,NA,NA,NA,87.99,METAR KLGA 281800Z 21011KT 8SM SCT060 BKN120 OVC250 31/16 A2992 RMK VALGA7/5 SLP132 T03110161,NA
LGA,1973-07-28T19:00:00Z,-73.8803,40.7794,86.9,64.94,48.11,190,13,NA,29.92,1013.2,9,NA,SCT,OVC,   ,   ,12000,25000,NA,NA,NA,NA,NA,NA,NA,NA,NA,88.67,METAR KLGA 281900Z 19013KT 9SM SCT120 OVC250 31/18 A2992 RMK FEW CU N VALGA7/5 SLP132 T03050183,NA
LGA,1973-07-28T20:00:00Z,-73.8803,40.7794,86,66.92,53.03,180,12,NA,29.91,1012.9,7,NA,OVC,   ,   ,   ,25000,NA,NA,NA,NA,NA,NA,NA,NA,NA,NA,88.78,METAR KLGA 282000Z 18012KT 7SM OVC250 30/19 A2991 RMK VALGA7/5 SLP129 T03000194,NA
LGA,1973-07-28T21:00:00Z,-73.8803,40.7794,84.02,64.94,52.75,190,15,NA,29.91,1012.9,6,NA,BKN,   ,   ,   ,25000,NA,NA,NA,DZ,NA,NA,NA,NA,NA,NA,85.76,METAR KLGA 282100Z 19015KT 6SM DZ BKN250 29/18 A2991 RMK VALGA7/5 SLP129 8/008 T02890183 58005,NA
LGA,1973-07-28T22:00:00Z,-73.8803,40.7794,79.88,66.92,64.64,150,14,NA,29.91,1012.9,6,NA,BKN,   ,   ,   ,25000,NA,NA,NA,DZ,NA,NA,NA,NA,NA,NA,82.16,METAR KLGA 282200Z 15014KT 6SM DZ BKN250 27/19 A2991 RMK VALGA7/5 SLP129 T02660194,NA
LGA,1973-07-28T23:00:00Z,-73.8803,40.7794,78.98,68.9,71.28,160,12,NA,29.89,1012.2,5,NA,OVC,   ,   ,   ,25000,NA,NA,NA,DZ,NA,NA,NA,NA,NA,NA,81.49,METAR KLGA 282300Z 16012KT 5SM DZ OVC250 26/20 A2989 RMK LGA7/5 SLP122 T02610205,NA
LGA,1973-07-29T00:00:00Z,-73.8803,40.7794,78.98,69.98,73.97,180,11,NA,29.89,1012.2,5,NA,OVC,   ,   ,   ,25000,NA,NA,NA,DZ,NA,NA,NA,NA,NA,NA,81.69,METAR KLGA 290000Z 18011KT 5SM DZ OVC250 26/21 A2989 RMK LGA7/5 SLP122 T02610211,NA
LGA,1973-07-29T01:00:00Z,-73.8803,40.7794,77,68.9,76.1,150,9,NA,29.89,1012.2,5,NA,OVC,   ,   ,   ,25000,NA,NA,NA,DZ,NA,NA,NA,NA,NA,NA,77,METAR KLGA 290100Z 15009KT 5SM DZ OVC250 25/20 A2989 RMK VALGA7/5 SLP122 T02500205,NA
LGA,1973-07-29T02:00:00Z,-73.8803,40.7794,75.92,68.9,78.88,160,8,NA,29.9,1012.5,5,NA,OVC,   ,   ,   ,25000,NA,NA,NA,DZ,NA,NA,NA,NA,NA,NA,75.92,METAR KLGA 290200Z 16008KT 5SM DZ OVC250 24/20 A2990 RMK VALGA7/5 SLP125 T02440205,NA
LGA,1973-07-29T03:00:00Z,-73.8803,40.7794,75.02,69.08,81.79,180,7,NA,29.91,1012.9,5,NA,OVC,   ,   ,   ,20000,NA,NA,NA,DZ,NA,NA,NA,NA,NA,NA,76.07,METAR KLGA 290300Z 18007KT 5SM DZ OVC200 24/21 A2991 RMK / VALGA7/5 SLP129 8/007 T02390206 52008,NA
LGA,1973-07-29T04:00:00Z,-73.8803,40.7794,73.94,69.98,87.45,180,8,NA,29.9,1012.5,6,NA,OVC,   ,   ,   ,20000,NA,NA,NA,DZ,NA,NA,NA,NA,NA,NA,75.14,METAR KLGA 290400Z 18008KT 6SM DZ OVC200 23/21 A2990 RMK LGA7/5 SLP125 T02330211,NA
LGA,1973-07-29T05:00:00Z,-73.8803,40.7794,73.94,68.9,84.28,170,7,NA,29.89,1012.2,10,NA,BKN,   ,   ,   ,30000,NA,NA,NA,NA,NA,NA,NA,NA,NA,NA,75,METAR KLGA 290500Z 17007KT 10SM BKN300 23/20 A2989 RMK LGA7/5 SLP122 T02330205,NA
LGA,1973-07-29T06:00:00Z,-73.8803,40.7794,73.94,69.08,84.8,160,5,NA,29.89,1012.2,9,NA,OVC,   ,   ,   ,30000,NA,NA,NA,NA,NA,NA,NA,NA,NA,NA,75.02,METAR KLGA 290600Z 16005KT 9SM OVC300 23/21 A2989 RMK LGA7/5 SLP122 T02330206,NA
LGA,1973-07-29T07:00:00Z,-73.8803,40.7794,74.84,68.9,81.77,170,6,NA,29.87,1011.5,8,NA,SCT,OVC,   ,   ,8000,30000,NA,NA,NA,NA,NA,NA,NA,NA,NA,75.87,METAR KLGA 290700Z 17006KT 8SM SCT080 OVC300 24/20 A2987 RMK DSNT LTG NWLGA7/5 SLP115 T02380205,NA
LGA,1973-07-29T08:00:00Z,-73.8803,40.7794,74.84,69.98,84.85,210,7,NA,29.86,1011.2,8,NA,BKN,OVC,   ,   ,1800,10000,NA,NA,NA,NA,NA,NA,NA,NA,NA,76.01,METAR KLGA 290800Z 21007KT 8SM BKN018 OVC100 24/21 A2986 RMK LGA7/5 SLP112 T02380211,NA
LGA,1973-07-29T09:00:00Z,-73.8803,40.7794,75.02,71.06,87.5,240,6,NA,29.87,1011.5,7,NA,BKN,OVC,   ,   ,1400,7000,NA,NA,NA,NA,NA,NA,NA,NA,NA,76.33,METAR KLGA 290900Z 24006KT 7SM BKN014 OVC070 24/22 A2987 RMK VSBY LWR W / 155/LGA7/5 SLP115 T02390217 55008,NA
LGA,1973-07-29T10:00:00Z,-73.8803,40.7794,74.84,69.98,84.85,250,6,NA,29.87,1011.5,5,NA,SCT,OVC,   ,   ,1400,20000,NA,NA,DZ,NA,NA,NA,NA,NA,NA,76.01,METAR KLGA 291000Z 25006KT 5SM DZ SCT014 OVC200 24/21 A2987 RMK VALGA7/5 SLP115 T02380211,NA
LGA,1973-07-29T11:00:00Z,-73.8803,40.7794,73.94,69.98,87.45,290,4,NA,29.88,1011.9,5,NA,SCT,BKN,   ,   ,10000,30000,NA,NA,DZ,NA,NA,NA,NA,NA,NA,75.14,METAR KLGA 291100Z 29004KT 5SM DZ SCT100 BKN300 23/21 A2988 RMK VALGA7/5 SLP119 T02330211,NA
LGA,1973-07-29T12:00:00Z,-73.8803,40.7794,75.92,69.98,81.85,300,5,NA,29.89,1012.2,5,NA,FEW,   ,   ,   ,30000,NA,NA,NA,DZ,NA,NA,NA,NA,NA,NA,77.06,METAR KLGA 291200Z 30005KT 5SM DZ FEW300 24/21 A2989 RMK VALGA7/5 SLP122 T02440211,NA
LGA,1973-07-29T13:00:00Z,-73.8803,40.7794,77.9,65.84,66.46,310,5,NA,29.89,1012.2,8,NA,BKN,   ,   ,   ,25000,NA,NA,NA,NA,NA,NA,NA,NA,NA,NA,77.9,METAR KLGA 291300Z 31005KT 8SM BKN250 25/19 A2989 RMK VALGA7/5 SLP122 T02550188,NA
LGA,1973-07-29T14:00:00Z,-73.8803,40.7794,79.88,63.86,58.11,320,7,NA,29.89,1012.2,10,NA,SCT,   ,   ,   ,25000,NA,NA,NA,NA,NA,NA,NA,NA,NA,NA,81.48,METAR KLGA 291400Z 32007KT 10SM SCT250 27/18 A2989 RMK VALGA7/5 SLP122 T02660177,NA
LGA,1973-07-29T15:00:00Z,-73.8803,40.7794,80.96,64.04,56.45,300,8,NA,29.9,1012.5,10,NA,SCT,   ,   ,   ,25000,NA,NA,NA,NA,NA,NA,NA,NA,NA,NA,82.52,METAR KLGA 291500Z 30008KT 10SM SCT250 27/18 A2990 RMK / VALGA7/5 SLP125 8/001 T02720178 53005,NA
LGA,1973-07-29T16:00:00Z,-73.8803,40.7794,82.94,62.96,50.97,340,7,NA,29.89,1012.5,10,NA,SCT,BKN,   ,   ,10000,25000,NA,NA,NA,NA,NA,NA,NA,NA,NA,84,METAR KLGA 291600Z 34007KT 10SM SCT100 BKN250 28/17 A2989 RMK LGA7/5 SLP125 T02830172,NA
LGA,1973-07-29T17:00:00Z,-73.8803,40.7794,83.84,62.96,49.51,320,4,NA,29.89,1012.5,10,NA,SCT,SCT,SCT,   ,4500,12000,25000,NA,NA,NA,NA,NA,NA,NA,NA,84.82,METAR KLGA 291700Z 32004KT 10SM SCT045 SCT120 SCT250 29/17 A2989 RMK LGA7/5 SLP125 T02880172,NA
LGA,1973-07-29T18:00:00Z,-73.8803,40.7794,86,64.04,47.97,300,10,NA,29.89,1012.2,10,NA,SCT,SCT,   ,   ,4500,25000,NA,NA,NA,NA,NA,NA,NA,NA,NA,87.33,METAR KLGA 291800Z 30010KT 10SM SCT045 SCT250 30/18 A2989 RMK LGA7/5 SLP122 T03000178,NA
LGA,1973-07-29T19:00:00Z,-73.8803,40.7794,83.84,62.96,49.51,300,8,NA,29.89,1012.2,10,NA,BKN,   ,   ,   ,4500,NA,NA,NA,NA,NA,NA,NA,NA,NA,NA,84.82,METAR KLGA 291900Z 30008KT 10SM BKN045 29/17 A2989 RMK LGA7/5 SLP122 T02880172,NA
LGA,1973-07-29T20:00:00Z,-73.8803,40.7794,81.86,64.94,56.57,310,11,NA,29.9,1012.5,10,NA,BKN,   ,   ,   ,4500,NA,NA,NA,NA,NA,NA,NA,NA,NA,NA,83.64,METAR KLGA 292000Z 31011KT 10SM BKN045 28/18 A2990 RMK LGA7/5 SLP125 T02770183,NA
LGA,1973-07-29T21:00:00Z,-73.8803,40.7794,80.96,62.96,54.35,320,9,NA,29.9,1012.5,10,NA,BKN,BKN,   ,   ,4500,12000,NA,NA,NA,NA,NA,NA,NA,NA,NA,82.24,METAR KLGA 292100Z 32009KT 10SM BKN045 BKN120 27/17 A2990 RMK / 1250LGA7/5 SLP125 T02720172 51003,NA
LGA,1973-07-29T22:00:00Z,-73.8803,40.7794,79.88,63.86,58.11,300,9,NA,29.9,1012.5,10,NA,SCT,BKN,   ,   ,5000,12000,NA,NA,NA,NA,NA,NA,NA,NA,NA,81.48,METAR KLGA 292200Z 30009KT 10SM SCT050 BKN120 27/18 A2990 RMK LG SLP125 T02660177 570/5,NA
LGA,1973-07-29T23:00:00Z,-73.8803,40.7794,80.96,63.86,56.1,270,10,NA,29.91,1012.9,10,NA,SCT,BKN,   ,   ,5000,12000,NA,NA,NA,NA,NA,NA,NA,NA,NA,82.47,METAR KLGA 292300Z 27010KT 10SM SCT050 BKN120 27/18 A2991 RMK LGA7/5 SLP129 T02720177,NA
LGA,1973-07-30T00:00:00Z,-73.8803,40.7794,78.98,64.94,62.16,320,9,NA,29.93,1013.5,10,NA,SCT,BKN,   ,   ,5000,12000,NA,NA,NA,NA,NA,NA,NA,NA,NA,80.82,METAR KLGA 300000Z 32009KT 10SM SCT050 BKN120 26/18 A2993 RMK LGA7/5 SLP135 T02610183,NA
LGA,1973-07-30T01:00:00Z,-73.8803,40.7794,77.9,61.88,57.85,310,8,NA,29.94,1013.9,15,NA,SCT,OVC,   ,   ,5000,11000,NA,NA,NA,NA,NA,NA,NA,NA,NA,77.9,METAR KLGA 300100Z 31008KT 15SM SCT050 OVC110 25/17 A2994 RMK BINOVCLGA7/5 SLP139 T02550166,NA
LGA,1973-07-30T02:00:00Z,-73.8803,40.7794,77.9,62.96,60.1,330,5,NA,29.96,1014.6,15,NA,BKN,   ,   ,   ,10000,NA,NA,NA,NA,NA,NA,NA,NA,NA,NA,77.9,METAR KLGA 300200Z 33005KT 15SM BKN100 25/17 A2996 RMK LGA7/5 SLP146 T02550172,NA
LGA,1973-07-30T03:00:00Z,-73.8803,40.7794,77,62.96,61.91,340,5,NA,29.97,1014.9,15,NA,BKN,   ,   ,   ,10000,NA,NA,NA,NA,NA,NA,NA,NA,NA,NA,77,METAR KLGA 300300Z 34005KT 15SM BKN100 25/17 A2997 RMK / 1030LGA7/5 SLP149 T02500172 51014,NA
LGA,1973-07-30T04:00:00Z,-73.8803,40.7794,74.84,62.96,66.53,330,4,NA,29.97,1014.9,15,NA,SCT,   ,   ,   ,10000,NA,NA,NA,NA,NA,NA,NA,NA,NA,NA,74.84,METAR KLGA 300400Z 33004KT 15SM SCT100 24/17 A2997 RMK LGA7/5 SLP149 T02380172,NA
LGA,1973-07-30T05:00:00Z,-73.8803,40.7794,74.84,62.96,66.53,320,4,NA,29.98,1015.2,15,NA,SCT,   ,   ,   ,10000,NA,NA,NA,NA,NA,NA,NA,NA,NA,NA,74.84,METAR KLGA 300500Z 32004KT 15SM SCT100 24/17 A2998 RMK LGA7/5 SLP152 T02380172,NA
LGA,1973-07-30T06:00:00Z,-73.8803,40.7794,73.94,62.96,68.57,300,4,NA,29.98,1015.2,15,NA,SCT,   ,   ,   ,10000,NA,NA,NA,NA,NA,NA,NA,NA,NA,NA,73.94,METAR KLGA 300600Z 30004KT 15SM SCT100 23/17 A2998 RMK LGA7/5 SLP152 T02330172,NA
LGA,1973-07-30T07:00:00Z,-73.8803,40.7794,72.86,62.96,71.11,320,3,NA,29.99,1015.1,15,NA,SCT,   ,   ,   ,10000,NA,NA,NA,NA,NA,NA,NA,NA,NA,NA,72.86,METAR KLGA 300700Z 32003KT 15SM SCT100 23/17 A2999 RMK LGA7/5 SLP151 T02270172,NA
LGA,1973-07-30T08:00:00Z,-73.8803,40.7794,71.96,61.88,70.56,30,6,NA,30,1015.9,15,NA,CLR,   ,   ,   ,NA,NA,NA,NA,NA,NA,NA,NA,NA,NA,NA,71.96,METAR KLGA 300800Z 03006KT 15SM CLR 22/17 A3000 RMK LGA7/5 SLP159 T02220166,NA
LGA,1973-07-30T09:00:00Z,-73.8803,40.7794,71.06,62.96,75.57,30,5,NA,30.01,1016.3,15,NA,CLR,   ,   ,   ,NA,NA,NA,NA,NA,NA,NA,NA,NA,NA,NA,71.06,METAR KLGA 300900Z 03005KT 15SM CLR 22/17 A3001 RMK 208LGA7/5 SLP163 T02170172,NA
LGA,1973-07-30T10:00:00Z,-73.8803,40.7794,69.98,62.96,78.41,20,5,NA,30.02,1016.6,15,NA,CLR,   ,   ,   ,NA,NA,NA,NA,NA,NA,NA,NA,NA,NA,NA,69.98,METAR KLGA 301000Z 02005KT 15SM CLR 21/17 A3002 RMK KOCTYLGA7/5 SLP166 T02110172,NA
LGA,1973-07-30T12:00:00Z,-73.8803,40.7794,73.04,64.04,73.41,60,5,NA,30.05,1017.6,10,NA,CLR,   ,   ,   ,NA,NA,NA,NA,NA,NA,NA,NA,NA,NA,NA,73.04,METAR KLGA 301200Z 06005KT 10SM CLR 23/18 A3005 RMK LGA7/5 SLP176 T02280178,NA
LGA,1973-07-30T13:00:00Z,-73.8803,40.7794,73.94,63.86,70.77,60,7,NA,30.05,1017.6,15,NA,CLR,   ,   ,   ,NA,NA,NA,NA,NA,NA,NA,NA,NA,NA,NA,73.94,METAR KLGA 301300Z 06007KT 15SM CLR 23/18 A3005 RMK FEW CI NWXVALGA7/5 SLP176 T02330177,NA
LGA,1973-07-30T14:00:00Z,-73.8803,40.7794,77,63.86,63.9,90,8,NA,30.05,1017.6,15,NA,SCT,   ,   ,   ,3000,NA,NA,NA,NA,NA,NA,NA,NA,NA,NA,77,METAR KLGA 301400Z 09008KT 15SM SCT030 25/18 A3005 RMK VALGA 7/19 ILS 4 OTS7/5 SLP176 T02500177,NA
LGA,1973-07-30T15:00:00Z,-73.8803,40.7794,78.98,64.94,62.16,60,8,NA,30.06,1018,15,NA,SCT,   ,   ,   ,3500,NA,NA,NA,NA,NA,NA,NA,NA,NA,NA,80.82,METAR KLGA 301500Z 06008KT 15SM SCT035 26/18 A3006 RMK / 1100LGA7/5 7/19 SLP180 T02610183 52003,NA
LGA,1973-07-30T16:00:00Z,-73.8803,40.7794,79.88,62.96,56.31,60,8,NA,30.06,1018,15,NA,SCT,   ,   ,   ,4000,NA,NA,NA,NA,NA,NA,NA,NA,NA,NA,81.3,METAR KLGA 301600Z 06008KT 15SM SCT040 27/17 A3006 RMK VALGA7/5 7/19 SLP180 T02660172,NA
LGA,1973-07-30T17:00:00Z,-73.8803,40.7794,81.86,64.94,56.57,50,9,NA,30.06,1018,15,NA,SCT,   ,   ,   ,4500,NA,NA,NA,NA,NA,NA,NA,NA,NA,NA,83.64,METAR KLGA 301700Z 05009KT 15SM SCT045 28/18 A3006 RMK VALGA7/5 7/19 SLP180 T02770183,NA
LGA,1973-07-30T18:00:00Z,-73.8803,40.7794,82.04,64.94,56.24,140,12,NA,30.06,1018,15,NA,BKN,   ,   ,   ,4500,NA,NA,NA,NA,NA,NA,NA,NA,NA,NA,83.82,METAR KLGA 301800Z 14012KT 15SM BKN045 28/18 A3006 RMK VLGA7/5 7/19 SLP180 T02780183,NA
LGA,1973-07-30T19:00:00Z,-73.8803,40.7794,81.86,63.86,54.48,150,11,NA,30.06,1018,15,NA,BKN,   ,   ,   ,4500,NA,NA,NA,NA,NA,NA,NA,NA,NA,NA,83.3,METAR KLGA 301900Z 15011KT 15SM BKN045 28/18 A3006 RMK VALGA7/5 7/19 SLP180 T02770177,NA
LGA,1973-07-30T20:00:00Z,-73.8803,40.7794,82.94,62.96,50.97,160,11,NA,30.04,1017.3,10,NA,SCT,   ,   ,   ,5000,NA,NA,NA,NA,NA,NA,NA,NA,NA,NA,84,METAR KLGA 302000Z 16011KT 10SM SCT050 28/17 A3004 RMK LGA C7/197/5 SLP173 T02830172,NA
LGA,1973-07-30T21:00:00Z,-73.8803,40.7794,82.04,64.04,54.5,160,9,NA,29.95,1017.6,10,NA,SCT,   ,   ,   ,5000,NA,NA,NA,NA,NA,NA,NA,NA,NA,NA,83.52,METAR KLGA 302100Z 16009KT 10SM SCT050 28/18 A2995 RMK / 1100LGA7/5 SLP176 T02780178 55005,NA
LGA,1973-07-30T22:00:00Z,-73.8803,40.7794,81.86,61.88,50.81,170,9,NA,30.04,1017.3,10,NA,SCT,   ,   ,   ,5000,NA,NA,NA,NA,NA,NA,NA,NA,NA,NA,82.74,METAR KLGA 302200Z 17009KT 10SM SCT050 28/17 A3004 RMK LGA7/5 SLP173 T02770166,NA
LGA,1973-07-30T23:00:00Z,-73.8803,40.7794,79.88,60.98,52.5,170,9,NA,30.04,1017.3,10,NA,CLR,   ,   ,   ,NA,NA,NA,NA,NA,NA,NA,NA,NA,NA,NA,80.93,METAR KLGA 302300Z 17009KT 10SM CLR 27/16 A3004 RMK LGA7/5 SLP173 T02660161,NA
LGA,1973-07-31T00:00:00Z,-73.8803,40.7794,80.06,60.98,52.19,180,8,NA,30.04,1017.3,10,NA,CLR,   ,   ,   ,NA,NA,NA,NA,NA,NA,NA,NA,NA,NA,NA,81.07,METAR KLGA 310000Z 18008KT 10SM CLR 27/16 A3004 RMK VALGA7/5 SLP173 T02670161,NA
LGA,1973-07-31T01:00:00Z,-73.8803,40.7794,77.9,60.98,56.04,140,6,NA,30.06,1018,10,NA,CLR,   ,   ,   ,NA,NA,NA,NA,NA,NA,NA,NA,NA,NA,NA,77.9,METAR KLGA 310100Z 14006KT 10SM CLR 25/16 A3006 RMK VALGA7/5 SLP180 T02550161,NA
LGA,1973-07-31T02:00:00Z,-73.8803,40.7794,75.92,62.96,64.17,120,5,NA,30.07,1018.3,10,NA,CLR,   ,   ,   ,NA,NA,NA,NA,NA,NA,NA,NA,NA,NA,NA,75.92,METAR KLGA 310200Z 12005KT 10SM CLR 24/17 A3007 RMK VALGA7/5 SLP183 T02440172,NA
LGA,1973-07-31T03:00:00Z,-73.8803,40.7794,73.94,64.04,71.22,320,4,NA,30.07,1018.3,10,NA,CLR,   ,   ,   ,NA,NA,NA,NA,NA,NA,NA,NA,NA,NA,NA,73.94,METAR KLGA 310300Z 32004KT 10SM CLR 23/18 A3007 RMK VALGA7/5 SLP183 T02330178 51010,NA
LGA,1973-07-31T04:00:00Z,-73.8803,40.7794,74.84,61.88,64.05,50,5,NA,30.07,1018.3,10,NA,CLR,   ,   ,   ,NA,NA,NA,NA,NA,NA,NA,NA,NA,NA,NA,74.84,METAR KLGA 310400Z 05005KT 10SM CLR 24/17 A3007 RMK LGA7/5 SLP183 T02380166,NA
LGA,1973-07-31T06:00:00Z,-73.8803,40.7794,71.96,64.04,76.13,30,2,NA,30.07,1018.3,9,NA,CLR,   ,   ,   ,NA,NA,NA,NA,NA,NA,NA,NA,NA,NA,NA,71.96,METAR KLGA 310600Z 03002KT 9SM CLR 22/18 A3007 RMK LGA7/5 SLP183 T02220178,NA
LGA,1973-07-31T07:00:00Z,-73.8803,40.7794,69.98,64.94,84.04,40,5,NA,30.07,1018.3,10,NA,CLR,   ,   ,   ,NA,NA,NA,NA,NA,NA,NA,NA,NA,NA,NA,69.98,METAR KLGA 310700Z 04005KT 10SM CLR 21/18 A3007 RMK / FEW SC NLGA7/5 SLP183 T02110183,NA
LGA,1973-07-31T08:00:00Z,-73.8803,40.7794,68.9,63.86,83.97,50,7,NA,30.06,1018,10,NA,CLR,   ,   ,   ,NA,NA,NA,NA,NA,NA,NA,NA,NA,NA,NA,68.9,METAR KLGA 310800Z 05007KT 10SM CLR 20/18 A3006 RMK LGA7/5 SLP180 T02050177,NA
LGA,1973-07-31T09:00:00Z,-73.8803,40.7794,69.08,66.02,89.98,20,5,NA,30.07,1018.3,10,NA,CLR,   ,   ,   ,NA,NA,NA,NA,NA,NA,NA,NA,NA,NA,NA,69.08,METAR KLGA 310900Z 02005KT 10SM CLR 21/19 A3007 RMK 500LGA7/5 SLP183 T02060189,NA
LGA,1973-07-31T10:00:00Z,-73.8803,40.7794,68.9,65.84,89.98,60,5,NA,30.08,1018.6,6,NA,CLR,   ,   ,   ,NA,NA,NA,NA,DZ,NA,NA,NA,NA,NA,NA,68.9,METAR KLGA 311000Z 06005KT 6SM DZ CLR 20/19 A3008 RMK VSBY LWR NE FEW ACLGA7/5 SLP186 T02050188,NA
LGA,1973-07-31T10:30:00Z,-73.8803,40.7794,NA,NA,NA,50,7,NA,30.09,NA,0.25,NA,NA,NA,NA,NA,NA,NA,NA,NA,NA,NA,NA,NA,NA,NA,NA,NA,KLGA 311030Z AUTO 05007KT 1/4SM OBS003 A3009 RMK IEM_DS3505,NA
LGA,1973-07-31T11:00:00Z,-73.8803,40.7794,68,66.9,96.28,70,6,NA,30.1,NA,0.8,NA,   ,   ,   ,   ,NA,NA,NA,NA,NA,NA,NA,NA,NA,NA,NA,68,METAR KLGA 311100Z 06006KT 3/4SM FGDZ BKN005 BKN010 20/19 A3010 RMK R22VR14V60& R04VV11/2V3LGA7/5 SLP193 T02000194,NA
LGA,1973-07-31T12:00:00Z,-73.8803,40.7794,69.1,66.9,92.71,70,8,NA,30.1,NA,5.5,NA,   ,   ,   ,   ,NA,NA,NA,NA,NA,NA,NA,NA,NA,NA,NA,69.1,METAR KLGA 311200Z 06008KT 11/2SM FGDZ BKN005 OVC010 21/19 A3010 RMK ONCLB NOVC LGA7/5 SLP193 T02060194,NA
LGA,1973-07-31T12:10:00Z,-73.8803,40.7794,NA,NA,NA,40,6,NA,30.1,NA,2,NA,BKN,NA,NA,NA,500,NA,NA,NA,NA,NA,NA,NA,NA,NA,NA,NA,KLGA 311210Z AUTO 04006KT 2SM BKN005 A3010 RMK IEM_DS3505,NA
LGA,1973-07-31T13:00:00Z,-73.8803,40.7794,70.9,68,90.55,90,10,NA,30.09,NA,2,NA,   ,   ,   ,   ,NA,NA,NA,NA,NA,NA,NA,NA,NA,NA,NA,71.95,METAR KLGA 311300Z 08010KT 2SM FGDZ BKN008 22/20 A3009 RMK LGA7/5 SLP190 T02160200,NA
LGA,1973-07-31T13:01:00Z,-73.8803,40.7794,NA,NA,NA,80,9,NA,30.09,NA,2,NA,SCT,NA,NA,NA,800,NA,NA,NA,NA,NA,NA,NA,NA,NA,NA,NA,KLGA 311301Z AUTO 08009KT 2SM SCT008 A3009 RMK IEM_DS3505,NA
LGA,1973-07-31T14:00:00Z,-73.8803,40.7794,NA,NA,NA,360,NA,NA,NA,NA,6,NA,   ,   ,   ,   ,NA,NA,NA,NA,NA,NA,NA,NA,NA,NA,NA,NA,METAR KLGA 311400Z /////KT 6SM CLR M/M A//// RMK SLPNO T////////,NA
LGA,1973-07-31T15:00:00Z,-73.8803,40.7794,75.92,66.92,73.68,50,8,NA,30.08,1018.6,5,NA,SCT,   ,   ,   ,2500,NA,NA,NA,DZ,NA,NA,NA,NA,NA,NA,75.92,METAR KLGA 311500Z 05008KT 5SM DZ SCT025 24/19 A3008 RMK LGA7/5 VA SLP186 T02440194,NA
LGA,1973-07-31T16:00:00Z,-73.8803,40.7794,79.88,61.88,54.2,40,10,NA,30.08,1018.6,7,NA,CLR,   ,   ,   ,NA,NA,NA,NA,NA,NA,NA,NA,NA,NA,NA,81.09,METAR KLGA 311600Z 04010KT 7SM CLR 27/17 A3008 RMK LGA7/5 SLP186 T02660166,NA
LGA,1973-07-31T17:00:00Z,-73.8803,40.7794,79.88,65.84,62.27,50,11,NA,30.06,1018,7,NA,SCT,   ,   ,   ,3000,NA,NA,NA,NA,NA,NA,NA,NA,NA,NA,81.91,METAR KLGA 311700Z 05011KT 7SM SCT030 27/19 A3006 RMK LGA7/5 7/20 SLP180 T02660188,NA
LGA,1973-07-31T18:00:00Z,-73.8803,40.7794,80.06,64.94,59.99,40,11,NA,30.06,1018,7,NA,BKN,   ,   ,   ,NA,NA,NA,NA,NA,NA,NA,NA,NA,NA,NA,81.88,METAR KLGA 311800Z 04011KT 7SM BKN/// 27/18 A3006 RMK SLP180 T02670183,NA
LGA,1973-07-31T19:00:00Z,-73.8803,40.7794,79.88,64.94,60.35,50,12,NA,30.05,1017.6,7,NA,SCT,SCT,   ,   ,4000,7000,NA,NA,NA,NA,NA,NA,NA,NA,NA,81.71,METAR KLGA 311900Z 05012KT 7SM SCT040 SCT070 27/18 A3005 RMK LGA7/5 SLP176 T02660183,NA
LGA,1973-07-31T20:00:00Z,-73.8803,40.7794,79.88,66.92,64.64,50,10,NA,30.03,1016.9,7,NA,SCT,   ,   ,   ,4000,NA,NA,NA,NA,NA,NA,NA,NA,NA,NA,82.16,METAR KLGA 312000Z 05010KT 7SM SCT040 27/19 A3003 RMK VALGA7/5 SLP169 T02660194,NA
LGA,1973-07-31T21:00:00Z,-73.8803,40.7794,80.06,68,66.7,50,11,NA,30.02,1016.6,6,NA,BKN,   ,   ,   ,4000,NA,NA,NA,DZ,NA,NA,NA,NA,NA,NA,82.65,METAR KLGA 312100Z 05011KT 6SM DZ BKN040 27/20 A3002 RMK / VALGA7/5 SLP166 8/200 T02670200 57014,NA
LGA,1973-07-31T22:00:00Z,-73.8803,40.7794,77.9,66.92,69,50,10,NA,30.01,1016.3,6,NA,BKN,   ,   ,   ,4000,NA,NA,NA,DZ,NA,NA,NA,NA,NA,NA,77.9,METAR KLGA 312200Z 05010KT 6SM DZ BKN040 25/19 A3001 RMK VALGA7/5 SLP163 T02550194,NA
LGA,1973-07-31T23:00:00Z,-73.8803,40.7794,77,66.92,71.08,50,8,NA,29.99,1015.6,6,NA,SCT,SCT,   ,   ,3000,20000,NA,NA,DZ,NA,NA,NA,NA,NA,NA,77,METAR KLGA 312300Z 05008KT 6SM DZ SCT030 SCT200 25/19 A2999 RMK VALGA7/5 SLP156 T02500194,NA
LGA,1973-08-01T00:00:00Z,-73.8803,40.7794,75.02,66.92,75.93,60,6,NA,30.01,1016.3,5,NA,SCT,CLR,CLR,CLR,19700,NA,NA,NA,NA,NA,NA,NA,NA,NA,NA,75.02,KLGA 010000Z AUTO 06006KT 5SM SCT197 CLR CLR CLR 24/19 A3001 RMK SLP163 T02390194 55003 IEM_DS3505,NA
LGA,1973-08-01T01:00:00Z,-73.8803,40.7794,73.94,66.92,78.72,90,5,NA,30.02,1016.6,5,NA,SCT,NA,NA,NA,19700,NA,NA,NA,NA,NA,NA,NA,NA,NA,NA,73.94,KLGA 010100Z AUTO 09005KT 5SM SCT197 23/19 A3002 RMK SLP166 T02330194 IEM_DS3505,NA
LGA,1973-08-01T02:00:00Z,-73.8803,40.7794,72.86,68,84.74,140,3,NA,30.03,1016.9,6,NA,SCT,NA,NA,NA,19700,NA,NA,NA,NA,NA,NA,NA,NA,NA,NA,72.86,KLGA 010200Z AUTO 14003KT 6SM SCT197 23/20 A3003 RMK SLP169 T02270200 IEM_DS3505,NA
LGA,1973-08-01T03:00:00Z,-73.8803,40.7794,73.04,68,84.22,130,5,NA,30.03,1016.9,6,NA,NA,NA,NA,NA,NA,NA,NA,NA,NA,NA,NA,NA,NA,NA,NA,73.04,KLGA 010300Z AUTO 13005KT 6SM 23/20 A3003 RMK SLP169 T02280200 IEM_DS3505,NA
LGA,1973-08-01T04:00:00Z,-73.8803,40.7794,71.96,68,87.35,200,7,NA,30.02,1016.6,5,NA,CLR,   ,   ,   ,NA,NA,NA,NA,DZ,NA,NA,NA,NA,NA,NA,72.96,METAR KLGA 010400Z 20007KT 5SM DZ CLR 22/20 A3002 RMK LGA7/5 SLP166 T02220200,NA
LGA,1973-08-01T05:00:00Z,-73.8803,40.7794,72,68,87.24,180,6,NA,30.01,NA,4,NA,   ,   ,   ,   ,NA,NA,NA,NA,NA,NA,NA,NA,NA,NA,NA,73,METAR KLGA 010500Z 19006KT 4SM MIBCFGDZ SCT010 22/20 A3001 RMK VSBY LWR WLGA7/5 SLP163 T02220200,NA
LGA,1973-08-01T06:00:00Z,-73.8803,40.7794,71.1,68,89.94,160,5.04,NA,30,NA,4,NA,   ,   ,   ,   ,NA,NA,NA,NA,NA,NA,NA,NA,NA,NA,NA,72.14,METAR KLGA 010600Z 16005KT 4SM FGDZ BKN007 22/20 A3000 RMK LGA7/5 SLP159 T02170200,NA
LGA,1973-08-01T07:00:00Z,-73.8803,40.7794,72,68,87.24,180,5.04,NA,30,NA,3,NA,   ,   ,   ,   ,NA,NA,NA,NA,NA,NA,NA,NA,NA,NA,NA,73,METAR KLGA 010700Z 17005KT 3SM FGDZ BKN006 OVC011 22/20 A3000 RMK LGA7/5 SLP159 T02220200,NA
LGA,1973-08-01T08:00:00Z,-73.8803,40.7794,72,68,87.24,200,4,NA,29.99,NA,3,NA,   ,   ,   ,   ,NA,NA,NA,NA,NA,NA,NA,NA,NA,NA,NA,73,METAR KLGA 010800Z 20004KT 3SM FGDZ OVC008 22/20 A2999 RMK CIG RGDLGA7/5 SLP156 T02220200,NA
LGA,1973-08-01T09:00:00Z,-73.8803,40.7794,71.1,68,89.94,200,4,NA,29.99,NA,3,NA,   ,   ,   ,   ,NA,NA,NA,NA,NA,NA,NA,NA,NA,NA,NA,72.14,METAR KLGA 010900Z 20004KT 3SM FGDZ BKN008 OVC010 22/20 A2999 RMK 16//LGA7/5 SLP156 T02170200 56003,NA
LGA,1973-08-01T10:00:00Z,-73.8803,40.7794,72,68,87.24,250,4,NA,29.99,NA,2,NA,   ,   ,   ,   ,NA,NA,NA,NA,NA,NA,NA,NA,NA,NA,NA,73,METAR KLGA 011000Z 24004KT 2SM FGDZ OVC009 22/20 A2999 RMK / CIG RGDLGA7/5 SLP156 T02220200,NA
LGA,1973-08-01T11:00:00Z,-73.8803,40.7794,72,68,87.24,210,6,NA,29.99,NA,2,NA,   ,   ,   ,   ,NA,NA,NA,NA,NA,NA,NA,NA,NA,NA,NA,73,METAR KLGA 011100Z 21006KT 2SM FGDZ BKN009 OVC025 22/20 A2999 RMK LGA7/5 SLP156 T02220200,NA
LGA,1973-08-01T12:00:00Z,-73.8803,40.7794,73,69.1,87.59,160,6,NA,29.99,NA,2,NA,   ,   ,   ,   ,NA,NA,NA,NA,NA,NA,NA,NA,NA,NA,NA,74.12,METAR KLGA 011200Z 16006KT 2SM FGDZ SCT009 BKN012 OVC025 23/21 A2999 RMK VNALGA7/5 SLP156 T02280206,NA
LGA,1973-08-01T13:00:00Z,-73.8803,40.7794,72.9,68.9,87.28,180,7.04,NA,30,NA,2,NA,   ,   ,   ,   ,NA,NA,NA,NA,NA,NA,NA,NA,NA,NA,NA,73.99,METAR KLGA 011300Z 17007KT 2SM FGDZ BKN012 OVC025 23/20 A3000 RMK VNALGA7/5 SLP159 T02270205,NA
LGA,1973-08-01T14:00:00Z,-73.8803,40.7794,72.9,68.9,87.28,150,7.04,NA,29.99,NA,2,NA,   ,   ,   ,   ,NA,NA,NA,NA,NA,NA,NA,NA,NA,NA,NA,73.99,METAR KLGA 011400Z 15007KT 2SM -SHRA FGDZ BKN012 OVC025 23/20 A2999 RMK RB35/VNALGA7/5 SLP156 T02270205,NA
LGA,1973-08-01T15:00:00Z,-73.8803,40.7794,75.02,68,78.81,160,6,NA,29.98,1015.2,2,NA,SCT,OVC,   ,   ,2000,4000,NA,NA,DZ,NA,NA,NA,NA,NA,NA,75.02,METAR KLGA 011500Z 16006KT 2SM DZ SCT020 OVC040 24/20 A2998 RMK RE01B35E50/VNA/ 15//LGA7/5 SLP152 T02390200 58003,NA
LGA,1973-08-01T16:00:00Z,-73.8803,40.7794,73.94,66.92,78.72,200,8,NA,29.98,1015.2,2,NA,SCT,OVC,   ,   ,2000,4000,NA,NA,DZ,NA,NA,NA,NA,NA,NA,73.94,METAR KLGA 011600Z 20008KT 2SM DZ SCT020 OVC040 23/19 A2998 RMK LGA7/5 SLP152 T02330194,NA
LGA,1973-08-01T17:00:00Z,-73.8803,40.7794,77,68,73.78,160,6,NA,29.98,1015.2,2.5,NA,SCT,OVC,   ,   ,2000,5000,NA,NA,DZ,NA,NA,NA,NA,NA,NA,77,METAR KLGA 011700Z 16006KT 21/2SM DZ SCT020 OVC050 25/20 A2998 RMK VALGA7/5 SLP152 T02500200,NA
LGA,1973-08-01T17:25:00Z,-73.8803,40.7794,NA,NA,NA,170,9,NA,29.97,NA,4,NA,SCT,BKN,NA,NA,3900,9800,NA,NA,NA,NA,NA,NA,NA,NA,NA,NA,KLGA 011725Z AUTO 17009KT 4SM SCT039 BKN098 A2997 RMK IEM_DS3505,NA
LGA,1973-08-01T18:00:00Z,-73.8803,40.7794,80.06,66.02,62.29,160,8,NA,29.96,1014.6,5,NA,SCT,BKN,   ,   ,3000,9000,NA,NA,DZ,NA,NA,NA,NA,NA,NA,82.14,METAR KLGA 011800Z 16008KT 5SM DZ SCT030 BKN090 27/19 A2996 RMK VALGA7/5 SLP146 T02670189,NA
LGA,1973-08-01T19:00:00Z,-73.8803,40.7794,77,68.9,76.1,180,10,NA,29.96,1014.6,6,NA,SCT,OVC,   ,   ,1500,4500,NA,NA,DZ,NA,NA,NA,NA,NA,NA,77,METAR KLGA 011900Z 18010KT 6SM DZ SCT015 OVC045 25/20 A2996 RMK VALGA7/5 SLP146 T02500205,NA
LGA,1973-08-01T20:00:00Z,-73.8803,40.7794,77.9,69.98,76.65,160,13,NA,29.95,1014.2,5,NA,SCT,OVC,   ,   ,1500,4500,NA,NA,DZ,NA,NA,NA,NA,NA,NA,78.99,METAR KLGA 012000Z 16013KT 5SM DZ SCT015 OVC045 25/21 A2995 RMK VALGA7/5 SLP142 T02550211,NA
LGA,1973-08-01T21:00:00Z,-73.8803,40.7794,77,69.08,76.57,160,14,NA,29.94,1013.9,5,NA,BKN,OVC,   ,   ,1500,4500,NA,NA,DZ,NA,NA,NA,NA,NA,NA,77,METAR KLGA 012100Z 16014KT 5SM DZ BKN015 OVC045 25/21 A2994 RMK VALGA7/5 SLP139 8/6// T02500206 58007,NA
LGA,1973-08-01T22:00:00Z,-73.8803,40.7794,75.92,70.88,84.4,170,11,0.02,29.94,1013.9,3,NA,BKN,OVC,   ,   ,1600,2600,NA,NA,DZ,NA,NA,NA,NA,NA,NA,77.18,METAR KLGA 012200Z 17011KT 3SM DZ BKN016 OVC026 24/22 A2994 RMK RB02E43 VALGA7/5 SLP139 P0002 T02440216,NA
LGA,1973-08-01T23:00:00Z,-73.8803,40.7794,75.92,70.88,84.4,160,12,NA,29.93,1013.5,4,NA,SCT,BKN,OVC,   ,1500,3000,10000,NA,DZ,NA,NA,NA,NA,NA,NA,77.18,METAR KLGA 012300Z 16012KT 4SM DZ SCT015 BKN030 OVC100 24/22 A2993 RMK TWR VSBY 3 VALGA7/5 SLP135 T02440216,NA
LGA,1973-08-02T00:00:00Z,-73.8803,40.7794,75.92,71.06,84.92,150,14,NA,29.93,1013.5,3,NA,SCT,BKN,OVC,   ,1500,4500,8000,NA,DZ,NA,NA,NA,NA,NA,NA,77.2,METAR KLGA 020000Z 15014KT 3SM DZ SCT015 BKN045 OVC080 24/22 A2993 RMK LGA7/5 SLP135 60002 T02440217,NA
LGA,1973-08-02T01:00:00Z,-73.8803,40.7794,75.92,70.88,84.4,160,13,NA,29.94,1013.9,4,NA,SCT,OVC,   ,   ,1500,4500,NA,NA,DZ,NA,NA,NA,NA,NA,NA,77.18,METAR KLGA 020100Z 16013KT 4SM DZ SCT015 OVC045 24/22 A2994 RMK LGA7/5 SLP139 T02440216,NA
LGA,1973-08-02T02:00:00Z,-73.8803,40.7794,75.92,70.88,84.4,180,11,NA,29.95,1014.2,4,NA,SCT,BKN,OVC,   ,1500,4500,8000,NA,DZ,NA,NA,NA,NA,NA,NA,77.18,METAR KLGA 020200Z 18011KT 4SM DZ SCT015 BKN045 OVC080 24/22 A2995 RMK LGA7/5 SLP142 T02440216,NA
LGA,1973-08-02T03:00:00Z,-73.8803,40.7794,75.92,71.06,84.92,190,10,NA,29.94,1013.9,4,NA,SCT,BKN,OVC,   ,1300,2000,5000,NA,DZ,NA,NA,NA,NA,NA,NA,77.2,METAR KLGA 020300Z 19010KT 4SM DZ SCT013 BKN020 OVC050 24/22 A2994 RMK / 15//LGA7/5 SLP139 T02440217 50003,NA
LGA,1973-08-02T04:00:00Z,-73.8803,40.7794,77,70.88,81.42,170,11,NA,29.94,1013.9,5,NA,BKN,BKN,OVC,   ,1800,3500,5000,NA,DZ,NA,NA,NA,NA,NA,NA,78.23,METAR KLGA 020400Z 17011KT 5SM DZ BKN018 BKN035 OVC050 25/22 A2994 RMK LGA7/5 SLP139 T02500216,NA
LGA,1973-08-02T05:00:00Z,-73.8803,40.7794,75.92,70.88,84.4,170,9,NA,29.93,1013.5,5,NA,BKN,BKN,OVC,   ,1800,2400,3000,NA,DZ,NA,NA,NA,NA,NA,NA,77.18,METAR KLGA 020500Z 17009KT 5SM DZ BKN018 BKN024 OVC030 24/22 A2993 RMK LGA7/5 SLP135 T02440216,NA
LGA,1973-08-02T06:00:00Z,-73.8803,40.7794,77,71.06,81.92,170,9,NA,29.91,1012.9,5,NA,BKN,BKN,OVC,   ,1400,2000,3100,NA,DZ,NA,NA,NA,NA,NA,NA,78.25,METAR KLGA 020600Z 17009KT 5SM DZ BKN014 BKN020 OVC031 25/22 A2991 RMK WND130V210LGA7/5 SLP129 T02500217,NA
LGA,1973-08-02T07:00:00Z,-73.8803,40.7794,77,71.96,84.46,150,12,NA,29.89,1012.2,5,NA,BKN,BKN,OVC,   ,1200,1600,3400,NA,DZ,NA,NA,NA,NA,NA,NA,78.37,METAR KLGA 020700Z 15012KT 5SM DZ BKN012 BKN016 OVC034 25/22 A2989 RMK WND120%180LGA7/5 SLP122 T02500222,NA
LGA,1973-08-02T08:00:00Z,-73.8803,40.7794,77,72.86,87.07,180,10,NA,29.87,1011.5,5,NA,BKN,OVC,   ,   ,1000,1900,NA,NA,DZ,NA,NA,NA,NA,NA,NA,78.49,METAR KLGA 020800Z 18010KT 5SM DZ BKN010 OVC019 25/23 A2987 RMK WND140V220LGA7/5 SLP115 T02500227,NA
LGA,1973-08-02T09:00:00Z,-73.8803,40.7794,77,73.04,87.6,170,13,NA,29.86,1011.2,5,NA,BKN,BKN,OVC,   ,900,1900,4400,NA,-SHRA DZ,NA,NA,NA,NA,NA,NA,78.52,METAR KLGA 020900Z 17013KT 5SM -SHRA DZ BKN009 BKN019 OVC044 25/23 A2986 RMK RB20 WND 150V190/ 172/LG7/5 SLP112 T02500228 59000,NA
LGA,1973-08-02T10:00:00Z,-73.8803,40.7794,75.92,72.86,90.25,170,15,NA,29.86,1011.2,5,18,BKN,BKN,OVC,   ,800,1200,2300,NA,-SHRA DZ,NA,NA,NA,NA,NA,NA,77.45,METAR KLGA 021000Z 17015G18KT 5SM -SHRA DZ BKN008 BKN012 OVC023 24/23 A2986 RMK RE0855B25 WND 150V190 SLP112 T02440227,NA
LGA,1973-08-02T11:00:00Z,-73.8803,40.7794,75.92,72.86,90.25,180,12,0.1,29.86,1011.2,4,NA,BKN,OVC,   ,   ,800,2000,NA,NA,-RA DZ,NA,NA,NA,NA,NA,NA,77.45,METAR KLGA 021100Z 18012KT 4SM -RA DZ BKN008 OVC020 24/23 A2986 RMK WND 160V200LGA7/5 SLP112 P0010 T02440227,NA
LGA,1973-08-02T12:00:00Z,-73.8803,40.7794,75.02,73.04,93.57,190,14,0.09,29.86,1011.2,5,NA,BKN,OVC,   ,   ,700,1200,NA,NA,-SHRA DZ,NA,NA,NA,NA,NA,NA,76.62,METAR KLGA 021200Z 19014KT 5SM -SHRA DZ BKN007 OVC012 24/23 A2986 RMK LGA7/5 SLP112 P0009 60020 70020 T02390228,NA
LGA,1973-08-02T13:00:00Z,-73.8803,40.7794,74.84,72.86,93.56,180,13,0.03,29.86,1011.2,5,NA,BKN,BKN,OVC,   ,700,1200,14000,NA,-SHRA DZ,NA,NA,NA,NA,NA,NA,76.42,METAR KLGA 021300Z 18013KT 5SM -SHRA DZ BKN007 BKN012 OVC140 24/23 A2986 RMK LGA7/5 SLP112 P0003 T02380227,NA
LGA,1973-08-02T14:00:00Z,-73.8803,40.7794,74.84,72.86,93.56,180,13,0.34,29.85,1010.8,1.5,NA,BKN,OVC,   ,   ,700,1200,NA,NA,-SHRA DZ,NA,NA,NA,NA,NA,NA,76.42,METAR KLGA 021400Z 18013KT 11/2SM -SHRA DZ BKN007 OVC012 24/23 A2985 RMK LGA7/5 SLP108 P0034 T02380227,NA
LGA,1973-08-02T15:00:00Z,-73.8803,40.7794,75.02,73.04,93.57,180,10,0.11,29.86,1011.2,4,NA,BKN,OVC,   ,   ,700,1600,NA,NA,DZ,NA,NA,NA,NA,NA,NA,76.62,METAR KLGA 021500Z 18010KT 4SM DZ BKN007 OVC016 24/23 A2986 RMK RE42 15//LGA7/5 SLP112 P0011 T02390228 55000,NA
LGA,1973-08-02T16:00:00Z,-73.8803,40.7794,77,73.94,90.29,140,7,NA,29.85,1010.8,4,NA,BKN,OVC,   ,   ,700,1500,NA,NA,DZ,NA,NA,NA,NA,NA,NA,78.64,METAR KLGA 021600Z 14007KT 4SM DZ BKN007 OVC015 25/23 A2985 RMK LGA7/5 SLP108 T02500233,NA
LGA,1973-08-02T17:00:00Z,-73.8803,40.7794,77.9,74.84,90.33,150,8,NA,29.85,1010.8,4,NA,BKN,BKN,OVC,   ,700,2500,5000,NA,DZ,NA,NA,NA,NA,NA,NA,80.26,METAR KLGA 021700Z 15008KT 4SM DZ BKN007 BKN025 OVC050 25/24 A2985 RMK LGA7/5 SLP108 T02550238,NA
LGA,1973-08-02T18:00:00Z,-73.8803,40.7794,79.88,74.84,84.63,160,10,NA,29.84,1010.5,4,NA,BKN,BKN,OVC,NA,1100,7900,24600,NA,NA,NA,NA,NA,NA,NA,NA,79.88,KLGA 021800Z AUTO 16010KT 4SM BKN011 BKN079 OVC246 27/24 A2984 RMK SLP105 T02660238 IEM_DS3505,NA
LGA,1973-08-02T19:00:00Z,-73.8803,40.7794,79.88,73.94,82.12,180,14,NA,29.84,1010.5,7,NA,BKN,BKN,OVC,   ,1200,8000,25000,NA,NA,NA,NA,NA,NA,NA,NA,84.25,METAR KLGA 021900Z 18014KT 7SM BKN012 BKN080 OVC250 27/23 A2984 RMK LGA7/5 SLP105 T02660233,NA
LGA,1973-08-02T20:00:00Z,-73.8803,40.7794,79.88,73.94,82.12,180,13,NA,29.83,1010.2,7,NA,SCT,BKN,OVC,   ,1200,2300,8000,NA,-SHRA,NA,NA,NA,NA,NA,NA,84.25,METAR KLGA 022000Z 18013KT 7SM -SHRA SCT012 BKN023 OVC080 27/23 A2983 RMK RB45LGA7/5 SLP102 T02660233,NA
LGA,1973-08-02T21:00:00Z,-73.8803,40.7794,77,73.04,87.6,160,14,0.01,29.82,1009.8,7,NA,SCT,BKN,OVC,   ,900,2000,8000,NA,-SHRA,NA,NA,NA,NA,NA,NA,78.52,METAR KLGA 022100Z 16014KT 7SM -SHRA SCT009 BKN020 OVC080 25/23 A2982 RMK / 157/L SLP098 P0001 T02500228 58007,NA
LGA,1973-08-02T22:00:00Z,-73.8803,40.7794,75.92,73.94,93.59,160,10,0.02,29.82,1009.8,7,NA,SCT,BKN,OVC,   ,800,3000,8000,NA,-SHRA,NA,NA,NA,NA,NA,NA,77.61,METAR KLGA 022200Z 16010KT 7SM -SHRA SCT008 BKN030 OVC080 24/23 A2982 RMK LGA7/5 SLP098 P0002 T02440233,NA
LGA,1973-08-02T22:15:00Z,-73.8803,40.7794,NA,NA,NA,170,11,NA,29.82,NA,6,NA,BKN,BKN,OVC,NA,700,3000,7900,NA,NA,NA,NA,NA,NA,NA,NA,NA,KLGA 022215Z AUTO 17011KT 6SM BKN007 BKN030 OVC079 A2982 RMK IEM_DS3505,NA
LGA,1973-08-02T23:00:00Z,-73.8803,40.7794,75.92,73.94,93.59,160,10,NA,29.82,1009.8,5,NA,BKN,BKN,BKN,OVC,700,2000,6000,10000,DZ,NA,NA,NA,NA,NA,NA,77.61,METAR KLGA 022300Z 16010KT 5SM DZ BKN007 BKN020 BKN060 OVC100 24/23 A2982 RMK RE10LGA7/5 SLP098 T02440233,NA
LGA,1973-08-03T00:00:00Z,-73.8803,40.7794,75.92,73.94,93.59,160,7,NA,29.83,1010.2,4,NA,SCT,BKN,   ,   ,700,10000,NA,NA,DZ,NA,NA,NA,NA,NA,NA,77.61,METAR KLGA 030000Z 16007KT 4SM DZ SCT007 BKN100 24/23 A2983 RMK RB01E15LGA7/5 SLP102 60004 T02440233,NA
LGA,1973-08-03T01:00:00Z,-73.8803,40.7794,75.92,72.86,90.25,170,6,NA,29.85,1010.8,4,NA,BKN,BKN,   ,   ,600,8000,NA,NA,DZ,NA,NA,NA,NA,NA,NA,77.45,METAR KLGA 030100Z 17006KT 4SM DZ BKN006 BKN080 24/23 A2985 RMK LGA7/5 SLP108 T02440227,NA
LGA,1973-08-03T02:00:00Z,-73.8803,40.7794,75.92,72.86,90.25,170,7,NA,29.85,1010.8,6,NA,SCT,BKN,   ,   ,600,7000,NA,NA,DZ,NA,NA,NA,NA,NA,NA,77.45,METAR KLGA 030200Z 17007KT 6SM DZ SCT006 BKN070 24/23 A2985 RMK LGA7/5 SLP108 T02440227,NA
LGA,1973-08-03T03:00:00Z,-73.8803,40.7794,75,73,93.51,180,6,NA,29.86,NA,5,NA,   ,   ,   ,   ,NA,NA,NA,NA,NA,NA,NA,NA,NA,NA,NA,76.59,METAR KLGA 030300Z 18006KT 5SM FGDZ SCT006 BKN070 24/23 A2986 RMK 1670LGA C8/17/5 ^ SLP112 T02390228 51010,NA
LGA,1973-08-03T04:00:00Z,-73.8803,40.7794,74.8,72,91.01,NA,0,NA,29.87,NA,5,NA,   ,   ,   ,   ,NA,NA,NA,NA,NA,NA,NA,NA,NA,NA,NA,76.26,METAR KLGA 030400Z 00000KT 5SM FGDZ SCT005 BKN070 24/22 A2987 RMK LGA7/5 SLP115 T02380222,NA
LGA,1973-08-03T05:00:00Z,-73.8803,40.7794,74.8,72,91.01,NA,0,NA,29.87,NA,4,NA,   ,   ,   ,   ,NA,NA,NA,NA,NA,NA,NA,NA,NA,NA,NA,76.26,METAR KLGA 030500Z 00000KT 4SM MIBCFGDZ BKN024 OVC070 24/22 A2987 RMK LGA7/5 SLP115 T02380222,NA
LGA,1973-08-03T06:00:00Z,-73.8803,40.7794,75,72,90.4,200,4,NA,29.87,NA,4,NA,   ,   ,   ,   ,NA,NA,NA,NA,NA,NA,NA,NA,NA,NA,NA,76.45,METAR KLGA 030600Z 20004KT 4SM FGDZ SCT017 BKN023 OVC070 24/22 A2987 RMK LGA7/5 SLP115 T02390222,NA
LGA,1973-08-03T07:00:00Z,-73.8803,40.7794,74.8,72,91.01,210,4,NA,29.88,NA,4,NA,   ,   ,   ,   ,NA,NA,NA,NA,NA,NA,NA,NA,NA,NA,NA,76.26,METAR KLGA 030700Z 21004KT 4SM MIBCFGDZ BKN016 OVC070 24/22 A2988 RMK SLP119 T02380222,NA
LGA,1973-08-03T08:00:00Z,-73.8803,40.7794,74.8,72,91.01,200,4,NA,29.87,NA,4,NA,   ,   ,   ,   ,NA,NA,NA,NA,NA,NA,NA,NA,NA,NA,NA,76.26,METAR KLGA 030800Z 20004KT 4SM MIBCFGDZ SCT016 OVC070 24/22 A2987 RMK LGA7/5 SLP115 T02380222,NA
LGA,1973-08-03T09:00:00Z,-73.8803,40.7794,75,72,90.4,NA,0,NA,29.87,NA,4,NA,   ,   ,   ,   ,NA,NA,NA,NA,NA,NA,NA,NA,NA,NA,NA,76.45,METAR KLGA 030900Z 00000KT 4SM FGDZ BKN010 OVC060 24/22 A2987 RMK / 15//LGA7/5 SLP115 T02390222 55000,NA
LGA,1973-08-03T10:00:00Z,-73.8803,40.7794,74.8,72,91.01,180,6,NA,29.88,NA,2,NA,   ,   ,   ,   ,NA,NA,NA,NA,NA,NA,NA,NA,NA,NA,NA,76.26,METAR KLGA 031000Z 18006KT 2SM FGDZ SCT010 OVC060 24/22 A2988 RMK LGA7/5 SLP119 T02380222,NA
LGA,1973-08-03T11:00:00Z,-73.8803,40.7794,74.8,72,91.01,180,6,NA,29.89,NA,2,NA,   ,   ,   ,   ,NA,NA,NA,NA,NA,NA,NA,NA,NA,NA,NA,76.26,METAR KLGA 031100Z 17006KT 2SM FGDZ BKN009 OVC060 24/22 A2989 RMK BINOVC OVHDLGA7/5 SLP122 T02380222,NA
LGA,1973-08-03T12:00:00Z,-73.8803,40.7794,75,72,90.4,180,5.04,NA,29.9,NA,2,NA,   ,   ,   ,   ,NA,NA,NA,NA,NA,NA,NA,NA,NA,NA,NA,76.45,METAR KLGA 031200Z 17005KT 2SM FGDZ BKN013 OVC050 24/22 A2990 RMK LGA7/5 SLP125 70051 T02390222,NA
LGA,1973-08-03T13:00:00Z,-73.8803,40.7794,75.9,72.9,90.43,180,5.04,NA,29.92,NA,2,NA,   ,   ,   ,   ,NA,NA,NA,NA,NA,NA,NA,NA,NA,NA,NA,77.44,METAR KLGA 031300Z 17005KT 2SM FGDZ BKN013 OVC050 24/23 A2992 RMK LGA CLSD7/5 SLP132 T02440227 580/2,NA
LGA,1973-08-03T14:00:00Z,-73.8803,40.7794,79,73.9,84.41,70,5.04,NA,29.91,NA,2,NA,   ,   ,   ,   ,NA,NA,NA,NA,NA,NA,NA,NA,NA,NA,NA,82.53,METAR KLGA 031400Z 07005KT 2SM FUDZ BKN015 OVC050 26/23 A2991 RMK NV%LGA7/5 SLP129 T02610233 580/2,NA
LGA,1973-08-03T15:00:00Z,-73.8803,40.7794,79,73.9,84.41,70,8,NA,29.91,NA,2,NA,   ,   ,   ,   ,NA,NA,NA,NA,NA,NA,NA,NA,NA,NA,NA,82.53,METAR KLGA 031500Z 07008KT 2SM FUDZ BKN015 OVC060 26/23 A2991 RMK / V% 15//LGA7/5 8/2 SLP129 T02610233 51003,NA
LGA,1973-08-03T16:00:00Z,-73.8803,40.7794,79.9,73.9,81.95,20,7.04,NA,29.92,NA,2,NA,   ,   ,   ,   ,NA,NA,NA,NA,NA,NA,NA,NA,NA,NA,NA,84.27,METAR KLGA 031600Z 02007KT 2SM FUDZ BKN015 OVC060 27/23 A2992 RMK SFC VSBY 3LGA7/5 SLP132 T02660233 580/2,NA
LGA,1973-08-03T17:00:00Z,-73.8803,40.7794,79,73.9,84.41,20,6,0.18,29.92,NA,2,NA,   ,   ,   ,   ,NA,NA,NA,NA,NA,NA,NA,NA,NA,NA,NA,82.53,METAR KLGA 031700Z 02006KT 2SM -SHRA FUDZ BKN015 OVC060 26/23 A2992 RMK RB40LGA7/5 8/3 SLP132 P0018 T02610233 580/2,NA
LGA,1973-08-03T17:17:00Z,-73.8803,40.7794,NA,NA,NA,150,8,NA,29.93,NA,2,NA,SCT,BKN,OVC,NA,1500,3000,3900,NA,NA,NA,NA,NA,NA,NA,NA,NA,KLGA 031717Z AUTO 15008KT 2SM SCT015 BKN030 OVC039 A2993 RMK IEM_DS3505,NA
LGA,1973-08-03T18:00:00Z,-73.8803,40.7794,75.9,71.1,85.09,40,5.04,0.67,29.93,NA,10.5,NA,   ,   ,   ,   ,NA,NA,NA,NA,NA,NA,NA,NA,NA,NA,NA,77.19,METAR KLGA 031800Z 04005KT 21/2SM -SHRA FUDZ SCT015 BKN030 OVC070 24/22 A2993 RMK PCPN 85LGA7/5 8/3 SLP135 P0067 60087 T02440217 580/2,NA
LGA,1973-08-03T18:11:00Z,-73.8803,40.7794,NA,NA,NA,80,7,NA,29.93,NA,3,NA,SCT,OVC,NA,NA,3000,6900,NA,NA,NA,NA,NA,NA,NA,NA,NA,NA,KLGA 031811Z AUTO 08007KT 3SM SCT030 OVC069 A2993 RMK IEM_DS3505,NA
LGA,1973-08-03T19:00:00Z,-73.8803,40.7794,79.9,70.9,74.05,360,6,NA,29.93,NA,3,NA,   ,   ,   ,   ,NA,NA,NA,NA,NA,NA,NA,NA,NA,NA,NA,83.28,METAR KLGA 031900Z 01006KT 3SM FUDZ SCT015 BKN050 OVC070 27/22 A2993 RMK RE05LGA7/5 8/3 SLP135 T02660216 580/8,NA
LGA,1973-08-03T20:00:00Z,-73.8803,40.7794,79.9,74.8,84.46,120,6,NA,29.93,NA,3,NA,   ,   ,   ,   ,NA,NA,NA,NA,NA,NA,NA,NA,NA,NA,NA,84.61,METAR KLGA 032000Z 12006KT 3SM FUDZ BKN040 OVC080 27/24 A2993 RMK LGA7/5 8/3 SLP135 T02660238 580/2,NA
LGA,1973-08-03T21:00:00Z,-73.8803,40.7794,81,75,82.03,180,7.04,NA,29.93,NA,3,NA,   ,   ,   ,   ,NA,NA,NA,NA,NA,NA,NA,NA,NA,NA,NA,86.83,METAR KLGA 032100Z 19007KT 3SM FUDZ SCT015 BKN040 OVC080 27/24 A2993 RMK 167/LGA7/5 8/2 8/3 SLP135 T02720239 411781178 54000,NA
LGA,1973-08-03T22:00:00Z,-73.8803,40.7794,73.9,68.9,84.39,30,11.04,0.07,29.94,NA,3,NA,   ,   ,   ,   ,NA,NA,NA,NA,NA,NA,NA,NA,NA,NA,NA,74.96,METAR KLGA 032200Z 03011KT 3SM -SHRA FUDZ SCT015 BKN042 OVC080 23/20 A2994 RMK VSBY E2/ RB04LGA7/5 8/3 SLP139 P0007 T02330205 580/2,NA
LGA,1973-08-03T23:00:00Z,-73.8803,40.7794,75.9,68.9,78.93,360,10,NA,29.94,NA,3,NA,   ,   ,   ,   ,NA,NA,NA,NA,NA,NA,NA,NA,NA,NA,NA,75.9,METAR KLGA 032300Z 01010KT 3SM FUDZ BKN040 OVC080 24/20 A2994 RMK RE30LGA7/5 SLP139 T02440205 580/3,NA
LGA,1973-08-04T00:00:00Z,-73.8803,40.7794,75.9,72,87.73,340,6,NA,29.95,NA,3,NA,   ,   ,   ,   ,NA,NA,NA,NA,NA,NA,NA,NA,NA,NA,NA,77.31,METAR KLGA 040000Z 34006KT 3SM FUDZ BKN040 OVC080 24/22 A2995 RMK LGA7/5 SLP142 60008 T02440222 580/3,NA
LGA,1973-08-04T01:00:00Z,-73.8803,40.7794,77,70,79.02,NA,0,NA,29.96,NA,5,NA,   ,   ,   ,   ,NA,NA,NA,NA,NA,NA,NA,NA,NA,NA,NA,78.11,METAR KLGA 040100Z 00000KT 5SM FUDZ SCT015 SCT040 OVC080 25/21 A2996 RMK VALGA7/5 SLP146 T02500211 580/3,NA
LGA,1973-08-04T02:00:00Z,-73.8803,40.7794,74.8,70,85.02,NA,0,NA,29.97,NA,4,NA,   ,   ,   ,   ,NA,NA,NA,NA,NA,NA,NA,NA,NA,NA,NA,75.98,METAR KLGA 040200Z 00000KT 4SM FUDZ SCT020 OVC080 24/21 A2997 RMK VALGA7/5 SLP149 T02380211 580/3,NA
LGA,1973-08-04T03:00:00Z,-73.8803,40.7794,79,70,73.97,NA,0,NA,29.97,NA,4,NA,   ,   ,   ,   ,NA,NA,NA,NA,NA,NA,NA,NA,NA,NA,NA,81.72,METAR KLGA 040300Z 00000KT 4SM FUDZ SCT040 OVC080 26/21 A2997 RMK / VALGA7/5 8/3 SLP149 8/57/ T02610211 51007,NA
LGA,1973-08-04T04:00:00Z,-73.8803,40.7794,79,70,73.97,NA,0,NA,29.98,NA,4,NA,   ,   ,   ,   ,NA,NA,NA,NA,NA,NA,NA,NA,NA,NA,NA,81.72,METAR KLGA 040400Z 00000KT 4SM FUDZ OVC070 26/21 A2998 RMK LGA7/5 SLP152 T02610211 580/3,NA
LGA,1973-08-04T05:00:00Z,-73.8803,40.7794,77,70.9,81.48,NA,0,NA,29.98,NA,4,NA,   ,   ,   ,   ,NA,NA,NA,NA,NA,NA,NA,NA,NA,NA,NA,78.23,METAR KLGA 040500Z 00000KT 4SM FUDZ OVC070 25/22 A2998 RMK LGA7/5 SLP152 T02500216 580/3,NA
LGA,1973-08-04T06:00:00Z,-73.8803,40.7794,77,71.1,82.03,310,4,NA,29.98,NA,3,NA,   ,   ,   ,   ,NA,NA,NA,NA,NA,NA,NA,NA,NA,NA,NA,78.26,METAR KLGA 040600Z 31004KT 3SM FUDZ OVC070 25/22 A2998 RMK LGA7/5 SLP152 T02500217 580/3,NA
LGA,1973-08-04T07:00:00Z,-73.8803,40.7794,74.8,70.9,87.67,300,4,NA,29.97,NA,3,NA,   ,   ,   ,   ,NA,NA,NA,NA,NA,NA,NA,NA,NA,NA,NA,76.1,METAR KLGA 040700Z 30004KT 3SM FUDZ SCT030 OVC080 24/22 A2997 RMK LGA7/5 SLP149 T02380216 580/3,NA
LGA,1973-08-04T08:00:00Z,-73.8803,40.7794,74.8,70.9,87.67,NA,0,NA,29.98,NA,3,NA,   ,   ,   ,   ,NA,NA,NA,NA,NA,NA,NA,NA,NA,NA,NA,76.1,METAR KLGA 040800Z 00000KT 3SM FUDZ OVC080 24/22 A2998 RMK LGA7/5 SLP152 T02380216 580/3,NA
LGA,1973-08-04T09:00:00Z,-73.8803,40.7794,75,71.1,87.68,NA,0,NA,29.98,NA,3,NA,   ,   ,   ,   ,NA,NA,NA,NA,NA,NA,NA,NA,NA,NA,NA,76.32,METAR KLGA 040900Z 00000KT 3SM FUDZ OVC080 24/22 A2998 RMK / 107/LGA7/5 8/3 SLP152 T02390217 53002,NA
LGA,1973-08-04T10:00:00Z,-73.8803,40.7794,74.8,68.9,81.88,360,4,NA,30,NA,10.5,NA,   ,   ,   ,   ,NA,NA,NA,NA,NA,NA,NA,NA,NA,NA,NA,75.83,METAR KLGA 041000Z 35004KT 21/2SM FUDZ SCT025 OVC080 24/20 A3000 RMK LGA7/5 SLP159 T02380205 580/3,NA
LGA,1973-08-04T11:00:00Z,-73.8803,40.7794,74.8,68.9,81.88,340,4,NA,30.01,NA,10.5,NA,   ,   ,   ,   ,NA,NA,NA,NA,NA,NA,NA,NA,NA,NA,NA,75.83,METAR KLGA 041100Z 34004KT 21/2SM FUDZ BKN030 OVC080 24/20 A3001 RMK LGA7/5 SLP163 T02380205 580/3,NA
LGA,1973-08-04T11:30:00Z,-73.8803,40.7794,NA,NA,NA,10,6,NA,30.02,NA,3,NA,SCT,OVC,NA,NA,3000,7900,NA,NA,NA,NA,NA,NA,NA,NA,NA,NA,KLGA 041130Z AUTO 01006KT 3SM SCT030 OVC079 A3002 RMK IEM_DS3505,NA
LGA,1973-08-04T12:00:00Z,-73.8803,40.7794,75,68,78.86,20,6,NA,30.03,NA,3,NA,   ,   ,   ,   ,NA,NA,NA,NA,NA,NA,NA,NA,NA,NA,NA,75,METAR KLGA 041200Z 02006KT 3SM FUDZ SCT030 BKN080 24/20 A3003 RMK VALGA7/5 SLP169 T02390200 580/3,NA
LGA,1973-08-04T14:00:00Z,-73.8803,40.7794,79.88,68.9,69.21,30,7,NA,30.05,1017.6,6,NA,CLR,   ,   ,   ,NA,NA,NA,NA,DZ,NA,NA,NA,NA,NA,NA,82.67,METAR KLGA 041400Z 03007KT 6SM DZ CLR 27/20 A3005 RMK VALGA7/5 SLP176 T02660205 580/3,NA
LGA,1973-08-04T15:00:00Z,-73.8803,40.7794,80.06,68,66.7,40,6,NA,30.05,1017.6,6,NA,CLR,   ,   ,   ,NA,NA,NA,NA,DZ,NA,NA,NA,NA,NA,NA,82.65,METAR KLGA 041500Z 04006KT 6SM DZ CLR 27/20 A3005 RMK VA/ 107LGA7/5 SLP176 T02670200 580/3,NA
LGA,1973-08-04T17:00:00Z,-73.8803,40.7794,82.94,64.94,54.63,10,6,NA,30.04,1017.3,7,NA,SCT,   ,   ,   ,4500,NA,NA,NA,NA,NA,NA,NA,NA,NA,NA,84.7,METAR KLGA 041700Z 01006KT 7SM SCT045 28/18 A3004 RMK VALGA7/5 SLP173 T02830183 580/3,NA
LGA,1973-08-04T18:00:00Z,-73.8803,40.7794,84.92,66.02,53.21,60,5,NA,30.03,1016.9,7,NA,SCT,   ,   ,   ,4500,NA,NA,NA,NA,NA,NA,NA,NA,NA,NA,87.16,METAR KLGA 041800Z 06005KT 7SM SCT045 29/19 A3003 RMK VALGA7/5 SLP169 T02940189 580/3,NA
LGA,1973-08-04T19:00:00Z,-73.8803,40.7794,84.92,65.84,52.88,30,5,NA,30.02,1016.6,7,NA,SCT,   ,   ,   ,5000,NA,NA,NA,NA,NA,NA,NA,NA,NA,NA,87.08,METAR KLGA 041900Z 03005KT 7SM SCT050 29/19 A3002 RMK VALGA7/5 SLP166 T02940188 580/3,NA
LGA,1973-08-04T20:00:00Z,-73.8803,40.7794,86,68,55.04,320,6,NA,30.02,1016.6,7,NA,SCT,   ,   ,   ,5000,NA,NA,NA,NA,NA,NA,NA,NA,NA,NA,89.41,METAR KLGA 042000Z 32006KT 7SM SCT050 30/20 A3002 RMK LGA7/5 SLP166 T03000200 580/3,NA
LGA,1973-08-04T21:00:00Z,-73.8803,40.7794,86,66.02,51.4,290,7,NA,30.02,1016.6,7,NA,SCT,   ,   ,   ,5000,NA,NA,NA,NA,NA,NA,NA,NA,NA,NA,88.29,METAR KLGA 042100Z 29007KT 7SM SCT050 30/19 A3002 RMK 1200LGA7/5 8/3 SLP166 T03000189 56003,NA
LGA,1973-08-04T22:00:00Z,-73.8803,40.7794,84.92,64.94,51.25,300,7,NA,30.02,1016.6,7,NA,SCT,   ,   ,   ,5000,NA,NA,NA,NA,NA,NA,NA,NA,NA,NA,86.66,METAR KLGA 042200Z 30007KT 7SM SCT050 29/18 A3002 RMK LGA7/5 SLP166 T02940183 580/3,NA
LGA,1973-08-04T23:00:00Z,-73.8803,40.7794,81.86,66.92,60.6,300,8,NA,30.02,1016.6,7,NA,SCT,   ,   ,   ,5000,NA,NA,NA,NA,NA,NA,NA,NA,NA,NA,84.34,METAR KLGA 042300Z 30008KT 7SM SCT050 28/19 A3002 RMK LGA7/5 SLP166 T02770194 580/3,NA
LGA,1973-08-05T00:00:00Z,-73.8803,40.7794,82.04,64.94,56.24,300,7,NA,30.04,1017.3,7,NA,SCT,   ,   ,   ,4500,NA,NA,NA,NA,NA,NA,NA,NA,NA,NA,83.82,METAR KLGA 050000Z 30007KT 7SM SCT045 28/18 A3004 RMK LGA7/5 SLP173 T02780183 580/3,NA
LGA,1973-08-05T01:00:00Z,-73.8803,40.7794,79.88,63.86,58.11,310,8,NA,30.06,1018,7,NA,BKN,   ,   ,   ,5000,NA,NA,NA,NA,NA,NA,NA,NA,NA,NA,81.48,METAR KLGA 050100Z 31008KT 7SM BKN050 27/18 A3006 RMK RB30E50LGA7/5 SLP180 T02660177 580/3,NA
LGA,1973-08-05T02:00:00Z,-73.8803,40.7794,77.9,62.96,60.1,320,6,NA,30.07,1018.3,7,NA,SCT,   ,   ,   ,5000,NA,NA,NA,NA,NA,NA,NA,NA,NA,NA,77.9,METAR KLGA 050200Z 32006KT 7SM SCT050 25/17 A3007 RMK LGA7/5 SLP183 T02550172,NA
LGA,1973-08-05T03:00:00Z,-73.8803,40.7794,77,62.06,59.98,330,9,NA,30.08,1018.6,7,NA,SCT,   ,   ,   ,5000,NA,NA,NA,NA,NA,NA,NA,NA,NA,NA,77,METAR KLGA 050300Z 33009KT 7SM SCT050 25/17 A3008 RMK 1200LGA7/5 SLP186 T02500167 51014,NA
LGA,1973-08-05T04:00:00Z,-73.8803,40.7794,75.92,61.88,61.78,310,8,NA,30.09,1019,7,NA,SCT,   ,   ,   ,5000,NA,NA,NA,NA,NA,NA,NA,NA,NA,NA,75.92,METAR KLGA 050400Z 31008KT 7SM SCT050 24/17 A3009 RMK LGA7/5 SLP190 T02440166,NA
LGA,1973-08-05T05:00:00Z,-73.8803,40.7794,74.84,62.96,66.53,310,6,NA,30.1,1019.3,10,NA,CLR,   ,   ,   ,NA,NA,NA,NA,NA,NA,NA,NA,NA,NA,NA,74.84,METAR KLGA 050500Z 31006KT 10SM CLR 24/17 A3010 RMK LGA7/5 SLP193 T02380172,NA
LGA,1973-08-05T06:00:00Z,-73.8803,40.7794,73.94,62.06,66.43,340,5,NA,30.1,1019.3,15,NA,CLR,   ,   ,   ,NA,NA,NA,NA,NA,NA,NA,NA,NA,NA,NA,73.94,METAR KLGA 050600Z 34005KT 15SM CLR 23/17 A3010 RMK LGA7/5 SLP193 T02330167,NA
LGA,1973-08-05T07:00:00Z,-73.8803,40.7794,72.86,59.9,63.81,340,4,NA,30.1,1019.3,15,NA,CLR,   ,   ,   ,NA,NA,NA,NA,NA,NA,NA,NA,NA,NA,NA,72.86,METAR KLGA 050700Z 34004KT 15SM CLR 23/16 A3010 RMK LGA7/5 SLP193 T02270155,NA
LGA,1973-08-05T08:00:00Z,-73.8803,40.7794,71.96,61.88,70.56,330,4,NA,30.11,1019.6,15,NA,CLR,   ,   ,   ,NA,NA,NA,NA,NA,NA,NA,NA,NA,NA,NA,71.96,METAR KLGA 050800Z 33004KT 15SM CLR 22/17 A3011 RMK FEW CILGA7/5 SLP196 T02220166,NA
LGA,1973-08-05T09:00:00Z,-73.8803,40.7794,71.06,60.08,68.25,290,6,NA,30.11,1019.6,15,NA,CLR,   ,   ,   ,NA,NA,NA,NA,NA,NA,NA,NA,NA,NA,NA,71.06,METAR KLGA 050900Z 29006KT 15SM CLR 22/16 A3011 RMK / 205LGA7/5 SLP196 T02170156,NA
LGA,1973-08-05T10:00:00Z,-73.8803,40.7794,69.98,60.98,73.11,320,5,NA,30.11,1019.6,15,NA,SCT,   ,   ,   ,30000,NA,NA,NA,NA,NA,NA,NA,NA,NA,NA,69.98,METAR KLGA 051000Z 32005KT 15SM SCT300 21/16 A3011 RMK LGA7/5 SLP196 T02110161,NA
LGA,1973-08-05T11:00:00Z,-73.8803,40.7794,70.88,59.9,68.23,290,6,NA,30.12,1020,15,NA,SCT,   ,   ,   ,30000,NA,NA,NA,NA,NA,NA,NA,NA,NA,NA,70.88,METAR KLGA 051100Z 29006KT 15SM SCT300 22/16 A3012 RMK VALGA7/5 SLP200 T02160155,NA
LGA,1973-08-05T12:00:00Z,-73.8803,40.7794,73.94,60.08,61.92,310,7,NA,30.14,1020.7,15,NA,SCT,   ,   ,   ,30000,NA,NA,NA,NA,NA,NA,NA,NA,NA,NA,73.94,METAR KLGA 051200Z 31007KT 15SM SCT300 23/16 A3014 RMK LGA7/5 SLP207 T02330156,NA
LGA,1973-08-05T13:00:00Z,-73.8803,40.7794,74.84,60.98,62.04,310,8,NA,30.14,1020.7,15,NA,SCT,   ,   ,   ,25000,NA,NA,NA,NA,NA,NA,NA,NA,NA,NA,74.84,METAR KLGA 051300Z 31008KT 15SM SCT250 24/16 A3014 RMK LGA7/5 SLP207 T02380161,NA
LGA,1973-08-05T14:00:00Z,-73.8803,40.7794,77,62.96,61.91,300,8,NA,30.14,1020.7,15,NA,SCT,   ,   ,   ,25000,NA,NA,NA,NA,NA,NA,NA,NA,NA,NA,77,METAR KLGA 051400Z 30008KT 15SM SCT250 25/17 A3014 RMK LGA7/5 SLP207 T02500172,NA
LGA,1973-08-05T15:00:00Z,-73.8803,40.7794,80.06,62.96,55.97,320,6,NA,30.15,1021,15,NA,SCT,   ,   ,   ,25000,NA,NA,NA,NA,NA,NA,NA,NA,NA,NA,81.45,METAR KLGA 051500Z 32006KT 15SM SCT250 27/17 A3015 RMK 1101LGA7/5 SLP210 T02670172 53005,NA
LGA,1973-08-05T16:00:00Z,-73.8803,40.7794,80.96,62.96,54.35,300,7,NA,30.13,1020.3,15,NA,SCT,   ,   ,   ,25000,NA,NA,NA,NA,NA,NA,NA,NA,NA,NA,82.24,METAR KLGA 051600Z 30007KT 15SM SCT250 27/17 A3013 RMK FEW CULGA7/5 SLP203 T02720172,NA
LGA,1973-08-05T17:00:00Z,-73.8803,40.7794,82.94,60.98,47.52,320,8,NA,30.11,1019.6,15,NA,SCT,   ,   ,   ,4500,NA,NA,NA,NA,NA,NA,NA,NA,NA,NA,83.4,METAR KLGA 051700Z 32008KT 15SM SCT045 28/16 A3011 RMK VALGA7/5 SLP196 T02830161,NA
LGA,1973-08-05T18:00:00Z,-73.8803,40.7794,82.94,60.08,46.03,310,10,NA,30.1,1019.3,15,NA,SCT,   ,   ,   ,4500,NA,NA,NA,NA,NA,NA,NA,NA,NA,NA,83.16,METAR KLGA 051800Z 31010KT 15SM SCT045 28/16 A3010 RMK VALGA7/5 SLP193 T02830156,NA
LGA,1973-08-05T19:00:00Z,-73.8803,40.7794,83.84,56.84,39.81,310,8,NA,30.09,1019,15,NA,SCT,   ,   ,   ,4500,NA,NA,NA,NA,NA,NA,NA,NA,NA,NA,83.84,METAR KLGA 051900Z 31008KT 15SM SCT045 29/14 A3009 RMK VALGA7/5 SLP190 T02880138,NA
LGA,1973-08-05T20:00:00Z,-73.8803,40.7794,84.92,59.9,42.91,320,8,NA,30.08,1018.6,15,NA,SCT,   ,   ,   ,4500,NA,NA,NA,NA,NA,NA,NA,NA,NA,NA,84.79,METAR KLGA 052000Z 32008KT 15SM SCT045 29/16 A3008 RMK VALGA7/5 SLP186 T02940155,NA
LGA,1973-08-05T21:00:00Z,-73.8803,40.7794,84.92,60.08,43.18,310,10,NA,30.07,1018.3,15,NA,SCT,   ,   ,   ,4500,NA,NA,NA,NA,NA,NA,NA,NA,NA,NA,84.84,METAR KLGA 052100Z 31010KT 15SM SCT045 29/16 A3007 RMK / VALGA7/5 SLP183 8/100 T02940156 57010,NA
LGA,1973-08-05T22:00:00Z,-73.8803,40.7794,83.84,59.9,44.42,310,8,NA,30.06,1018,15,NA,SCT,   ,   ,   ,5000,NA,NA,NA,NA,NA,NA,NA,NA,NA,NA,83.86,METAR KLGA 052200Z 31008KT 15SM SCT050 29/16 A3006 RMK VALGA7/5 SLP180 T02880155,NA
LGA,1973-08-05T23:00:00Z,-73.8803,40.7794,82.94,59.9,45.73,320,7,NA,30.07,1018.3,15,NA,SCT,   ,   ,   ,5000,NA,NA,NA,NA,NA,NA,NA,NA,NA,NA,83.11,METAR KLGA 052300Z 32007KT 15SM SCT050 28/16 A3007 RMK LGA7/5 SLP183 T02830155,NA
LGA,1973-08-06T00:00:00Z,-73.8803,40.7794,80.96,57.92,45.44,350,6,NA,30.06,1018,15,NA,SCT,   ,   ,   ,5000,NA,NA,NA,NA,NA,NA,NA,NA,NA,NA,81.18,METAR KLGA 060000Z 35006KT 15SM SCT050 27/14 A3006 RMK VALGA7/5 SLP180 T02720144,NA
LGA,1973-08-06T02:00:00Z,-73.8803,40.7794,78.98,60.98,54.08,310,5,NA,30.09,1019,15,NA,CLR,   ,   ,   ,NA,NA,NA,NA,NA,NA,NA,NA,NA,NA,NA,80.24,METAR KLGA 060200Z 31005KT 15SM CLR 26/16 A3009 RMK LGA7/5 SLP190 T02610161,NA
LGA,1973-08-06T03:00:00Z,-73.8803,40.7794,77,62.06,59.98,310,4,NA,30.1,1019.3,15,NA,CLR,   ,   ,   ,NA,NA,NA,NA,NA,NA,NA,NA,NA,NA,NA,77,METAR KLGA 060300Z 31004KT 15SM CLR 25/17 A3010 RMK 112LGA7/5 SLP193 T02500167,NA
LGA,1973-08-06T04:00:00Z,-73.8803,40.7794,75.92,61.88,61.78,300,5,NA,30.1,1019.3,15,NA,CLR,   ,   ,   ,NA,NA,NA,NA,NA,NA,NA,NA,NA,NA,NA,75.92,METAR KLGA 060400Z 30005KT 15SM CLR 24/17 A3010 RMK LGA7/5 SLP193 T02440166,NA
LGA,1973-08-06T05:00:00Z,-73.8803,40.7794,74.84,59.9,59.7,280,3,NA,30.09,1019,15,NA,CLR,   ,   ,   ,NA,NA,NA,NA,NA,NA,NA,NA,NA,NA,NA,74.84,METAR KLGA 060500Z 28003KT 15SM CLR 24/16 A3009 RMK LGA7/5 SLP190 T02380155,NA
LGA,1973-08-06T06:00:00Z,-73.8803,40.7794,73.94,59,59.58,300,6,NA,30.09,1019,15,NA,CLR,   ,   ,   ,NA,NA,NA,NA,NA,NA,NA,NA,NA,NA,NA,73.94,METAR KLGA 060600Z 30006KT 15SM CLR 23/15 A3009 RMK LGA7/5 SLP190 T02330150,NA
LGA,1973-08-06T07:00:00Z,-73.8803,40.7794,72.86,60.98,66.3,310,3,NA,30.08,1018.6,15,NA,CLR,   ,   ,   ,NA,NA,NA,NA,NA,NA,NA,NA,NA,NA,NA,72.86,METAR KLGA 060700Z 31003KT 15SM CLR 23/16 A3008 RMK LGA7/5 SLP186 T02270161,NA
LGA,1973-08-06T08:00:00Z,-73.8803,40.7794,73.94,57.92,57.32,0,0,NA,30.08,1018.6,15,NA,CLR,   ,   ,   ,NA,NA,NA,NA,NA,NA,NA,NA,NA,NA,NA,73.94,METAR KLGA 060800Z 00000KT 15SM CLR 23/14 A3008 RMK LGA7/5 SLP186 T02330144,NA
LGA,1973-08-06T09:00:00Z,-73.8803,40.7794,71.96,57.92,61.28,270,4,NA,30.09,1019,15,NA,SCT,   ,   ,   ,4000,NA,NA,NA,NA,NA,NA,NA,NA,NA,NA,71.96,METAR KLGA 060900Z 27004KT 15SM SCT040 22/14 A3009 RMK / 1500LGA7/5 SLP190 T02220144 55000,NA
LGA,1973-08-06T10:00:00Z,-73.8803,40.7794,70.88,57.92,63.56,260,3,NA,30.1,1019.3,15,NA,SCT,SCT,   ,   ,4000,25000,NA,NA,NA,NA,NA,NA,NA,NA,NA,70.88,METAR KLGA 061000Z 26003KT 15SM SCT040 SCT250 22/14 A3010 RMK VALGA7/5 SLP193 T02160144,NA
LGA,1973-08-06T11:00:00Z,-73.8803,40.7794,70.88,59.9,68.23,300,6,NA,30.11,1019.6,15,NA,SCT,SCT,   ,   ,4000,25000,NA,NA,NA,NA,NA,NA,NA,NA,NA,70.88,METAR KLGA 061100Z 30006KT 15SM SCT040 SCT250 22/16 A3011 RMK VALGA7/5 SLP196 T02160155,NA
LGA,1973-08-06T12:00:00Z,-73.8803,40.7794,75.02,62.06,64.07,10,4,NA,30.12,1020,10,NA,SCT,SCT,   ,   ,4000,25000,NA,NA,NA,NA,NA,NA,NA,NA,NA,75.02,METAR KLGA 061200Z 01004KT 10SM SCT040 SCT250 24/17 A3012 RMK VALGA7/5 SLP200 T02390167,NA
LGA,1973-08-06T13:00:00Z,-73.8803,40.7794,78.98,61.88,55.83,10,6,NA,30.13,1020.3,9,NA,SCT,   ,   ,   ,25000,NA,NA,NA,NA,NA,NA,NA,NA,NA,NA,80.36,METAR KLGA 061300Z 01006KT 9SM SCT250 26/17 A3013 RMK / KOCTY VALGA7/5 SLP203 T02610166,NA
LGA,1973-08-06T14:00:00Z,-73.8803,40.7794,80.96,61.88,52.32,360,4,NA,30.12,1020,9,NA,SCT,   ,   ,   ,25000,NA,NA,NA,NA,NA,NA,NA,NA,NA,NA,81.98,METAR KLGA 061400Z 36004KT 9SM SCT250 27/17 A3012 RMK VALGA7/5 SLP200 T02720166,NA
LGA,1973-08-06T15:00:00Z,-73.8803,40.7794,82.04,60.08,47.39,340,4,NA,30.12,1020,10,NA,SCT,   ,   ,   ,5000,NA,NA,NA,NA,NA,NA,NA,NA,NA,NA,82.43,METAR KLGA 061500Z 34004KT 10SM SCT050 28/16 A3012 RMK VALGA7/5 SLP200 8/100 T02780156 50000,NA
LGA,1973-08-06T16:00:00Z,-73.8803,40.7794,83.84,55.94,38.53,340,5,NA,30.11,1019.6,10,NA,SCT,   ,   ,   ,5000,NA,NA,NA,NA,NA,NA,NA,NA,NA,NA,83.84,METAR KLGA 061600Z 34005KT 10SM SCT050 29/13 A3011 RMK VA LGB M164HK 1 /68/55/1504/001LGB7/6 7/15 SLP196 T02880133 580/4,NA
LGA,1973-08-06T17:00:00Z,-73.8803,40.7794,84.92,56.84,38.45,210,5,NA,30.11,1019.6,10,NA,SCT,   ,   ,   ,5000,NA,NA,NA,NA,NA,NA,NA,NA,NA,NA,84.92,METAR KLGA 061700Z 21005KT 10SM SCT050 29/14 A3011 RMK VA SLP196 T02940138,NA
LGA,1973-08-06T18:00:00Z,-73.8803,40.7794,84.92,59,41.55,260,8,NA,30.11,1019.6,10,NA,SCT,   ,   ,   ,5000,NA,NA,NA,NA,NA,NA,NA,NA,NA,NA,84.52,METAR KLGA 061800Z 26008KT 10SM SCT050 29/15 A3011 RMK VA SLP196 T02940150,NA
LGA,1973-08-06T19:00:00Z,-73.8803,40.7794,86,50,28.9,40,5,NA,30.08,1018.6,10,NA,SCT,   ,   ,   ,5000,NA,NA,NA,NA,NA,NA,NA,NA,NA,NA,83.62,METAR KLGA 061900Z 04005KT 10SM SCT050 30/10 A3008 RMK VA SLP186 T03000100,NA
LGA,1973-08-06T20:00:00Z,-73.8803,40.7794,86,59.9,41.45,230,5,NA,30.07,1018.3,10,NA,SCT,   ,   ,   ,5000,NA,NA,NA,NA,NA,NA,NA,NA,NA,NA,85.75,METAR KLGA 062000Z 23005KT 10SM SCT050 30/16 A3007 RMK VA SLP183 T03000155,NA
LGA,1973-08-06T21:00:00Z,-73.8803,40.7794,84.92,57.92,39.97,170,9,NA,30.07,1018.3,10,NA,SCT,   ,   ,   ,5000,NA,NA,NA,NA,NA,NA,NA,NA,NA,NA,84.92,METAR KLGA 062100Z 17009KT 10SM SCT050 29/14 A3007 RMK 4 VA SLP183 8/100 T02940144,NA
LGA,1973-08-06T22:00:00Z,-73.8803,40.7794,83.84,59,43.02,180,11,NA,30.07,1018.3,10,NA,SCT,SCT,   ,   ,5000,25000,NA,NA,NA,NA,NA,NA,NA,NA,NA,83.62,METAR KLGA 062200Z 18011KT 10SM SCT050 SCT250 29/15 A3007 RMK VA SLP183 T02880150,NA
LGA,1973-08-06T23:00:00Z,-73.8803,40.7794,81.86,56.84,42.44,180,10,NA,30.08,1018.6,10,NA,SCT,SCT,   ,   ,5000,25000,NA,NA,NA,NA,NA,NA,NA,NA,NA,81.62,METAR KLGA 062300Z 18010KT 10SM SCT050 SCT250 28/14 A3008 RMK VA SLP186 T02770138,NA
LGA,1973-08-07T00:00:00Z,-73.8803,40.7794,80.96,57.92,45.44,170,10,NA,30.08,1018.6,10,NA,FEW,   ,   ,   ,25000,NA,NA,NA,NA,NA,NA,NA,NA,NA,NA,81.18,METAR KLGA 070000Z 17010KT 10SM FEW250 27/14 A3008 RMK VA SLP186 T02720144,NA
LGA,1973-08-07T01:00:00Z,-73.8803,40.7794,79.88,59,48.93,180,9,NA,30.09,1019,10,NA,SCT,   ,   ,   ,25000,NA,NA,NA,NA,NA,NA,NA,NA,NA,NA,79.88,METAR KLGA 070100Z 18009KT 10SM SCT250 27/15 A3009 RMK SLP190 T02660150,NA
LGA,1973-08-07T02:00:00Z,-73.8803,40.7794,78.98,59,50.39,180,7,NA,30.11,1019.6,10,NA,SCT,   ,   ,   ,25000,NA,NA,NA,NA,NA,NA,NA,NA,NA,NA,78.98,METAR KLGA 070200Z 18007KT 10SM SCT250 26/15 A3011 RMK EWR7/77 7/79 SLP196 T02610150 580/2,NA
LGA,1973-08-07T03:00:00Z,-73.8803,40.7794,78.08,57.92,49.94,200,6,NA,30.11,1019.6,10,NA,FEW,   ,   ,   ,25000,NA,NA,NA,NA,NA,NA,NA,NA,NA,NA,78.08,METAR KLGA 070300Z 20006KT 10SM FEW250 26/14 A3011 RMK SLP196 8/001 T02560144 51010,NA
LGA,1973-08-07T04:00:00Z,-73.8803,40.7794,77,54.86,46.33,200,7,NA,30.11,1019.6,10,NA,SCT,   ,   ,   ,25000,NA,NA,NA,NA,NA,NA,NA,NA,NA,NA,77,METAR KLGA 070400Z 20007KT 10SM SCT250 25/13 A3011 RMK SLP196 T02500127,NA
LGA,1973-08-07T05:00:00Z,-73.8803,40.7794,75.92,56.84,51.6,230,5,NA,30.11,1019.6,10,NA,CLR,   ,   ,   ,NA,NA,NA,NA,NA,NA,NA,NA,NA,NA,NA,75.92,METAR KLGA 070500Z 23005KT 10SM CLR 24/14 A3011 RMK SLP196 T02440138,NA
LGA,1973-08-07T06:00:00Z,-73.8803,40.7794,75.02,57.02,53.52,220,6,NA,30.11,1019.6,10,NA,FEW,   ,   ,   ,30000,NA,NA,NA,NA,NA,NA,NA,NA,NA,NA,75.02,METAR KLGA 070600Z 22006KT 10SM FEW300 24/14 A3011 RMK SLP196 T02390139,NA
LGA,1973-08-07T07:00:00Z,-73.8803,40.7794,74.84,56.84,53.49,180,5,NA,30.11,1019.6,10,NA,CLR,   ,   ,   ,NA,NA,NA,NA,NA,NA,NA,NA,NA,NA,NA,74.84,METAR KLGA 070700Z 18005KT 10SM CLR 24/14 A3011 RMK SLP196 T02380138,NA
LGA,1973-08-07T08:00:00Z,-73.8803,40.7794,73.94,59.9,61.53,0,0,NA,30.12,1020,10,NA,CLR,   ,   ,   ,NA,NA,NA,NA,NA,NA,NA,NA,NA,NA,NA,73.94,METAR KLGA 070800Z 00000KT 10SM CLR 23/16 A3012 RMK SLP200 T02330155,NA
LGA,1973-08-07T09:00:00Z,-73.8803,40.7794,73.94,60.08,61.92,240,4,NA,30.13,1020.3,8,NA,SCT,   ,   ,   ,NA,NA,NA,NA,NA,NA,NA,NA,NA,NA,NA,73.94,METAR KLGA 070900Z 24004KT 8SM SCT/// 23/16 A//// RMK SLP203 T02330156,NA
LGA,1973-08-07T10:00:00Z,-73.8803,40.7794,72.86,59.9,63.81,220,3,NA,30.14,1020.7,6,NA,SCT,   ,   ,   ,10000,NA,NA,NA,DZ,NA,NA,NA,NA,NA,NA,72.86,METAR KLGA 071000Z 22003KT 6SM DZ SCT100 23/16 A3014 RMK VA SLP207 T02270155,NA
LGA,1973-08-07T11:00:00Z,-73.8803,40.7794,72.86,63.86,73.39,0,0,NA,30.15,1021,6,NA,SCT,   ,   ,   ,20000,NA,NA,NA,DZ,NA,NA,NA,NA,NA,NA,72.86,METAR KLGA 071100Z 00000KT 6SM DZ SCT200 23/18 A3015 RMK FEW AC S VA SLP210 T02270177,NA
LGA,1973-08-07T12:00:00Z,-73.8803,40.7794,75.92,62.06,62.17,0,0,NA,30.15,1021,6,NA,SCT,   ,   ,   ,20000,NA,NA,NA,DZ,NA,NA,NA,NA,NA,NA,75.92,METAR KLGA 071200Z 00000KT 6SM DZ SCT200 24/17 A3015 RMK LGA8/4 SLP210 T02440167,NA
LGA,1973-08-07T13:00:00Z,-73.8803,40.7794,79.88,62.96,56.31,320,5,NA,30.15,1021,5,NA,CLR,   ,   ,   ,NA,NA,NA,NA,DZ,NA,NA,NA,NA,NA,NA,81.3,METAR KLGA 071300Z 32005KT 5SM DZ CLR 27/17 A3015 RMK LGA8/4 SLP210 T02660172,NA
LGA,1973-08-07T14:00:00Z,-73.8803,40.7794,81.86,62.96,52.78,270,7,NA,30.15,1021,5,NA,CLR,   ,   ,   ,NA,NA,NA,NA,DZ,NA,NA,NA,NA,NA,NA,83.03,METAR KLGA 071400Z 27007KT 5SM DZ CLR 28/17 A3015 RMK LGA8/4 SLP210 T02770172,NA
LGA,1973-08-07T15:00:00Z,-73.8803,40.7794,84.02,64.94,52.75,300,7,NA,30.14,1020.7,5,NA,CLR,   ,   ,   ,NA,NA,NA,NA,DZ,NA,NA,NA,NA,NA,NA,85.76,METAR KLGA 071500Z 30007KT 5SM DZ CLR 29/18 A3014 RMK / 803LGA8/4 SLP207 T02890183 580/5,NA
LGA,1973-08-07T16:00:00Z,-73.8803,40.7794,86,60.98,43.07,190,11,NA,30.14,1020.7,6,NA,SCT,   ,   ,   ,25000,NA,NA,NA,DZ,NA,NA,NA,NA,NA,NA,86.11,METAR KLGA 071600Z 19011KT 6SM DZ SCT250 30/16 A3014 RMK FEW CU VALGA8/4 SLP207 T03000161,NA
LGA,1973-08-07T17:00:00Z,-73.8803,40.7794,86,60.98,43.07,180,12,NA,30.13,1020.3,6,NA,SCT,   ,   ,   ,25000,NA,NA,NA,DZ,NA,NA,NA,NA,NA,NA,86.11,METAR KLGA 071700Z 18012KT 6SM DZ SCT250 30/16 A3013 RMK VALGA LOC/GP 22 OTS8/4 SLP203 T03000161 580/6,NA
LGA,1973-08-07T18:00:00Z,-73.8803,40.7794,87.98,60.98,40.44,210,7,NA,30.13,1020.3,6,NA,FEW,   ,   ,   ,25000,NA,NA,NA,DZ,NA,NA,NA,NA,NA,NA,87.99,METAR KLGA 071800Z 21007KT 6SM DZ FEW250 31/16 A3013 RMK FEW CU VALGA8/4 SLP203 T03110161 580/6,NA
LGA,1973-08-07T19:00:00Z,-73.8803,40.7794,87.98,63.86,44.76,170,11,NA,30.11,1019.6,6,NA,SCT,SCT,   ,   ,6000,25000,NA,NA,DZ,NA,NA,NA,NA,NA,NA,89.25,METAR KLGA 071900Z 17011KT 6SM DZ SCT060 SCT250 31/18 A3011 RMK VALGA8/4 SLP196 T03110177 580/7,NA
LGA,1973-08-07T20:00:00Z,-73.8803,40.7794,86,64.94,49.51,170,13,NA,30.11,1019.6,6,NA,SCT,SCT,   ,   ,6000,25000,NA,NA,DZ,NA,NA,NA,NA,NA,NA,87.75,METAR KLGA 072000Z 17013KT 6SM DZ SCT060 SCT250 30/18 A3011 RMK VALGA8/4 SLP196 T03000183 580/7,NA
LGA,1973-08-07T21:00:00Z,-73.8803,40.7794,84.02,62.96,49.22,160,16,NA,30.1,1019.3,7,NA,CLR,   ,   ,   ,NA,NA,NA,NA,NA,NA,NA,NA,NA,NA,NA,84.99,METAR KLGA 072100Z 16016KT 7SM CLR 29/17 A3010 RMK / VALGA8/4 SLP193 T02890172 56008,NA
LGA,1973-08-07T22:00:00Z,-73.8803,40.7794,82.94,61.88,49.06,170,14,NA,30.11,1019.6,6,NA,CLR,   ,   ,   ,NA,NA,NA,NA,DZ,NA,NA,NA,NA,NA,NA,83.66,METAR KLGA 072200Z 17014KT 6SM DZ CLR 28/17 A3011 RMK VALGA8/4 SLP196 T02830166,NA
LGA,1973-08-07T23:00:00Z,-73.8803,40.7794,80.96,60.98,50.68,170,13,NA,30.11,1019.6,7,NA,CLR,   ,   ,   ,NA,NA,NA,NA,NA,NA,NA,NA,NA,NA,NA,81.78,METAR KLGA 072300Z 17013KT 7SM CLR 27/16 A3011 RMK VALGA8/4 SLP196 T02720161,NA
LGA,1973-08-08T00:00:00Z,-73.8803,40.7794,80.06,62.06,54.23,180,11,NA,30.11,1019.6,7,NA,FEW,   ,   ,   ,25000,NA,NA,NA,NA,NA,NA,NA,NA,NA,NA,81.27,METAR KLGA 080000Z 18011KT 7SM FEW250 27/17 A3011 RMK SLP196 T02670167,NA
LGA,1973-08-08T01:00:00Z,-73.8803,40.7794,78.98,62.96,57.99,190,12,NA,30.13,1020.3,7,NA,SCT,   ,   ,   ,25000,NA,NA,NA,NA,NA,NA,NA,NA,NA,NA,80.52,METAR KLGA 080100Z 19012KT 7SM SCT250 26/17 A3013 RMK LGA8/4 SLP203 T02610172,NA
LGA,1973-08-08T02:00:00Z,-73.8803,40.7794,78.98,63.86,59.86,200,10,NA,30.13,1020.7,7,NA,SCT,   ,   ,   ,25000,NA,NA,NA,NA,NA,NA,NA,NA,NA,NA,80.65,METAR KLGA 080200Z 20010KT 7SM SCT250 26/18 A3013 RMK LGA8/4 SLP207 T02610177,NA
LGA,1973-08-08T03:00:00Z,-73.8803,40.7794,78.08,60.98,55.7,200,12,NA,30.14,1020.7,8,NA,SCT,   ,   ,   ,25000,NA,NA,NA,NA,NA,NA,NA,NA,NA,NA,78.08,METAR KLGA 080300Z 20012KT 8SM SCT250 26/16 A3014 RMK 1001LGA8/4 SLP207 T02560161 51010,NA
LGA,1973-08-08T05:00:00Z,-73.8803,40.7794,77,60.98,57.73,210,9,NA,30.15,1021,9,NA,SCT,   ,   ,   ,20000,NA,NA,NA,NA,NA,NA,NA,NA,NA,NA,77,METAR KLGA 080500Z 21009KT 9SM SCT200 25/16 A3015 RMK LGA8/4 SLP210 T02500161,NA
LGA,1973-08-08T06:00:00Z,-73.8803,40.7794,77,60.08,55.91,210,10,NA,30.14,1020.7,10,NA,FEW,   ,   ,   ,25000,NA,NA,NA,NA,NA,NA,NA,NA,NA,NA,77,METAR KLGA 080600Z 21010KT 10SM FEW250 25/16 A3014 RMK WND190V230LGA8/4 SLP207 T02500156,NA
LGA,1973-08-08T07:00:00Z,-73.8803,40.7794,74.84,60.98,62.04,210,7,NA,30.13,1020.3,10,NA,SCT,   ,   ,   ,25000,NA,NA,NA,NA,NA,NA,NA,NA,NA,NA,74.84,METAR KLGA 080700Z 21007KT 10SM SCT250 24/16 A3013 RMK LGA8/4 SLP203 T02380161,NA
LGA,1973-08-08T08:00:00Z,-73.8803,40.7794,72.86,61.88,68.45,200,7,NA,30.13,1020.3,8,NA,SCT,   ,   ,   ,25000,NA,NA,NA,NA,NA,NA,NA,NA,NA,NA,72.86,METAR KLGA 080800Z 20007KT 8SM SCT250 23/17 A3013 RMK LGA8/4 SLP203 T02270166,NA
LGA,1973-08-08T09:00:00Z,-73.8803,40.7794,73.94,62.96,68.57,210,8,NA,30.13,1020.3,7,NA,FEW,   ,   ,   ,25000,NA,NA,NA,NA,NA,NA,NA,NA,NA,NA,73.94,METAR KLGA 080900Z 21008KT 7SM FEW250 23/17 A3013 RMK WND 180V230/502 SLP203 8/001 T02330172,NA
LGA,1973-08-08T11:00:00Z,-73.8803,40.7794,73.9,63.9,70.96,220,5.04,NA,30.14,NA,4,NA,   ,   ,   ,   ,NA,NA,NA,NA,NA,NA,NA,NA,NA,NA,NA,73.9,METAR KLGA 081100Z 22005KT 4SM FUDZ SCT020 SCT250 23/18 A3014 RMK LGA8/4 SLP207 T02330177,NA
LGA,1973-08-08T12:00:00Z,-73.8803,40.7794,75.9,64.9,68.73,220,8,NA,30.14,NA,4,NA,   ,   ,   ,   ,NA,NA,NA,NA,NA,NA,NA,NA,NA,NA,NA,75.9,METAR KLGA 081200Z 22008KT 4SM FUDZ SCT250 24/18 A3014 RMK LGA8/4 VA SLP207 T02440183,NA
LGA,1973-08-08T13:00:00Z,-73.8803,40.7794,79,63.9,59.9,220,10,NA,30.14,NA,4,NA,   ,   ,   ,   ,NA,NA,NA,NA,NA,NA,NA,NA,NA,NA,NA,80.67,METAR KLGA 081300Z 22010KT 4SM FUDZ SCT250 26/18 A3014 RMK VALGA8/4 SLP207 T02610177,NA
LGA,1973-08-08T14:00:00Z,-73.8803,40.7794,79.9,64.9,60.22,210,8,NA,30.14,NA,4,NA,   ,   ,   ,   ,NA,NA,NA,NA,NA,NA,NA,NA,NA,NA,NA,81.72,METAR KLGA 081400Z 21008KT 4SM FUDZ OVC/// 27/18 A3014 RMK HK1LGA8/4 SLP207 T02660183 580/8,NA
LGA,1973-08-08T15:00:00Z,-73.8803,40.7794,82.9,66.9,58.55,220,10,NA,30.14,NA,4,NA,   ,   ,   ,   ,NA,NA,NA,NA,NA,NA,NA,NA,NA,NA,NA,85.45,METAR KLGA 081500Z 22010KT 4SM FUDZ OVC/// 28/19 A3014 RMK HK1/ 400LGA8/4 SLP207 T02830194 580/8,NA
LGA,1973-08-08T16:00:00Z,-73.8803,40.7794,84.9,68.9,58.81,210,9.04,NA,30.12,NA,4,NA,   ,   ,   ,   ,NA,NA,NA,NA,NA,NA,NA,NA,NA,NA,NA,88.71,METAR KLGA 081600Z 21009KT 4SM FUDZ OVC/// 29/20 A3012 RMK HK3LGA8/4 SLP200 T02940205 580/8,NA
LGA,1973-08-08T17:00:00Z,-73.8803,40.7794,86.9,68,53.49,250,10,NA,30.11,NA,4,NA,   ,   ,   ,   ,NA,NA,NA,NA,NA,NA,NA,NA,NA,NA,NA,90.42,METAR KLGA 081700Z 24010KT 4SM FUDZ OVC/// SCT045 31/20 A3011 RMK HK3 VALGA8/4 ^ SLP196 T03050200,NA
LGA,1973-08-08T18:00:00Z,-73.8803,40.7794,88,69.1,53.64,210,12,NA,30.1,NA,4,NA,   ,   ,   ,   ,NA,NA,NA,NA,NA,NA,NA,NA,NA,NA,NA,92.43,METAR KLGA 081800Z 21012KT 4SM FUDZ OVC/// SCT045 31/21 A3010 RMK HK2 VALGA8/4 SLP193 T03110206,NA
LGA,1973-08-08T19:00:00Z,-73.8803,40.7794,88.9,68,50.2,210,11.04,NA,30.09,NA,4,NA,   ,   ,   ,   ,NA,NA,NA,NA,NA,NA,NA,NA,NA,NA,NA,92.67,METAR KLGA 081900Z 21011KT 4SM FUDZ OVC/// BKN045 32/20 A3009 RMK HK1 VALGA GP 22 OTS8/4 SLP190 T03160200 580/9,NA
LGA,1973-08-08T20:00:00Z,-73.8803,40.7794,86,68,55.04,160,13.04,NA,30.07,NA,5,NA,   ,   ,   ,   ,NA,NA,NA,NA,NA,NA,NA,NA,NA,NA,NA,89.41,METAR KLGA 082000Z 16013KT 5SM FUDZ SCT045 30/20 A3007 RMK LGA8/4 SLP183 T03000200,NA
LGA,1973-08-08T21:00:00Z,-73.8803,40.7794,86,68,55.04,160,14,NA,30.06,NA,6,NA,   ,   ,   ,   ,NA,NA,NA,NA,NA,NA,NA,NA,NA,NA,NA,89.41,METAR KLGA 082100Z 16014KT 6SM FUDZ SCT045 30/20 A3006 RMK 1100LGA8/4 8/9 SLP180 T03000200 57012,NA
LGA,1973-08-08T22:00:00Z,-73.8803,40.7794,83.84,68,59,170,14,NA,30.05,1017.6,7,NA,BKN,   ,   ,   ,4000,NA,NA,NA,NA,NA,NA,NA,NA,NA,NA,87,METAR KLGA 082200Z 17014KT 7SM BKN040 29/20 A3005 RMK VALGA8/4 SLP176 T02880200 580/9,NA
LGA,1973-08-08T23:00:00Z,-73.8803,40.7794,80.96,68,64.77,160,13,NA,30.05,1017.6,7,NA,SCT,   ,   ,   ,4000,NA,NA,NA,NA,NA,NA,NA,NA,NA,NA,83.72,METAR KLGA 082300Z 16013KT 7SM SCT040 27/20 A3005 RMK LGA8/4 SLP176 T02720200,NA
LGA,1973-08-09T00:00:00Z,-73.8803,40.7794,80.96,68,64.77,160,12,NA,30.05,1017.6,7,NA,BKN,   ,   ,   ,25000,NA,NA,NA,NA,NA,NA,NA,NA,NA,NA,83.72,METAR KLGA 090000Z 16012KT 7SM BKN250 27/20 A3005 RMK VALGA8/4 SLP176 T02720200,NA
LGA,1973-08-09T01:00:00Z,-73.8803,40.7794,80.96,68,64.77,190,11,NA,30.06,1018,7,NA,SCT,   ,   ,   ,25000,NA,NA,NA,NA,NA,NA,NA,NA,NA,NA,83.72,METAR KLGA 090100Z 19011KT 7SM SCT250 27/20 A3006 RMK VALGA8/4 SLP180 T02720200,NA
LGA,1973-08-09T02:00:00Z,-73.8803,40.7794,80.96,66.92,62.4,200,9,NA,30.07,1018.3,7,NA,SCT,   ,   ,   ,25000,NA,NA,NA,NA,NA,NA,NA,NA,NA,NA,83.36,METAR KLGA 090200Z 20009KT 7SM SCT250 27/19 A3007 RMK LGA8/4 SLP183 T02720194,NA
LGA,1973-08-09T03:00:00Z,-73.8803,40.7794,80.06,66.02,62.29,200,10,NA,30.07,1018.3,7,NA,FEW,   ,   ,   ,25000,NA,NA,NA,NA,NA,NA,NA,NA,NA,NA,82.14,METAR KLGA 090300Z 20010KT 7SM FEW250 27/19 A3007 RMK / 1001LGA8/4 SLP183 T02670189 51007,NA
LGA,1973-08-09T04:00:00Z,-73.8803,40.7794,78.98,62.96,57.99,230,14,NA,30.07,1018.3,7,NA,SCT,   ,   ,   ,25000,NA,NA,NA,NA,NA,NA,NA,NA,NA,NA,80.52,METAR KLGA 090400Z 23014KT 7SM SCT250 26/17 A3007 RMK VALGA8/4 SLP183 T02610172,NA
LGA,1973-08-09T05:00:00Z,-73.8803,40.7794,77.9,60.98,56.04,220,13,NA,30.06,1018,8,18,OVC,   ,   ,   ,10000,NA,NA,NA,NA,NA,NA,NA,NA,NA,NA,77.9,METAR KLGA 090500Z 22013G18KT 8SM OVC100 25/16 A3006 RMK WND 200V240LGA8/4 SLP180 T02550161,NA
LGA,1973-08-09T06:00:00Z,-73.8803,40.7794,78.08,57.92,49.94,220,11,NA,30.07,1018.3,8,NA,OVC,   ,   ,   ,10000,NA,NA,NA,NA,NA,NA,NA,NA,NA,NA,78.08,METAR KLGA 090600Z 22011KT 8SM OVC100 26/14 A3007 RMK WND 200V240 VALGA8/4 SLP183 T02560144,NA
LGA,1973-08-09T07:00:00Z,-73.8803,40.7794,75.92,61.88,61.78,240,9,NA,30.07,1018.3,8,NA,SCT,OVC,   ,   ,10000,30000,NA,NA,NA,NA,NA,NA,NA,NA,NA,75.92,METAR KLGA 090700Z 24009KT 8SM SCT100 OVC300 24/17 A3007 RMK LGA8/4 SLP183 T02440166,NA
LGA,1973-08-09T08:00:00Z,-73.8803,40.7794,75.92,62.96,64.17,240,9,NA,30.06,1018,8,NA,BKN,OVC,   ,   ,12000,30000,NA,NA,NA,NA,NA,NA,NA,NA,NA,75.92,METAR KLGA 090800Z 24009KT 8SM BKN120 OVC300 24/17 A3006 RMK WND220V260LGA8/4 SLP180 T02440172,NA
LGA,1973-08-09T09:00:00Z,-73.8803,40.7794,75.92,64.04,66.65,220,11,NA,30.05,1017.6,7,NA,BKN,OVC,   ,   ,12000,30000,NA,NA,NA,NA,NA,NA,NA,NA,NA,75.92,METAR KLGA 090900Z 22011KT 7SM BKN120 OVC300 24/18 A3005 RMK WND190V240/ 1057LGA8/4 SLP176 T02440178 58005,NA
LGA,1973-08-09T10:00:00Z,-73.8803,40.7794,75.92,64.94,68.78,230,11,NA,30.05,1017.6,6,NA,BKN,OVC,   ,   ,6000,12000,NA,NA,DZ,NA,NA,NA,NA,NA,NA,75.92,METAR KLGA 091000Z 23011KT 6SM DZ BKN060 OVC120 24/18 A3005 RMK WND210V250LGA8/4 VA SLP176 T02440183,NA
LGA,1973-08-09T11:00:00Z,-73.8803,40.7794,75.92,65.84,70.97,240,9,NA,30.05,1017.6,5,NA,SCT,BKN,   ,   ,5000,25000,NA,NA,DZ,NA,NA,NA,NA,NA,NA,75.92,METAR KLGA 091100Z 24009KT 5SM DZ SCT050 BKN250 24/19 A3005 RMK LGA8/4 SLP176 T02440188,NA
LGA,1973-08-09T12:00:00Z,-73.8803,40.7794,75.92,66.92,73.68,240,8,NA,30.05,1017.6,5,NA,OVC,SCT,   ,   ,NA,25000,NA,NA,DZ,NA,NA,NA,NA,NA,NA,75.92,METAR KLGA 091200Z 24008KT 5SM DZ OVC/// SCT250 24/19 A3005 RMK H1 VALGA8/4 SLP176 T02440194,NA
LGA,1973-08-09T13:00:00Z,-73.8803,40.7794,78.98,68,69.11,230,7,NA,30.04,1017.3,4,NA,OVC,SCT,BKN,   ,NA,12000,25000,NA,DZ,NA,NA,NA,NA,NA,NA,81.32,METAR KLGA 091300Z 23007KT 4SM DZ OVC/// SCT120 BKN250 26/20 A3004 RMK H1 VALGA8/4 SLP173 T02610200,NA
LGA,1973-08-09T14:00:00Z,-73.8803,40.7794,79.88,68.9,69.21,230,7,NA,30.03,1016.9,4,NA,OVC,SCT,BKN,   ,NA,8000,25000,NA,DZ,NA,NA,NA,NA,NA,NA,82.67,METAR KLGA 091400Z 23007KT 4SM DZ OVC/// SCT080 BKN250 27/20 A3003 RMK H1 VALGA8/4 SLP169 T02660205,NA
LGA,1973-08-09T15:00:00Z,-73.8803,40.7794,84.02,71.06,65.13,230,6,NA,30.03,1016.9,4,NA,OVC,SCT,   ,   ,NA,25000,NA,NA,DZ,NA,NA,NA,NA,NA,NA,89.01,METAR KLGA 091500Z 23006KT 4SM DZ OVC/// SCT250 29/22 A3003 RMK H2 VALGA8/4 SLP169 8/001 T02890217 56008,NA
LGA,1973-08-09T16:00:00Z,-73.8803,40.7794,84.92,70.88,62.88,210,7,NA,30.02,1016.6,4,NA,OVC,SCT,SCT,   ,NA,3500,25000,NA,DZ,NA,NA,NA,NA,NA,NA,90.03,METAR KLGA 091600Z 21007KT 4SM DZ OVC/// SCT035 SCT250 29/22 A3002 RMK H1LGA8/4 SLP166 T02940216,NA
LGA,1973-08-09T17:00:00Z,-73.8803,40.7794,86.9,69.98,57.24,200,8,NA,30,1015.9,4,NA,OVC,SCT,SCT,   ,NA,4000,25000,NA,DZ,NA,NA,NA,NA,NA,NA,91.78,METAR KLGA 091700Z 20008KT 4SM DZ OVC/// SCT040 SCT250 31/21 A3000 RMK LGA C8/108/4 SLP159 T03050211,NA
LGA,1973-08-09T18:00:00Z,-73.8803,40.7794,87.98,71.06,57.39,190,12,NA,29.99,1015.6,4,NA,OVC,SCT,SCT,   ,NA,4000,25000,NA,DZ,NA,NA,NA,NA,NA,NA,93.94,METAR KLGA 091800Z 19012KT 4SM DZ OVC/// SCT040 SCT250 31/22 A2999 RMK H1LGA8/4 SLP156 T03110217,NA
LGA,1973-08-09T19:00:00Z,-73.8803,40.7794,88.88,71.96,57.5,160,14,NA,29.96,1014.6,4,NA,OVC,BKN,BKN,   ,NA,4000,25000,NA,DZ,NA,NA,NA,NA,NA,NA,95.85,METAR KLGA 091900Z 16014KT 4SM DZ OVC/// BKN040 BKN250 32/22 A2996 RMK H1LGA8/4 8/11 SLP146 T03160222,NA
LGA,1973-08-09T20:00:00Z,-73.8803,40.7794,86.9,71.96,61.23,160,16,NA,29.94,1013.9,4,NA,BKN,   ,   ,   ,4000,NA,NA,NA,DZ,NA,NA,NA,NA,NA,NA,93.36,METAR KLGA 092000Z 16016KT 4SM DZ BKN040 31/22 A2994 RMK LGA8/4 8/11 VA SLP139 T03050222,NA
LGA,1973-08-09T21:00:00Z,-73.8803,40.7794,84.92,71.96,65.23,170,14,NA,29.93,1013.5,6,NA,SCT,   ,   ,   ,NA,NA,NA,NA,DZ,NA,NA,NA,NA,NA,NA,90.81,METAR KLGA 092100Z 17014KT 6SM DZ SCT/// 29/22 A//// RMK SLP135 T02940222,NA
LGA,1973-08-09T22:00:00Z,-73.8803,40.7794,84.92,69.98,60.98,160,11,NA,29.92,1013.2,6,NA,SCT,   ,   ,   ,4000,NA,NA,NA,DZ,NA,NA,NA,NA,NA,NA,89.42,METAR KLGA 092200Z 16011KT 6SM DZ SCT040 29/21 A2992 RMK VALGA8/4 SLP132 T02940211,NA
LGA,1973-08-10T00:00:00Z,-73.8803,40.7794,82.94,69.98,65,180,11,NA,29.91,1012.9,6,NA,SCT,   ,   ,   ,25000,NA,NA,NA,DZ,NA,NA,NA,NA,NA,NA,86.99,METAR KLGA 100000Z 18011KT 6SM DZ SCT250 28/21 A2991 RMK VALGA8/4 SLP129 T02830211,NA
LGA,1973-08-10T01:00:00Z,-73.8803,40.7794,83.84,69.98,63.14,200,10,NA,29.92,1013.2,7,NA,CLR,   ,   ,   ,NA,NA,NA,NA,NA,NA,NA,NA,NA,NA,NA,88.1,METAR KLGA 100100Z 20010KT 7SM CLR 29/21 A2992 RMK VALGA8/4 SLP132 T02880211,NA
LGA,1973-08-10T02:00:00Z,-73.8803,40.7794,81.86,69.98,67.32,210,12,NA,29.93,1013.5,6,NA,CLR,   ,   ,   ,NA,NA,NA,NA,DZ,NA,NA,NA,NA,NA,NA,85.62,METAR KLGA 100200Z 21012KT 6SM DZ CLR 28/21 A2993 RMK VALGA8/4 SLP135 T02770211,NA
LGA,1973-08-10T03:00:00Z,-73.8803,40.7794,80.96,69.98,69.32,220,11,NA,29.94,1013.9,6,NA,CLR,   ,   ,   ,NA,NA,NA,NA,DZ,NA,NA,NA,NA,NA,NA,84.44,METAR KLGA 100300Z 22011KT 6SM DZ CLR 27/21 A2994 RMK / VALGA8/4 SLP139 T02720211 52010,NA
LGA,1973-08-10T04:00:00Z,-73.8803,40.7794,79.88,68.9,69.21,220,9,NA,29.94,1013.9,6,NA,CLR,   ,   ,   ,NA,NA,NA,NA,DZ,NA,NA,NA,NA,NA,NA,82.67,METAR KLGA 100400Z 22009KT 6SM DZ CLR 27/20 A2994 RMK LGA8/4 SLP139 T02660205,NA
LGA,1973-08-10T05:00:00Z,-73.8803,40.7794,79.88,68.9,69.21,270,10,NA,29.94,1013.9,6,NA,CLR,   ,   ,   ,NA,NA,NA,NA,DZ,NA,NA,NA,NA,NA,NA,82.67,METAR KLGA 100500Z 27010KT 6SM DZ CLR 27/20 A2994 RMK LGA8/4 SLP139 T02660205,NA
LGA,1973-08-10T06:00:00Z,-73.8803,40.7794,78.98,69.08,71.72,220,8,NA,29.93,1013.5,5,NA,CLR,   ,   ,   ,NA,NA,NA,NA,DZ,NA,NA,NA,NA,NA,NA,81.52,METAR KLGA 100600Z 22008KT 5SM DZ CLR 26/21 A2993 RMK LGA8/4 SLP135 T02610206,NA
LGA,1973-08-10T07:00:00Z,-73.8803,40.7794,77.9,69.98,76.65,240,11,NA,29.92,1013.2,5,NA,CLR,   ,   ,   ,NA,NA,NA,NA,DZ,NA,NA,NA,NA,NA,NA,78.99,METAR KLGA 100700Z 24011KT 5SM DZ CLR 25/21 A2992 RMK LGA8/4 SLP132 T02550211,NA
LGA,1973-08-10T08:00:00Z,-73.8803,40.7794,77,68.9,76.1,230,10,NA,29.92,1013.2,5,NA,CLR,   ,   ,   ,NA,NA,NA,NA,DZ,NA,NA,NA,NA,NA,NA,77,METAR KLGA 100800Z 23010KT 5SM DZ CLR 25/20 A2992 RMK LGA8/4 SLP132 T02500205,NA
LGA,1973-08-10T09:00:00Z,-73.8803,40.7794,75.92,69.98,81.85,230,10,NA,29.92,1013.2,5,NA,CLR,   ,   ,   ,NA,NA,NA,NA,DZ,NA,NA,NA,NA,NA,NA,77.06,METAR KLGA 100900Z 23010KT 5SM DZ CLR 24/21 A2992 RMK / 603LGA8/4 SLP132 T02440211,NA
LGA,1973-08-10T10:00:00Z,-73.8803,40.7794,75.92,70.88,84.4,230,8,NA,29.92,1013.2,2.5,NA,CLR,   ,   ,   ,NA,NA,NA,NA,DZ,NA,NA,NA,NA,NA,NA,77.18,METAR KLGA 101000Z 23008KT 21/2SM DZ CLR 24/22 A2992 RMK VNALGA8/4 SLP132 T02440216,NA
LGA,1973-08-10T11:00:00Z,-73.8803,40.7794,77,70.88,81.42,240,12,NA,29.92,1013.2,2.5,NA,SCT,   ,   ,   ,4000,NA,NA,NA,DZ,NA,NA,NA,NA,NA,NA,78.23,METAR KLGA 101100Z 24012KT 21/2SM DZ SCT040 25/22 A2992 RMK VNALGA8/4 SLP132 T02500216,NA
LGA,1973-08-10T12:00:00Z,-73.8803,40.7794,78.98,71.96,79.12,240,10,NA,29.93,1013.5,2.5,NA,CLR,   ,   ,   ,NA,NA,NA,NA,DZ,NA,NA,NA,NA,NA,NA,82.08,METAR KLGA 101200Z 24010KT 21/2SM DZ CLR 26/22 A2993 RMK LGA8/4 SLP135 T02610222,NA
LGA,1973-08-10T13:00:00Z,-73.8803,40.7794,79.88,71.96,76.81,220,10,NA,29.92,1013.2,2.5,NA,CLR,   ,   ,   ,NA,NA,NA,NA,DZ,NA,NA,NA,NA,NA,NA,83.58,METAR KLGA 101300Z 22010KT 21/2SM DZ CLR 27/22 A2992 RMK LGA8/4 SLP132 T02660222,NA
LGA,1973-08-10T14:00:00Z,-73.8803,40.7794,83.84,72.86,69.62,250,4,NA,29.92,1013.2,2.5,NA,CLR,   ,   ,   ,NA,NA,NA,NA,DZ,NA,NA,NA,NA,NA,NA,90.01,METAR KLGA 101400Z 25004KT 21/2SM DZ CLR 29/23 A2992 RMK LGA8/4 SLP132 T02880227,NA
LGA,1973-08-10T15:00:00Z,-73.8803,40.7794,87.08,73.04,63.14,210,5,NA,29.92,1013.2,2.5,NA,FEW,   ,   ,   ,25000,NA,NA,NA,DZ,NA,NA,NA,NA,NA,NA,94.56,METAR KLGA 101500Z 21005KT 21/2SM DZ FEW250 31/23 A2992 RMK 1001LGA8/4 SLP132 T03060228 56002,NA
LGA,1973-08-10T16:00:00Z,-73.8803,40.7794,89.96,68.9,50.08,200,9,NA,29.91,1012.9,2.5,NA,CLR,   ,   ,   ,NA,NA,NA,NA,DZ,NA,NA,NA,NA,NA,NA,94.56,METAR KLGA 101600Z 20009KT 21/2SM DZ CLR 32/20 A2991 RMK LGA8/4 SLP129 T03220205,NA
LGA,1973-08-10T16:13:00Z,-73.8803,40.7794,NA,NA,NA,230,11,NA,29.92,NA,4,NA,NA,NA,NA,NA,NA,NA,NA,NA,NA,NA,NA,NA,NA,NA,NA,NA,KLGA 101613Z AUTO 23011KT 4SM A2992 RMK IEM_DS3505,NA
LGA,1973-08-10T17:00:00Z,-73.8803,40.7794,91.94,66.92,43.96,220,12,NA,29.91,1012.9,5,NA,CLR,   ,   ,   ,NA,NA,NA,NA,DZ,NA,NA,NA,NA,NA,NA,95.39,METAR KLGA 101700Z 22012KT 5SM DZ CLR 33/19 A2991 RMK FEW CU VA SLP129 T03330194,NA
LGA,1973-08-10T18:00:00Z,-73.8803,40.7794,89.06,73.04,59.3,170,12,NA,29.9,1012.5,5,NA,SCT,   ,   ,   ,4000,NA,NA,NA,DZ,NA,NA,NA,NA,NA,NA,97.13,METAR KLGA 101800Z 17012KT 5SM DZ SCT040 32/23 A2990 RMK VA SLP125 T03170228,NA
LGA,1973-08-10T19:00:00Z,-73.8803,40.7794,88.88,73.94,61.47,160,14,NA,29.89,1012.2,5,NA,SCT,   ,   ,   ,4000,NA,NA,NA,DZ,NA,NA,NA,NA,NA,NA,97.84,METAR KLGA 101900Z 16014KT 5SM DZ SCT040 32/23 A2989 RMK LGA8/12 SLP122 T03160233,NA
LGA,1973-08-10T20:00:00Z,-73.8803,40.7794,87.98,73.94,63.25,160,16,NA,29.87,1011.5,6,NA,SCT,   ,   ,   ,4000,NA,NA,NA,DZ,NA,NA,NA,NA,NA,NA,96.64,METAR KLGA 102000Z 16016KT 6SM DZ SCT040 31/23 A2987 RMK SLP115 T03110233,NA
LGA,1973-08-10T21:00:00Z,-73.8803,40.7794,87.08,73.04,63.14,160,16,NA,29.85,1010.8,7,NA,CLR,   ,   ,   ,NA,NA,NA,NA,NA,NA,NA,NA,NA,NA,NA,94.56,METAR KLGA 102100Z 16016KT 7SM CLR 31/23 A2985 RMK SLP108 T03060228 57017,NA
LGA,1973-08-10T23:00:00Z,-73.8803,40.7794,84.92,70.88,62.88,190,17,NA,29.85,1010.8,7,NA,SCT,BKN,   ,   ,4000,25000,NA,NA,NA,NA,NA,NA,NA,NA,NA,90.03,METAR KLGA 102300Z 19017KT 7SM SCT040 BKN250 29/22 A2985 RMK / TCU N-W/ VIRGA W SLP108 T02940216,NA
LGA,1973-08-11T00:00:00Z,-73.8803,40.7794,84.02,69.98,62.77,200,14,NA,29.88,1011.9,7,NA,SCT,BKN,   ,   ,4000,25000,NA,NA,NA,NA,NA,NA,NA,NA,NA,88.32,METAR KLGA 110000Z 20014KT 7SM SCT040 BKN250 29/21 A2988 RMK SLP119 T02890211,NA
LGA,1973-08-11T01:00:00Z,-73.8803,40.7794,83.84,68,59,220,11,NA,29.89,1012.2,7,NA,SCT,   ,   ,   ,25000,NA,NA,NA,NA,NA,NA,NA,NA,NA,NA,87,METAR KLGA 110100Z 22011KT 7SM SCT250 29/20 A2989 RMK VA SLP122 T02880200,NA
LGA,1973-08-11T02:00:00Z,-73.8803,40.7794,78.98,65.84,64.14,250,15,NA,29.92,1013.2,9,NA,BKN,OVC,   ,   ,3600,25000,NA,NA,NA,NA,NA,NA,NA,NA,NA,80.96,METAR KLGA 110200Z 25015KT 9SM BKN036 OVC250 26/19 A2992 RMK LTGIC NW SLP132 T02610188,NA
LGA,1973-08-11T03:00:00Z,-73.8803,40.7794,78.08,66.02,66.48,310,4,NA,29.92,1013.2,10,NA,SCT,OVC,   ,   ,3500,25000,NA,NA,NA,NA,NA,NA,NA,NA,NA,78.08,METAR KLGA 110300Z 31004KT 10SM SCT035 OVC250 26/19 A2992 RMK / SLP132 8/506 T02560189 50012,NA
LGA,1973-08-11T04:00:00Z,-73.8803,40.7794,77.9,64.94,64.41,240,6,NA,29.91,1012.9,10,NA,SCT,BKN,   ,   ,5000,25000,NA,NA,NA,NA,NA,NA,NA,NA,NA,77.9,METAR KLGA 110400Z 24006KT 10SM SCT050 BKN250 25/18 A2991 RMK SLP129 T02550183,NA
LGA,1973-08-11T05:00:00Z,-73.8803,40.7794,78.98,65.84,64.14,200,9,NA,29.92,1013.2,9,NA,SCT,BKN,   ,   ,10000,25000,NA,NA,NA,NA,NA,NA,NA,NA,NA,80.96,METAR KLGA 110500Z 20009KT 9SM SCT100 BKN250 26/19 A2992 RMK SLP132 T02610188,NA
LGA,1973-08-11T06:00:00Z,-73.8803,40.7794,78.08,66.02,66.48,220,7,NA,29.91,1012.9,8,NA,SCT,BKN,   ,   ,10000,25000,NA,NA,NA,NA,NA,NA,NA,NA,NA,78.08,METAR KLGA 110600Z 22007KT 8SM SCT100 BKN250 26/19 A2991 RMK SLP129 T02560189,NA
LGA,1973-08-11T07:00:00Z,-73.8803,40.7794,77.9,66.92,69,180,6,NA,29.91,1012.9,8,NA,SCT,BKN,   ,   ,10000,20000,NA,NA,NA,NA,NA,NA,NA,NA,NA,77.9,METAR KLGA 110700Z 18006KT 8SM SCT100 BKN200 25/19 A2991 RMK SLP129 T02550194,NA
LGA,1973-08-11T08:00:00Z,-73.8803,40.7794,77,69.98,78.96,180,7,NA,29.9,1012.5,6,NA,BKN,BKN,   ,   ,10000,25000,NA,NA,DZ,NA,NA,NA,NA,NA,NA,78.11,METAR KLGA 110800Z 18007KT 6SM DZ BKN100 BKN250 25/21 A2990 RMK SLP125 T02500211,NA
LGA,1973-08-11T09:00:00Z,-73.8803,40.7794,77,71.06,81.92,220,7,NA,29.91,1012.9,5,NA,SCT,SCT,BKN,   ,2000,10000,25000,NA,DZ,NA,NA,NA,NA,NA,NA,78.25,METAR KLGA 110900Z 22007KT 5SM DZ SCT020 SCT100 BKN250 25/22 A2991 RMK / SLP129 8/538 T02500217 55000,NA
LGA,1973-08-11T10:00:00Z,-73.8803,40.7794,77,71.96,84.46,220,7,NA,29.92,1013.2,5,NA,SCT,BKN,   ,   ,1500,25000,NA,NA,DZ,NA,NA,NA,NA,NA,NA,78.37,METAR KLGA 111000Z 22007KT 5SM DZ SCT015 BKN250 25/22 A2992 RMK VA SLP132 T02500222,NA
LGA,1973-08-11T11:00:00Z,-73.8803,40.7794,77,72.86,87.07,230,8,NA,29.93,1013.5,4,NA,BKN,BKN,   ,   ,1200,25000,NA,NA,DZ,NA,NA,NA,NA,NA,NA,78.49,METAR KLGA 111100Z 23008KT 4SM DZ BKN012 BKN250 25/23 A2993 RMK 12V% SLP135 T02500227,NA
LGA,1973-08-11T12:00:00Z,-73.8803,40.7794,78.08,73.04,84.53,220,9,NA,29.93,1013.5,4,NA,BKN,OVC,   ,   ,1100,25000,NA,NA,DZ,NA,NA,NA,NA,NA,NA,80.56,METAR KLGA 111200Z 22009KT 4SM DZ BKN011 OVC250 26/23 A2993 RMK VA SLP135 T02560228,NA
LGA,1973-08-11T12:06:00Z,-73.8803,40.7794,NA,NA,NA,220,8,NA,29.93,NA,3,NA,BKN,OVC,NA,NA,1200,24600,NA,NA,NA,NA,NA,NA,NA,NA,NA,NA,KLGA 111206Z AUTO 22008KT 3SM BKN012 OVC246 A2993 RMK IEM_DS3505,NA
LGA,1973-08-11T13:00:00Z,-73.8803,40.7794,79.88,72.86,79.19,240,10,NA,29.92,1013.2,3,NA,SCT,BKN,   ,   ,1500,25000,NA,NA,DZ,NA,NA,NA,NA,NA,NA,83.87,METAR KLGA 111300Z 24010KT 3SM DZ SCT015 BKN250 27/23 A2992 RMK VA SLP132 T02660227,NA
LGA,1973-08-11T14:00:00Z,-73.8803,40.7794,80.96,72.86,76.44,230,10,NA,29.93,1013.5,3,NA,SCT,BKN,   ,   ,1600,25000,NA,NA,DZ,NA,NA,NA,NA,NA,NA,85.68,METAR KLGA 111400Z 23010KT 3SM DZ SCT016 BKN250 27/23 A2993 RMK V%V VA SLP135 T02720227,NA
LGA,1973-08-11T14:14:00Z,-73.8803,40.7794,NA,NA,NA,230,11,NA,29.92,NA,4,NA,BKN,BKN,NA,NA,2000,24600,NA,NA,NA,NA,NA,NA,NA,NA,NA,NA,KLGA 111414Z AUTO 23011KT 4SM BKN020 BKN246 A2992 RMK IEM_DS3505,NA
LGA,1973-08-11T15:00:00Z,-73.8803,40.7794,84.02,73.94,71.78,230,11,NA,29.93,1013.5,4,NA,SCT,SCT,BKN,   ,2000,10000,25000,NA,DZ,NA,NA,NA,NA,NA,NA,91.1,METAR KLGA 111500Z 23011KT 4SM DZ SCT020 SCT100 BKN250 29/23 A2993 RMK VA SLP135 8/138 T02890233 55000,NA
LGA,1973-08-11T16:00:00Z,-73.8803,40.7794,86,71.96,63.01,210,11,NA,29.93,1013.5,4,NA,SCT,BKN,OVC,   ,2000,10000,25000,NA,DZ,NA,NA,NA,NA,NA,NA,92.21,METAR KLGA 111600Z 21011KT 4SM DZ SCT020 BKN100 OVC250 30/22 A2993 RMK VA SLP135 T03000222,NA
LGA,1973-08-11T17:00:00Z,-73.8803,40.7794,82.94,71.96,69.53,210,10,NA,29.91,1012.9,5,NA,BKN,OVC,   ,   ,3400,8000,NA,NA,-SHRA DZ,NA,NA,NA,NA,NA,NA,88.14,METAR KLGA 111700Z 21010KT 5SM -SHRA DZ BKN034 OVC080 28/22 A2991 RMK / RB40 VA SLP129 T02830222,NA
LGA,1973-08-11T17:27:00Z,-73.8803,40.7794,NA,NA,NA,200,17,NA,29.92,NA,5,NA,BKN,OVC,NA,NA,2800,7900,NA,NA,NA,NA,NA,NA,NA,NA,NA,NA,KLGA 111727Z AUTO 20017KT 5SM BKN028 OVC079 A2992 RMK IEM_DS3505,NA
LGA,1973-08-11T18:00:00Z,-73.8803,40.7794,77,69.08,76.57,200,7,0.02,29.92,1013.2,7,NA,BKN,OVC,   ,   ,2400,8000,NA,NA,NA,NA,NA,NA,NA,NA,NA,77,METAR KLGA 111800Z 20007KT 7SM BKN024 OVC080 25/21 A2992 RMK / RE1655 BO5E20 TB04 E15 / T MOVD NE / PK WND 08 VALGA 8/13 DME OTS SLP132 P0002 60021 71/21 T02500206 5201/,NA
LGA,1973-08-11T19:00:00Z,-73.8803,40.7794,77.9,68,71.62,200,9,NA,29.9,1012.5,6,NA,SCT,OVC,   ,   ,3000,7000,NA,NA,DZ,NA,NA,NA,NA,NA,NA,77.9,METAR KLGA 111900Z 20009KT 6SM DZ SCT030 OVC070 25/20 A2990 RMK VA SLP125 T02550200,NA
LGA,1973-08-11T20:00:00Z,-73.8803,40.7794,83.84,71.96,67.54,180,11,NA,29.88,1011.9,6,NA,SCT,BKN,   ,   ,3000,12000,NA,NA,DZ,NA,NA,NA,NA,NA,NA,89.37,METAR KLGA 112000Z 18011KT 6SM DZ SCT030 BKN120 29/22 A2988 RMK VA SLP119 T02880222,NA
LGA,1973-08-11T21:00:00Z,-73.8803,40.7794,84.02,71.96,67.15,150,10,NA,29.88,1011.9,5,NA,SCT,SCT,   ,   ,3500,12000,NA,NA,DZ,NA,NA,NA,NA,NA,NA,89.62,METAR KLGA 112100Z 15010KT 5SM DZ SCT035 SCT120 29/22 A2988 RMK / 4 VA SLP119 8/230 T02890222,NA
LGA,1973-08-11T22:00:00Z,-73.8803,40.7794,82.94,71.96,69.53,190,11,NA,29.88,1011.9,5,NA,SCT,SCT,   ,   ,3500,25000,NA,NA,DZ,NA,NA,NA,NA,NA,NA,88.14,METAR KLGA 112200Z 19011KT 5SM DZ SCT035 SCT250 28/22 A2988 RMK VA SLP119 T02830222,NA
LGA,1973-08-11T23:00:00Z,-73.8803,40.7794,80.96,70.88,71.48,180,14,NA,29.89,1012.2,5,NA,SCT,   ,   ,   ,25000,NA,NA,NA,DZ,NA,NA,NA,NA,NA,NA,84.81,METAR KLGA 112300Z 18014KT 5SM DZ SCT250 27/22 A2989 RMK VA SLP122 T02720216,NA
LGA,1973-08-12T00:00:00Z,-73.8803,40.7794,80.06,71.06,74.07,190,11,NA,29.9,1012.5,5,NA,SCT,   ,   ,   ,25000,NA,NA,NA,DZ,NA,NA,NA,NA,NA,NA,83.56,METAR KLGA 120000Z 19011KT 5SM DZ SCT250 27/22 A2990 RMK VA SLP125 T02670217,NA
LGA,1973-08-12T01:00:00Z,-73.8803,40.7794,79.88,70.88,74.05,210,9,NA,29.92,1013.2,6,NA,SCT,   ,   ,   ,25000,NA,NA,NA,DZ,NA,NA,NA,NA,NA,NA,83.24,METAR KLGA 120100Z 21009KT 6SM DZ SCT250 27/22 A2992 RMK VA SLP132 T02660216,NA
LGA,1973-08-12T02:00:00Z,-73.8803,40.7794,79.88,71.96,76.81,230,9,NA,29.94,1013.9,6,NA,BKN,BKN,   ,   ,7000,25000,NA,NA,DZ,NA,NA,NA,NA,NA,NA,83.58,METAR KLGA 120200Z 23009KT 6SM DZ BKN070 BKN250 27/22 A2994 RMK VA SLP139 T02660222,NA
LGA,1973-08-12T03:00:00Z,-73.8803,40.7794,78.98,69.98,73.97,230,8,NA,29.93,1013.5,9,NA,SCT,SCT,   ,   ,8000,25000,NA,NA,NA,NA,NA,NA,NA,NA,NA,81.69,METAR KLGA 120300Z 23008KT 9SM SCT080 SCT250 26/21 A2993 RMK / VA SLP135 8/031 T02610211 50010,NA
LGA,1973-08-12T04:00:00Z,-73.8803,40.7794,77.9,68,71.62,250,11,NA,29.94,1013.9,9,NA,CLR,   ,   ,   ,NA,NA,NA,NA,NA,NA,NA,NA,NA,NA,NA,77.9,METAR KLGA 120400Z 25011KT 9SM CLR 25/20 A2994 RMK SLP139 T02550200 59094,NA
LGA,1973-08-12T05:00:00Z,-73.8803,40.7794,77,68.9,76.1,250,7,NA,29.94,1013.9,7,NA,CLR,   ,   ,   ,NA,NA,NA,NA,NA,NA,NA,NA,NA,NA,NA,77,METAR KLGA 120500Z 25007KT 7SM CLR 25/20 A2994 RMK SLP139 T02500205,NA
LGA,1973-08-12T06:00:00Z,-73.8803,40.7794,77,68,73.78,260,8,NA,29.94,1013.9,7,NA,CLR,   ,   ,   ,NA,NA,NA,NA,NA,NA,NA,NA,NA,NA,NA,77,METAR KLGA 120600Z 26008KT 7SM CLR 25/20 A2994 RMK SLP139 T02500200,NA
LGA,1973-08-12T07:00:00Z,-73.8803,40.7794,75.92,66.92,73.68,280,8,NA,29.94,1013.9,7,NA,CLR,   ,   ,   ,NA,NA,NA,NA,NA,NA,NA,NA,NA,NA,NA,75.92,METAR KLGA 120700Z 28008KT 7SM CLR 24/19 A2994 RMK SLP139 T02440194,NA
LGA,1973-08-12T08:00:00Z,-73.8803,40.7794,73.94,65.84,75.83,270,4,NA,29.94,1013.9,8,NA,CLR,   ,   ,   ,NA,NA,NA,NA,NA,NA,NA,NA,NA,NA,NA,73.94,METAR KLGA 120800Z 27004KT 8SM CLR 23/19 A2994 RMK SLP139 T02330188,NA
LGA,1973-08-12T09:00:00Z,-73.8803,40.7794,73.94,66.02,76.31,220,7,NA,29.95,1014.2,8,NA,CLR,   ,   ,   ,NA,NA,NA,NA,NA,NA,NA,NA,NA,NA,NA,73.94,METAR KLGA 120900Z 22007KT 8SM CLR 23/19 A2995 RMK / SLP142 T02330189 53003,NA
LGA,1973-08-12T10:00:00Z,-73.8803,40.7794,72.86,65.84,78.64,240,5,NA,29.96,1014.6,6,NA,SCT,SCT,   ,   ,15000,25000,NA,NA,DZ,NA,NA,NA,NA,NA,NA,72.86,METAR KLGA 121000Z 24005KT 6SM DZ SCT150 SCT250 23/19 A2996 RMK VA SLP146 T02270188,NA
LGA,1973-08-12T11:00:00Z,-73.8803,40.7794,73.94,66.92,78.72,220,6,NA,29.97,1014.9,6,NA,CLR,   ,   ,   ,NA,NA,NA,NA,DZ,NA,NA,NA,NA,NA,NA,73.94,METAR KLGA 121100Z 22006KT 6SM DZ CLR 23/19 A2997 RMK VA SLP149 T02330194,NA
LGA,1973-08-12T12:00:00Z,-73.8803,40.7794,77,66.02,68.9,250,6,NA,29.96,1014.6,6,NA,FEW,   ,   ,   ,25000,NA,NA,NA,DZ,NA,NA,NA,NA,NA,NA,77,METAR KLGA 121200Z 25006KT 6SM DZ FEW250 25/19 A2996 RMK SLP146 70002 T02500189,NA
LGA,1973-08-12T13:00:00Z,-73.8803,40.7794,80.96,64.94,58.25,220,8,NA,29.95,1014.2,6,NA,SCT,   ,   ,   ,25000,NA,NA,NA,DZ,NA,NA,NA,NA,NA,NA,82.76,METAR KLGA 121300Z 22008KT 6SM DZ SCT250 27/18 A2995 RMK SLP142 T02720183,NA
LGA,1973-08-12T14:00:00Z,-73.8803,40.7794,81.86,66.92,60.6,240,9,NA,29.94,1013.9,7,NA,CLR,   ,   ,   ,NA,NA,NA,NA,NA,NA,NA,NA,NA,NA,NA,84.34,METAR KLGA 121400Z 24009KT 7SM CLR 28/19 A2994 RMK SLP139 T02770194,NA
LGA,1973-08-12T15:00:00Z,-73.8803,40.7794,84.02,66.92,56.51,260,14,NA,29.94,1013.9,7,NA,BKN,   ,   ,   ,4500,NA,NA,NA,NA,NA,NA,NA,NA,NA,NA,86.66,METAR KLGA 121500Z 26014KT 7SM BKN045 29/19 A2994 RMK SLP139 8/100 T02890194 56007,NA
LGA,1973-08-12T16:00:00Z,-73.8803,40.7794,82.94,66.92,58.51,260,13,NA,29.94,1013.9,7,NA,BKN,OVC,   ,   ,4500,8000,NA,NA,NA,NA,NA,NA,NA,NA,NA,85.5,METAR KLGA 121600Z 26013KT 7SM BKN045 OVC080 28/19 A2994 RMK SLP139 T02830194,NA
LGA,1973-08-12T17:00:00Z,-73.8803,40.7794,83.84,68,59,250,14,NA,29.94,1013.9,7,NA,BKN,OVC,   ,   ,8000,25000,NA,NA,NA,NA,NA,NA,NA,NA,NA,87,METAR KLGA 121700Z 25014KT 7SM BKN080 OVC250 29/20 A2994 RMK VA SLP139 T02880200,NA
LGA,1973-08-12T18:00:00Z,-73.8803,40.7794,84.92,66.02,53.21,240,14,NA,29.93,1013.5,7,NA,SCT,SCT,BKN,   ,2500,4500,8000,NA,NA,NA,NA,NA,NA,NA,NA,87.16,METAR KLGA 121800Z 24014KT 7SM SCT025 SCT045 BKN080 29/19 A2993 RMK VA SLP135 T02940189,NA
LGA,1973-08-12T19:00:00Z,-73.8803,40.7794,80.96,68,64.77,240,13,NA,29.9,1012.5,7,NA,SCT,BKN,   ,   ,2500,4500,NA,NA,NA,NA,NA,NA,NA,NA,NA,83.72,METAR KLGA 121900Z 24013KT 7SM SCT025 BKN045 27/20 A2990 RMK VA SLP125 T02720200,NA
LGA,1973-08-12T20:00:00Z,-73.8803,40.7794,86,68,55.04,240,13,NA,29.88,1011.9,6,NA,SCT,BKN,   ,   ,2500,4400,NA,NA,DZ,NA,NA,NA,NA,NA,NA,89.41,METAR KLGA 122000Z 24013KT 6SM DZ SCT025 BKN044 30/20 A2988 RMK VA UA 15NE ABE MDT TURLC B707 SLP119 T03000200,NA
LGA,1973-08-12T21:00:00Z,-73.8803,40.7794,84.92,69.08,59.14,230,15,NA,29.87,1011.5,6,NA,BKN,   ,   ,   ,3900,NA,NA,NA,DZ,NA,NA,NA,NA,NA,NA,88.84,METAR KLGA 122100Z 23015KT 6SM DZ BKN039 29/21 A2987 RMK RB30E35 DARK E/ 0 SLP115 8/200 T02940206,NA
LGA,1973-08-12T21:27:00Z,-73.8803,40.7794,NA,NA,NA,320,15,NA,29.89,NA,7,NA,SCT,BKN,NA,NA,2000,4500,NA,NA,NA,NA,NA,NA,NA,NA,NA,NA,KLGA 122127Z AUTO 32015KT 7SM SCT020 BKN045 A2989 RMK IEM_DS3505,NA
LGA,1973-08-12T22:00:00Z,-73.8803,40.7794,77.9,68.9,73.86,290,9,NA,29.88,1011.9,8,NA,SCT,BKN,BKN,   ,4500,7000,15000,NA,NA,NA,NA,NA,NA,NA,NA,77.9,METAR KLGA 122200Z 29009KT 8SM SCT045 BKN070 BKN150 25/20 A2988 RMK TB26E49 MOVT UNKN PK WND VA SLP119 T02550205 5302/,NA
LGA,1973-08-12T23:00:00Z,-73.8803,40.7794,77,69.98,78.96,260,8,NA,29.87,1011.5,8,NA,SCT,BKN,BKN,   ,4000,7000,15000,NA,-SHRA,NA,NA,NA,NA,NA,NA,78.11,METAR KLGA 122300Z 26008KT 8SM -SHRA SCT040 BKN070 BKN150 25/21 A2987 RMK RB15 SLP115 T02500211,NA
LGA,1973-08-13T00:00:00Z,-73.8803,40.7794,75.92,69.98,81.85,250,11,0.01,29.87,1011.5,8,NA,SCT,BKN,BKN,   ,4000,7000,15000,NA,NA,NA,NA,NA,NA,NA,NA,77.06,METAR KLGA 130000Z 25011KT 8SM SCT040 BKN070 BKN150 24/21 A2987 RMK //RE20 VA SLP115 P0001 60001 T02440211,NA
LGA,1973-08-13T01:00:00Z,-73.8803,40.7794,75.92,65.84,70.97,290,8,NA,29.89,1012.2,9,NA,BKN,BKN,   ,   ,8000,15000,NA,NA,NA,NA,NA,NA,NA,NA,NA,75.92,METAR KLGA 130100Z 29008KT 9SM BKN080 BKN150 24/19 A2989 RMK SLP122 T02440188,NA
LGA,1973-08-13T02:00:00Z,-73.8803,40.7794,75.92,65.84,70.97,270,8,NA,29.89,1012.2,9,NA,BKN,BKN,   ,   ,8000,15000,NA,NA,NA,NA,NA,NA,NA,NA,NA,75.92,METAR KLGA 130200Z 27008KT 9SM BKN080 BKN150 24/19 A2989 RMK SLP122 T02440188,NA
LGA,1973-08-13T03:00:00Z,-73.8803,40.7794,75.02,66.02,73.59,290,8,NA,29.89,1012.2,9,NA,BKN,   ,   ,   ,9000,NA,NA,NA,NA,NA,NA,NA,NA,NA,NA,75.02,METAR KLGA 130300Z 29008KT 9SM BKN090 24/19 A2989 RMK / 107/0170 SLP122 T02390189,NA
LGA,1973-08-13T04:00:00Z,-73.8803,40.7794,73.94,66.92,78.72,280,7,NA,29.89,1012.2,9,NA,BKN,   ,   ,   ,15000,NA,NA,NA,NA,NA,NA,NA,NA,NA,NA,73.94,METAR KLGA 130400Z 28007KT 9SM BKN150 23/19 A2989 RMK SLP122 T02330194,NA
LGA,1973-08-13T05:00:00Z,-73.8803,40.7794,72.86,66.92,81.64,290,6,NA,29.9,1012.5,8,NA,SCT,   ,   ,   ,12000,NA,NA,NA,NA,NA,NA,NA,NA,NA,NA,72.86,METAR KLGA 130500Z 29006KT 8SM SCT120 23/19 A2990 RMK SLP125 T02270194,NA
LGA,1973-08-13T06:00:00Z,-73.8803,40.7794,73.04,66.92,81.14,320,8,NA,29.9,1012.5,8,NA,SCT,   ,   ,   ,12000,NA,NA,NA,NA,NA,NA,NA,NA,NA,NA,73.04,METAR KLGA 130600Z 32008KT 8SM SCT120 23/19 A2990 RMK SLP125 T02280194,NA
LGA,1973-08-13T07:00:00Z,-73.8803,40.7794,71.96,66.92,84.16,320,5,NA,29.9,1012.5,8,NA,SCT,   ,   ,   ,12000,NA,NA,NA,NA,NA,NA,NA,NA,NA,NA,71.96,METAR KLGA 130700Z 32005KT 8SM SCT120 22/19 A2990 RMK SLP125 T02220194,NA
LGA,1973-08-13T08:00:00Z,-73.8803,40.7794,71.96,66.92,84.16,0,0,NA,29.92,1013.2,10,NA,CLR,   ,   ,   ,NA,NA,NA,NA,NA,NA,NA,NA,NA,NA,NA,71.96,METAR KLGA 130800Z 00000KT 10SM CLR 22/19 A2992 RMK SLP132 T02220194,NA
LGA,1973-08-13T09:00:00Z,-73.8803,40.7794,71.06,64.04,78.49,300,3,NA,29.92,1013.2,10,NA,CLR,   ,   ,   ,NA,NA,NA,NA,NA,NA,NA,NA,NA,NA,NA,71.06,METAR KLGA 130900Z 30003KT 10SM CLR 22/18 A2992 RMK / SLP132 T02170178 51008,NA
LGA,1973-08-13T10:00:00Z,-73.8803,40.7794,70.88,62.96,76.04,290,8,NA,29.93,1013.5,10,NA,CLR,   ,   ,   ,NA,NA,NA,NA,NA,NA,NA,NA,NA,NA,NA,70.88,METAR KLGA 131000Z 29008KT 10SM CLR 22/17 A2993 RMK FEW AC W FEW CI SLP135 T02160172,NA
LGA,1973-08-13T11:00:00Z,-73.8803,40.7794,70.88,62.96,76.04,300,7,NA,29.93,1013.5,10,NA,SCT,   ,   ,   ,25000,NA,NA,NA,NA,NA,NA,NA,NA,NA,NA,70.88,METAR KLGA 131100Z 30007KT 10SM SCT250 22/17 A2993 RMK VA SLP135 T02160172,NA
LGA,1973-08-13T12:00:00Z,-73.8803,40.7794,73.04,62.06,68.47,300,9,NA,29.94,1013.9,10,NA,CLR,   ,   ,   ,NA,NA,NA,NA,NA,NA,NA,NA,NA,NA,NA,73.04,METAR KLGA 131200Z 30009KT 10SM CLR 23/17 A2994 RMK FEW AC S VA SLP139 T02280167,NA
LGA,1973-08-13T13:00:00Z,-73.8803,40.7794,73.94,62.96,68.57,310,9,NA,29.94,1013.9,10,NA,CLR,   ,   ,   ,NA,NA,NA,NA,NA,NA,NA,NA,NA,NA,NA,73.94,METAR KLGA 131300Z 31009KT 10SM CLR 23/17 A2994 RMK VA SLP139 T02330172,NA
LGA,1973-08-13T14:00:00Z,-73.8803,40.7794,75.92,61.88,61.78,320,10,NA,29.94,1013.9,10,NA,SCT,   ,   ,   ,25000,NA,NA,NA,NA,NA,NA,NA,NA,NA,NA,75.92,METAR KLGA 131400Z 32010KT 10SM SCT250 24/17 A2994 RMK FEW CU VA SLP139 T02440166,NA
LGA,1973-08-13T15:00:00Z,-73.8803,40.7794,78.08,62.06,57.87,300,11,NA,29.94,1013.9,15,NA,SCT,FEW,   ,   ,3500,25000,NA,NA,NA,NA,NA,NA,NA,NA,NA,78.08,METAR KLGA 131500Z 30011KT 15SM SCT035 FEW250 26/17 A2994 RMK VA SLP139 8/101 T02560167 55000,NA
LGA,1973-08-13T16:00:00Z,-73.8803,40.7794,78.98,60.98,54.08,300,11,NA,29.93,1013.5,15,NA,SCT,SCT,   ,   ,4000,25000,NA,NA,NA,NA,NA,NA,NA,NA,NA,80.24,METAR KLGA 131600Z 30011KT 15SM SCT040 SCT250 26/16 A2993 RMK VA SLP135 T02610161,NA
LGA,1973-08-13T17:00:00Z,-73.8803,40.7794,78.98,60.98,54.08,310,10,NA,29.93,1013.5,15,NA,SCT,SCT,   ,   ,4000,25000,NA,NA,NA,NA,NA,NA,NA,NA,NA,80.24,METAR KLGA 131700Z 31010KT 15SM SCT040 SCT250 26/16 A2993 RMK VA SLP135 T02610161,NA
LGA,1973-08-13T18:00:00Z,-73.8803,40.7794,80.96,60.98,50.68,310,8,NA,29.92,1013.2,15,NA,SCT,FEW,   ,   ,4000,25000,NA,NA,NA,NA,NA,NA,NA,NA,NA,81.78,METAR KLGA 131800Z 31008KT 15SM SCT040 FEW250 27/16 A2992 RMK VA SLP132 T02720161,NA
LGA,1973-08-13T19:00:00Z,-73.8803,40.7794,81.86,59.9,47.36,290,11,NA,29.91,1012.9,15,NA,BKN,   ,   ,   ,4000,NA,NA,NA,NA,NA,NA,NA,NA,NA,NA,82.25,METAR KLGA 131900Z 29011KT 15SM BKN040 28/16 A2991 RMK VA SLP129 T02770155,NA
LGA,1973-08-13T20:00:00Z,-73.8803,40.7794,80.96,59.9,48.77,300,10,NA,29.9,1012.5,15,NA,BKN,   ,   ,   ,4000,NA,NA,NA,NA,NA,NA,NA,NA,NA,NA,81.55,METAR KLGA 132000Z 30010KT 15SM BKN040 27/16 A2990 RMK VA SLP125 T02720155,NA
LGA,1973-08-13T21:00:00Z,-73.8803,40.7794,80.96,60.08,49.09,310,9,NA,29.91,1012.9,15,NA,BKN,   ,   ,   ,5000,NA,NA,NA,NA,NA,NA,NA,NA,NA,NA,81.59,METAR KLGA 132100Z 31009KT 15SM BKN050 27/16 A2991 RMK / VA SLP129 8/100 T02720156 55005,NA
LGA,1973-08-13T22:00:00Z,-73.8803,40.7794,81.86,56.84,42.44,310,10,NA,29.9,1012.5,15,NA,SCT,   ,   ,   ,5000,NA,NA,NA,NA,NA,NA,NA,NA,NA,NA,81.62,METAR KLGA 132200Z 31010KT 15SM SCT050 28/14 A2990 RMK VA SLP125 T02770138,NA
LGA,1973-08-13T23:00:00Z,-73.8803,40.7794,79.88,57.92,47.07,320,10,NA,29.9,1012.5,15,NA,SCT,SCT,SCT,   ,5000,12000,25000,NA,NA,NA,NA,NA,NA,NA,NA,79.88,METAR KLGA 132300Z 32010KT 15SM SCT050 SCT120 SCT250 27/14 A2990 RMK VA SLP125 T02660144,NA
LGA,1973-08-14T00:00:00Z,-73.8803,40.7794,78.98,57.92,48.48,320,9,NA,29.91,1012.9,15,NA,SCT,SCT,   ,   ,5000,12000,NA,NA,NA,NA,NA,NA,NA,NA,NA,78.98,METAR KLGA 140000Z 32009KT 15SM SCT050 SCT120 26/14 A2991 RMK / TCU S SLP129 T02610144,NA
LGA,1973-08-14T01:00:00Z,-73.8803,40.7794,77,60.98,57.73,300,8,NA,29.92,1013.2,15,NA,CLR,   ,   ,   ,NA,NA,NA,NA,NA,NA,NA,NA,NA,NA,NA,77,METAR KLGA 140100Z 30008KT 15SM CLR 25/16 A2992 RMK VA SLP132 T02500161,NA
LGA,1973-08-14T02:00:00Z,-73.8803,40.7794,77,59.9,55.56,200,7,NA,29.93,1013.5,15,NA,CLR,   ,   ,   ,NA,NA,NA,NA,NA,NA,NA,NA,NA,NA,NA,77,METAR KLGA 140200Z 20007KT 15SM CLR 25/16 A2993 RMK VA SLP135 T02500155,NA
LGA,1973-08-14T03:00:00Z,-73.8803,40.7794,75.92,60.98,59.84,310,6,NA,29.94,1013.9,15,NA,CLR,   ,   ,   ,NA,NA,NA,NA,NA,NA,NA,NA,NA,NA,NA,75.92,METAR KLGA 140300Z 31006KT 15SM CLR 24/16 A2994 RMK / VA SLP139 T02440161 51008,NA
LGA,1973-08-14T04:00:00Z,-73.8803,40.7794,74.84,61.88,64.05,300,6,NA,29.94,1013.9,15,NA,CLR,   ,   ,   ,NA,NA,NA,NA,NA,NA,NA,NA,NA,NA,NA,74.84,METAR KLGA 140400Z 30006KT 15SM CLR 24/17 A2994 RMK SLP139 T02380166,NA
LGA,1973-08-14T05:00:00Z,-73.8803,40.7794,72.86,62.96,71.11,20,4,NA,29.94,1013.9,10,NA,CLR,   ,   ,   ,NA,NA,NA,NA,NA,NA,NA,NA,NA,NA,NA,72.86,METAR KLGA 140500Z 02004KT 10SM CLR 23/17 A2994 RMK SLP139 T02270172,NA
LGA,1973-08-14T06:00:00Z,-73.8803,40.7794,73.04,62.96,70.68,50,3,NA,29.94,1013.9,10,NA,CLR,   ,   ,   ,NA,NA,NA,NA,NA,NA,NA,NA,NA,NA,NA,73.04,METAR KLGA 140600Z 05003KT 10SM CLR 23/17 A2994 RMK FEW CU SLP139 T02280172,NA
LGA,1973-08-14T07:00:00Z,-73.8803,40.7794,70.88,62.96,76.04,60,3,NA,29.94,1013.9,10,NA,CLR,   ,   ,   ,NA,NA,NA,NA,NA,NA,NA,NA,NA,NA,NA,70.88,METAR KLGA 140700Z 06003KT 10SM CLR 22/17 A2994 RMK SLP139 T02160172,NA
LGA,1973-08-14T08:00:00Z,-73.8803,40.7794,69.98,64.94,84.04,30,4,NA,29.94,1013.9,10,NA,SCT,SCT,   ,   ,10000,30000,NA,NA,NA,NA,NA,NA,NA,NA,NA,69.98,METAR KLGA 140800Z 03004KT 10SM SCT100 SCT300 21/18 A2994 RMK SLP139 T02110183,NA
LGA,1973-08-14T09:00:00Z,-73.8803,40.7794,69.08,64.04,83.98,50,4,NA,29.93,1013.5,10,NA,SCT,BKN,   ,   ,10000,30000,NA,NA,NA,NA,NA,NA,NA,NA,NA,69.08,METAR KLGA 140900Z 05004KT 10SM SCT100 BKN300 21/18 A2993 RMK SLP135 8/034 T02060178 58003,NA
LGA,1973-08-14T10:00:00Z,-73.8803,40.7794,68,63.86,86.61,60,5,NA,29.94,1013.9,10,NA,BKN,   ,   ,   ,30000,NA,NA,NA,NA,NA,NA,NA,NA,NA,NA,68,METAR KLGA 141000Z 06005KT 10SM BKN300 20/18 A2994 RMK SLP139 T02000177,NA
LGA,1973-08-14T11:00:00Z,-73.8803,40.7794,68.9,62.96,81.36,60,6,NA,29.94,1013.9,10,NA,BKN,   ,   ,   ,30000,NA,NA,NA,NA,NA,NA,NA,NA,NA,NA,68.9,METAR KLGA 141100Z 06006KT 10SM BKN300 20/17 A2994 RMK SLP139 T02050172,NA
LGA,1973-08-14T12:00:00Z,-73.8803,40.7794,71.06,62.96,75.57,60,7,NA,29.96,1014.6,10,NA,BKN,   ,   ,   ,30000,NA,NA,NA,NA,NA,NA,NA,NA,NA,NA,71.06,METAR KLGA 141200Z 06007KT 10SM BKN300 22/17 A2996 RMK SLP146 T02170172,NA
LGA,1973-08-14T13:00:00Z,-73.8803,40.7794,73.94,62.96,68.57,50,8,NA,29.96,1014.6,10,NA,BKN,BKN,   ,   ,10000,25000,NA,NA,NA,NA,NA,NA,NA,NA,NA,73.94,METAR KLGA 141300Z 05008KT 10SM BKN100 BKN250 23/17 A2996 RMK SLP146 T02330172,NA
LGA,1973-08-14T14:00:00Z,-73.8803,40.7794,74.84,64.94,71.31,40,9,NA,29.96,1014.6,10,NA,BKN,BKN,   ,   ,10000,25000,NA,NA,NA,NA,NA,NA,NA,NA,NA,74.84,METAR KLGA 141400Z 04009KT 10SM BKN100 BKN250 24/18 A2996 RMK SLP146 T02380183,NA
LGA,1973-08-14T15:00:00Z,-73.8803,40.7794,75.02,64.94,70.88,60,10,NA,29.97,1014.9,10,NA,BKN,OVC,   ,   ,10000,25000,NA,NA,NA,NA,NA,NA,NA,NA,NA,75.02,METAR KLGA 141500Z 06010KT 10SM BKN100 OVC250 24/18 A2997 RMK SLP149 8/057 T02390183 53003,NA
LGA,1973-08-14T16:00:00Z,-73.8803,40.7794,77,66.92,71.08,50,10,NA,29.97,1014.6,8,NA,SCT,BKN,   ,   ,2500,10000,NA,NA,NA,NA,NA,NA,NA,NA,NA,77,METAR KLGA 141600Z 05010KT 8SM SCT025 BKN100 25/19 A2997 RMK VA SLP146 T02500194,NA
LGA,1973-08-14T17:00:00Z,-73.8803,40.7794,78.98,66.92,66.58,40,10,NA,29.95,1014.5,10,NA,BKN,BKN,   ,   ,3000,10000,NA,NA,NA,NA,NA,NA,NA,NA,NA,81.14,METAR KLGA 141700Z 04010KT 10SM BKN030 BKN100 26/19 A2995 RMK LGA C8/14 SLP145 T02610194,NA
LGA,1973-08-14T18:00:00Z,-73.8803,40.7794,78.08,66.02,66.48,40,11,NA,29.94,1013.9,10,NA,BKN,OVC,   ,   ,3000,10000,NA,NA,NA,NA,NA,NA,NA,NA,NA,78.08,METAR KLGA 141800Z 04011KT 10SM BKN030 OVC100 26/19 A2994 RMK VA SLP139 T02560189,NA
LGA,1973-08-14T19:00:00Z,-73.8803,40.7794,78.98,64.94,62.16,70,7,NA,29.94,1013.9,8,NA,BKN,OVC,   ,   ,3000,10000,NA,NA,NA,NA,NA,NA,NA,NA,NA,80.82,METAR KLGA 141900Z 07007KT 8SM BKN030 OVC100 26/18 A2994 RMK VA SLP139 T02610183,NA
LGA,1973-08-14T20:00:00Z,-73.8803,40.7794,79.88,61.88,54.2,120,8,NA,29.93,1013.5,8,NA,SCT,BKN,OVC,   ,3000,6000,10000,NA,NA,NA,NA,NA,NA,NA,NA,81.09,METAR KLGA 142000Z 12008KT 8SM SCT030 BKN060 OVC100 27/17 A2993 RMK SLP135 T02660166,NA
LGA,1973-08-14T21:00:00Z,-73.8803,40.7794,78.98,64.04,60.23,180,12,NA,29.92,1013.2,8,NA,SCT,BKN,OVC,   ,3000,6000,10000,NA,NA,NA,NA,NA,NA,NA,NA,80.68,METAR KLGA 142100Z 18012KT 8SM SCT030 BKN060 OVC100 26/18 A2992 RMK / SLP132 8/57/ T02610178 58007,NA
LGA,1973-08-14T22:00:00Z,-73.8803,40.7794,77,65.84,68.47,140,8,NA,29.92,1013.2,7,NA,BKN,OVC,   ,   ,6000,12000,NA,NA,NA,NA,NA,NA,NA,NA,NA,77,METAR KLGA 142200Z 14008KT 7SM BKN060 OVC120 25/19 A2992 RMK SLP132 T02500188,NA
LGA,1973-08-14T23:00:00Z,-73.8803,40.7794,74.84,64.94,71.31,180,8,NA,29.92,1013.2,7,NA,BKN,OVC,   ,   ,6000,12000,NA,NA,NA,NA,NA,NA,NA,NA,NA,74.84,METAR KLGA 142300Z 18008KT 7SM BKN060 OVC120 24/18 A2992 RMK VA SLP132 T02380183,NA
LGA,1973-08-15T00:00:00Z,-73.8803,40.7794,75.02,64.94,70.88,170,7,NA,29.91,1012.9,7,NA,SCT,BKN,   ,   ,7000,15000,NA,NA,NA,NA,NA,NA,NA,NA,NA,75.02,METAR KLGA 150000Z 17007KT 7SM SCT070 BKN150 24/18 A2991 RMK VA SLP129 T02390183,NA
LGA,1973-08-15T01:00:00Z,-73.8803,40.7794,74.84,62.96,66.53,80,11,NA,29.91,1012.9,7,NA,SCT,BKN,   ,   ,7000,15000,NA,NA,NA,NA,NA,NA,NA,NA,NA,74.84,METAR KLGA 150100Z 08011KT 7SM SCT070 BKN150 24/17 A2991 RMK VA SLP129 T02380172,NA
LGA,1973-08-15T02:00:00Z,-73.8803,40.7794,73.94,65.84,75.83,110,8,NA,29.91,1012.9,7,NA,BKN,OVC,   ,   ,5000,15000,NA,NA,NA,NA,NA,NA,NA,NA,NA,73.94,METAR KLGA 150200Z 11008KT 7SM BKN050 OVC150 23/19 A2991 RMK VA SLP129 T02330188,NA
LGA,1973-08-15T03:00:00Z,-73.8803,40.7794,73.94,66.92,78.72,140,8,NA,29.91,1012.9,7,NA,BKN,OVC,   ,   ,2600,10000,NA,NA,-RA,NA,NA,NA,NA,NA,NA,73.94,METAR KLGA 150300Z 14008KT 7SM -RA BKN026 OVC100 23/19 A2991 RMK RB44/ VA SLP129 8/57/ T02330194 55000,NA
LGA,1973-08-15T04:00:00Z,-73.8803,40.7794,72.86,68,84.74,80,8,NA,29.91,1012.9,7,NA,OVC,   ,   ,   ,2500,NA,NA,NA,NA,NA,NA,NA,NA,NA,NA,72.86,METAR KLGA 150400Z 08008KT 7SM OVC025 23/20 A2991 RMK RB44E20 SLP129 T02270200,NA
LGA,1973-08-15T05:00:00Z,-73.8803,40.7794,71.96,68,87.35,40,8,NA,29.9,1012.5,5,NA,OVC,   ,   ,   ,2100,NA,NA,NA,DZ,NA,NA,NA,NA,NA,NA,72.96,METAR KLGA 150500Z 04008KT 5SM DZ OVC021 22/20 A2990 RMK RB05E15 SLP125 T02220200,NA
LGA,1973-08-15T06:00:00Z,-73.8803,40.7794,71.96,68,87.35,40,11,NA,29.88,1011.9,5,NA,OVC,   ,   ,   ,1000,NA,NA,NA,DZ,NA,NA,NA,NA,NA,NA,72.96,METAR KLGA 150600Z 04011KT 5SM DZ OVC010 22/20 A2988 RMK SLP119 T02220200,NA
LGA,1973-08-15T07:00:00Z,-73.8803,40.7794,71.96,68.9,90.1,50,10,NA,29.87,1011.5,5,NA,BKN,OVC,   ,   ,1200,1700,NA,NA,DZ,NA,NA,NA,NA,NA,NA,73.09,METAR KLGA 150700Z 05010KT 5SM DZ BKN012 OVC017 22/20 A2987 RMK SLP115 T02220205,NA
LGA,1973-08-15T09:00:00Z,-73.8803,40.7794,71.1,68,89.94,50,15.04,NA,29.86,NA,6,NA,   ,   ,   ,   ,NA,NA,NA,NA,NA,NA,NA,NA,NA,NA,NA,72.14,METAR KLGA 150900Z 05015KT 6SM FGDZ BKN007 OVC009 22/20 A2986 RMK SLP112 8/6// T02170200 55007,NA
LGA,1973-08-15T10:00:00Z,-73.8803,40.7794,70.88,66.92,87.3,50,11,NA,29.86,1011.2,7,NA,BKN,OVC,   ,   ,1000,1600,NA,NA,NA,NA,NA,NA,NA,NA,NA,70.88,METAR KLGA 151000Z 05011KT 7SM BKN010 OVC016 22/19 A2986 RMK WND 030V070 SLP112 T02160194,NA
LGA,1973-08-15T11:00:00Z,-73.8803,40.7794,70.88,66.92,87.3,50,10,NA,29.87,1011.5,7,NA,BKN,OVC,   ,   ,1000,2400,NA,NA,NA,NA,NA,NA,NA,NA,NA,70.88,METAR KLGA 151100Z 05010KT 7SM BKN010 OVC024 22/19 A2987 RMK SLP115 T02160194,NA
LGA,1973-08-15T12:00:00Z,-73.8803,40.7794,71.06,66.92,86.77,60,9,NA,29.88,1011.9,7,NA,BKN,OVC,   ,   ,800,1100,NA,NA,NA,NA,NA,NA,NA,NA,NA,71.06,METAR KLGA 151200Z 06009KT 7SM BKN008 OVC011 22/19 A2988 RMK SLP119 T02170194,NA
LGA,1973-08-15T13:00:00Z,-73.8803,40.7794,70.88,65.84,84.09,50,12,NA,29.88,1011.9,8,NA,BKN,OVC,   ,   ,900,3300,NA,NA,NA,NA,NA,NA,NA,NA,NA,70.88,METAR KLGA 151300Z 05012KT 8SM BKN009 OVC033 22/19 A2988 RMK SLP119 T02160188,NA
LGA,1973-08-15T14:00:00Z,-73.8803,40.7794,70.88,66.92,87.3,40,9,NA,29.89,1012.2,8,NA,OVC,   ,   ,   ,1000,NA,NA,NA,NA,NA,NA,NA,NA,NA,NA,70.88,METAR KLGA 151400Z 04009KT 8SM OVC010 22/19 A2989 RMK SLP122 T02160194,NA
LGA,1973-08-15T15:00:00Z,-73.8803,40.7794,71.06,66.02,84.1,30,11,NA,29.9,1012.5,8,NA,BKN,OVC,   ,   ,1100,1600,NA,NA,NA,NA,NA,NA,NA,NA,NA,71.06,METAR KLGA 151500Z 03011KT 8SM BKN011 OVC016 22/19 A2990 RMK / SLP125 8/5// T02170189 53007,NA
LGA,1973-08-15T16:00:00Z,-73.8803,40.7794,72.86,66.92,81.64,50,9,NA,29.9,1012.5,10,NA,BKN,OVC,   ,   ,1300,4000,NA,NA,NA,NA,NA,NA,NA,NA,NA,72.86,METAR KLGA 151600Z 05009KT 10SM BKN013 OVC040 23/19 A2990 RMK SLP125 T02270194,NA
LGA,1973-08-15T17:00:00Z,-73.8803,40.7794,73.94,65.84,75.83,50,7,NA,29.89,1012.2,10,NA,BKN,OVC,   ,   ,1700,4000,NA,NA,NA,NA,NA,NA,NA,NA,NA,73.94,METAR KLGA 151700Z 05007KT 10SM BKN017 OVC040 23/19 A2989 RMK SLP122 T02330188,NA
LGA,1973-08-15T18:00:00Z,-73.8803,40.7794,75.02,66.92,75.93,50,9,NA,29.9,1012.5,10,NA,SCT,OVC,   ,   ,2000,5000,NA,NA,NA,NA,NA,NA,NA,NA,NA,75.02,METAR KLGA 151800Z 05009KT 10SM SCT020 OVC050 24/19 A2990 RMK BINOVC SLP125 T02390194,NA
LGA,1973-08-15T19:00:00Z,-73.8803,40.7794,78.98,68,69.11,60,8,NA,29.88,1011.9,10,NA,SCT,SCT,BKN,   ,2000,5000,25000,NA,NA,NA,NA,NA,NA,NA,NA,81.32,METAR KLGA 151900Z 06008KT 10SM SCT020 SCT050 BKN250 26/20 A2988 RMK VA SLP119 T02610200,NA
LGA,1973-08-15T20:00:00Z,-73.8803,40.7794,75.92,66.92,73.68,40,10,NA,29.87,1011.5,10,NA,SCT,OVC,   ,   ,2000,25000,NA,NA,NA,NA,NA,NA,NA,NA,NA,75.92,METAR KLGA 152000Z 04010KT 10SM SCT020 OVC250 24/19 A2987 RMK SLP115 T02440194,NA
LGA,1973-08-15T21:00:00Z,-73.8803,40.7794,75.92,66.92,73.68,40,10,NA,29.87,1011.5,10,NA,SCT,BKN,OVC,   ,2000,10000,25000,NA,NA,NA,NA,NA,NA,NA,NA,75.92,METAR KLGA 152100Z 04010KT 10SM SCT020 BKN100 OVC250 24/19 A2987 RMK / VA SLP115 8/551 T02440194 56008,NA
LGA,1973-08-15T22:00:00Z,-73.8803,40.7794,75.92,65.84,70.97,60,11,NA,29.87,1011.5,10,NA,SCT,BKN,BKN,   ,2000,10000,25000,NA,NA,NA,NA,NA,NA,NA,NA,75.92,METAR KLGA 152200Z 06011KT 10SM SCT020 BKN100 BKN250 24/19 A2987 RMK VA SLP115 T02440188,NA
LGA,1973-08-15T23:00:00Z,-73.8803,40.7794,74.84,65.84,73.58,60,11,NA,29.89,1012.2,10,NA,BKN,OVC,   ,   ,2500,10000,NA,NA,NA,NA,NA,NA,NA,NA,NA,74.84,METAR KLGA 152300Z 06011KT 10SM BKN025 OVC100 24/19 A2989 RMK VA SLP122 T02380188,NA
LGA,1973-08-16T00:00:00Z,-73.8803,40.7794,73.94,64.94,73.49,60,10,0.05,29.91,1012.9,10,NA,BKN,OVC,   ,   ,2500,10000,NA,NA,-SHRA,NA,NA,NA,NA,NA,NA,73.94,METAR KLGA 160000Z 06010KT 10SM -SHRA BKN025 OVC100 23/18 A2991 RMK RB40 VA SLP129 P0005 60002 T02330183,NA
LGA,1973-08-16T00:16:00Z,-73.8803,40.7794,NA,NA,NA,90,11,NA,29.92,NA,4,NA,SCT,OVC,NA,NA,1000,2500,NA,NA,NA,NA,NA,NA,NA,NA,NA,NA,KLGA 160016Z AUTO 09011KT 4SM SCT010 OVC025 A2992 RMK IEM_DS3505,NA
LGA,1973-08-16T01:00:00Z,-73.8803,40.7794,70.88,65.84,84.09,80,7,0.1,29.93,1013.5,8,NA,SCT,OVC,   ,   ,1000,2500,NA,NA,-SHRA,NA,NA,NA,NA,NA,NA,70.88,METAR KLGA 160100Z 08007KT 8SM -SHRA SCT010 OVC025 22/19 A2993 RMK TB14E30/ T MOVD SE/ SLP135 P0010 T02160188,NA
LGA,1973-08-16T03:00:00Z,-73.8803,40.7794,69.98,66.92,90.02,60,6,0.01,29.96,1014.6,8,NA,BKN,OVC,   ,   ,2400,5000,NA,NA,NA,NA,NA,NA,NA,NA,NA,69.98,METAR KLGA 160300Z 06006KT 8SM BKN024 OVC050 21/19 A2996 RMK / 15// RE37 SLP146 P0001 71722 T02110194 52017,NA
LGA,1973-08-16T04:00:00Z,-73.8803,40.7794,69.98,65.84,86.71,50,7,NA,29.97,1014.9,8,NA,BKN,OVC,   ,   ,2000,3400,NA,NA,NA,NA,NA,NA,NA,NA,NA,69.98,METAR KLGA 160400Z 05007KT 8SM BKN020 OVC034 21/19 A2997 RMK SLP149 T02110188,NA
LGA,1973-08-16T05:00:00Z,-73.8803,40.7794,68.9,65.84,89.98,50,5,NA,29.98,1015.2,10,NA,BKN,OVC,   ,   ,1200,2000,NA,NA,NA,NA,NA,NA,NA,NA,NA,68.9,METAR KLGA 160500Z 05005KT 10SM BKN012 OVC020 20/19 A2998 RMK LTGIC E SLP152 T02050188,NA
LGA,1973-08-16T06:00:00Z,-73.8803,40.7794,69.08,66.02,89.98,40,8,NA,29.99,1015.6,10,NA,BKN,OVC,   ,   ,NA,NA,NA,NA,NA,NA,NA,NA,NA,NA,NA,69.08,METAR KLGA 160600Z 04008KT 10SM BKN/// OVC/// 21/19 A2999 RMK SLP156 60024 T02060189,NA
LGA,1973-08-16T07:00:00Z,-73.8803,40.7794,68.9,64.94,87.2,30,10,NA,29.99,1015.6,15,NA,BKN,OVC,   ,   ,1300,1800,NA,NA,NA,NA,NA,NA,NA,NA,NA,68.9,METAR KLGA 160700Z 03010KT 15SM BKN013 OVC018 20/18 A2999 RMK SLP156 T02050183,NA
LGA,1973-08-16T08:00:00Z,-73.8803,40.7794,68,64.94,89.94,40,10,NA,29.99,1015.6,15,NA,SCT,BKN,OVC,   ,1100,1700,2400,NA,NA,NA,NA,NA,NA,NA,NA,68,METAR KLGA 160800Z 04010KT 15SM SCT011 BKN017 OVC024 20/18 A2999 RMK %V SLP156 T02000183,NA
LGA,1973-08-16T09:00:00Z,-73.8803,40.7794,68,64.94,89.94,50,10,NA,30.01,1016.3,15,NA,BKN,BKN,OVC,   ,1000,1600,2500,NA,NA,NA,NA,NA,NA,NA,NA,68,METAR KLGA 160900Z 05010KT 15SM BKN010 BKN016 OVC025 20/18 A3001 RMK / SLP163 8/5// T02000183 53005,NA
LGA,1973-08-16T10:00:00Z,-73.8803,40.7794,68.9,64.94,87.2,50,11,NA,30.03,1016.9,15,NA,BKN,BKN,OVC,   ,1200,1600,3000,NA,NA,NA,NA,NA,NA,NA,NA,68.9,METAR KLGA 161000Z 05011KT 15SM BKN012 BKN016 OVC030 20/18 A3003 RMK SLP169 T02050183,NA
LGA,1973-08-16T11:00:00Z,-73.8803,40.7794,68,64.94,89.94,50,8,NA,30.06,1018,15,NA,BKN,OVC,   ,   ,1100,1500,NA,NA,NA,NA,NA,NA,NA,NA,NA,68,METAR KLGA 161100Z 05008KT 15SM BKN011 OVC015 20/18 A3006 RMK VSBY LWR SW SLP180 T02000183,NA
LGA,1973-08-16T12:00:00Z,-73.8803,40.7794,68,64.04,87.16,20,8,NA,30.07,1018.3,10,NA,BKN,OVC,   ,   ,1200,1500,NA,NA,NA,NA,NA,NA,NA,NA,NA,68,METAR KLGA 161200Z 02008KT 10SM BKN012 OVC015 20/18 A3007 RMK VA SLP183 70024 T02000178,NA
LGA,1973-08-16T13:00:00Z,-73.8803,40.7794,68.9,64.94,87.2,60,8,NA,30.09,1019,8,NA,BKN,OVC,   ,   ,1100,1500,NA,NA,-SHRA,NA,NA,NA,NA,NA,NA,68.9,METAR KLGA 161300Z 06008KT 8SM -SHRA BKN011 OVC015 20/18 A3009 RMK RB30 VALGA8/15 SLP190 T02050183,NA
LGA,1973-08-16T14:00:00Z,-73.8803,40.7794,68.9,64.94,87.2,50,8,NA,30.11,1018.6,5,NA,SCT,OVC,   ,   ,1100,2300,NA,NA,-DZ DZ,NA,NA,NA,NA,NA,NA,68.9,METAR KLGA 161400Z 05008KT 5SM -DZ DZ SCT011 OVC023 20/18 A3011 RMK %V TWR VSBY 3LGA8/15 SLP186 T02050183,NA
LGA,1973-08-16T15:00:00Z,-73.8803,40.7794,69.98,64.94,84.04,50,10,NA,30.12,1020,5,NA,SCT,OVC,   ,   ,1100,2500,NA,NA,DZ,NA,NA,NA,NA,NA,NA,69.98,METAR KLGA 161500Z 05010KT 5SM DZ SCT011 OVC025 21/18 A3012 RMK LE20 VALGA8/15 SLP200 8/5// T02110183 51017,NA
LGA,1973-08-16T16:00:00Z,-73.8803,40.7794,71.96,64.94,78.57,60,8,NA,30.13,1020.3,6,NA,SCT,OVC,   ,   ,1500,3000,NA,NA,DZ,NA,NA,NA,NA,NA,NA,71.96,METAR KLGA 161600Z 06008KT 6SM DZ SCT015 OVC030 22/18 A3013 RMK SLP203 T02220183,NA
LGA,1973-08-16T17:00:00Z,-73.8803,40.7794,71.96,63.86,75.66,40,12,NA,30.14,1020.7,6,NA,SCT,OVC,   ,   ,2000,3500,NA,NA,DZ,NA,NA,NA,NA,NA,NA,71.96,METAR KLGA 161700Z 04012KT 6SM DZ SCT020 OVC035 22/18 A3014 RMK SLP207 T02220177,NA
LGA,1973-08-16T18:00:00Z,-73.8803,40.7794,75.02,64.94,70.88,50,8,NA,30.15,1021,8,NA,SCT,BKN,BKN,   ,2500,8000,25000,NA,NA,NA,NA,NA,NA,NA,NA,75.02,METAR KLGA 161800Z 05008KT 8SM SCT025 BKN080 BKN250 24/18 A3015 RMK SLP210 T02390183,NA
LGA,1973-08-16T19:00:00Z,-73.8803,40.7794,75.92,64.94,68.78,60,10,NA,30.14,1020.7,10,NA,SCT,BKN,BKN,   ,2500,8000,25000,NA,NA,NA,NA,NA,NA,NA,NA,75.92,METAR KLGA 161900Z 06010KT 10SM SCT025 BKN080 BKN250 24/18 A3014 RMK SLP207 T02440183,NA
LGA,1973-08-16T20:00:00Z,-73.8803,40.7794,74.84,63.86,68.67,40,9,NA,30.13,1020.3,7,NA,SCT,OVC,   ,   ,2500,4400,NA,NA,NA,NA,NA,NA,NA,NA,NA,74.84,METAR KLGA 162000Z 04009KT 7SM SCT025 OVC044 24/18 A3013 RMK VA SLP203 T02380177,NA
LGA,1973-08-16T21:00:00Z,-73.8803,40.7794,73.94,64.04,71.22,40,8,NA,30.13,1020.3,10,NA,SCT,OVC,   ,   ,2000,4500,NA,NA,NA,NA,NA,NA,NA,NA,NA,73.94,METAR KLGA 162100Z 04008KT 10SM SCT020 OVC045 23/18 A3013 RMK VA SLP203 8/5// T02330178 56005,NA
LGA,1973-08-16T22:00:00Z,-73.8803,40.7794,73.94,63.86,70.77,50,9,NA,30.13,1020.3,10,NA,SCT,OVC,   ,   ,2000,4500,NA,NA,NA,NA,NA,NA,NA,NA,NA,73.94,METAR KLGA 162200Z 05009KT 10SM SCT020 OVC045 23/18 A3013 RMK VA SLP203 T02330177,NA
LGA,1973-08-16T23:00:00Z,-73.8803,40.7794,73.94,63.86,70.77,60,7,NA,30.12,1020,10,NA,BKN,   ,   ,   ,4500,NA,NA,NA,NA,NA,NA,NA,NA,NA,NA,73.94,METAR KLGA 162300Z 06007KT 10SM BKN045 23/18 A3012 RMK FEW LWR SC SLP200 T02330177,NA
LGA,1973-08-17T00:00:00Z,-73.8803,40.7794,73.04,62.96,70.68,40,6,NA,30.14,1020.7,10,NA,SCT,BKN,   ,   ,2000,4500,NA,NA,NA,NA,NA,NA,NA,NA,NA,73.04,METAR KLGA 170000Z 04006KT 10SM SCT020 BKN045 23/17 A3014 RMK VALGA8/16 Y SLP207 T02280172,NA
LGA,1973-08-17T01:00:00Z,-73.8803,40.7794,71.96,64.94,78.57,170,10,NA,30.17,1021.7,10,NA,SCT,BKN,   ,   ,2000,4500,NA,NA,NA,NA,NA,NA,NA,NA,NA,71.96,METAR KLGA 170100Z 17010KT 10SM SCT020 BKN045 22/18 A3017 RMK VALGA8/16 SLP217 T02220183,NA
LGA,1973-08-17T02:00:00Z,-73.8803,40.7794,71.96,63.86,75.66,160,5,NA,30.17,1021.7,10,NA,SCT,   ,   ,   ,4500,NA,NA,NA,NA,NA,NA,NA,NA,NA,NA,71.96,METAR KLGA 170200Z 16005KT 10SM SCT045 22/18 A3017 RMK VALGA8/16 SLP217 T02220177,NA
LGA,1973-08-17T03:00:00Z,-73.8803,40.7794,69.98,64.04,81.44,130,7,NA,30.18,1022,15,NA,SCT,   ,   ,   ,4500,NA,NA,NA,NA,NA,NA,NA,NA,NA,NA,69.98,METAR KLGA 170300Z 13007KT 15SM SCT045 21/18 A3018 RMK / VA SLP220 8/500 T02110178 51014,NA
LGA,1973-08-17T04:00:00Z,-73.8803,40.7794,69.98,63.86,80.92,130,5,NA,30.18,1022,15,NA,SCT,   ,   ,   ,4500,NA,NA,NA,NA,NA,NA,NA,NA,NA,NA,69.98,METAR KLGA 170400Z 13005KT 15SM SCT045 21/18 A3018 RMK SLP220 T02110177,NA
LGA,1973-08-17T05:00:00Z,-73.8803,40.7794,68.9,63.86,83.97,130,5,NA,30.19,1022.4,10,NA,CLR,   ,   ,   ,NA,NA,NA,NA,NA,NA,NA,NA,NA,NA,NA,68.9,METAR KLGA 170500Z 13005KT 10SM CLR 20/18 A3019 RMK VA SLP224 T02050177,NA
LGA,1973-08-17T06:00:00Z,-73.8803,40.7794,69.08,64.04,83.98,130,5,NA,30.19,1022.4,9,NA,SCT,   ,   ,   ,4000,NA,NA,NA,NA,NA,NA,NA,NA,NA,NA,69.08,METAR KLGA 170600Z 13005KT 9SM SCT040 21/18 A3019 RMK SLP224 T02060178,NA
LGA,1973-08-17T07:00:00Z,-73.8803,40.7794,68.9,63.86,83.97,140,5,NA,30.2,1022.7,8,NA,BKN,   ,   ,   ,4000,NA,NA,NA,NA,NA,NA,NA,NA,NA,NA,68.9,METAR KLGA 170700Z 14005KT 8SM BKN040 20/18 A3020 RMK VA SLP227 T02050177,NA
LGA,1973-08-17T08:00:00Z,-73.8803,40.7794,68.9,63.86,83.97,0,0,NA,30.2,1022.7,8,NA,BKN,   ,   ,   ,4000,NA,NA,NA,NA,NA,NA,NA,NA,NA,NA,68.9,METAR KLGA 170800Z 00000KT 8SM BKN040 20/18 A3020 RMK SLP227 T02050177,NA
LGA,1973-08-17T09:00:00Z,-73.8803,40.7794,69.08,64.94,86.66,70,4,NA,30.2,1022.7,7,NA,SCT,BKN,   ,   ,1000,4000,NA,NA,NA,NA,NA,NA,NA,NA,NA,69.08,METAR KLGA 170900Z 07004KT 7SM SCT010 BKN040 21/18 A3020 RMK SLP227 8/500 T02060183 51003,NA
LGA,1973-08-17T10:00:00Z,-73.8803,40.7794,68,64.94,89.94,70,4,NA,30.21,1023,6,NA,BKN,   ,   ,   ,7000,NA,NA,NA,DZ,NA,NA,NA,NA,NA,NA,68,METAR KLGA 171000Z 07004KT 6SM DZ BKN070 20/18 A3021 RMK SLP230 T02000183,NA
LGA,1973-08-17T11:00:00Z,-73.8803,40.7794,68.9,65.84,89.98,40,6,NA,30.22,1023.4,5,NA,SCT,BKN,BKN,   ,3100,5000,12000,NA,DZ,NA,NA,NA,NA,NA,NA,68.9,METAR KLGA 171100Z 04006KT 5SM DZ SCT031 BKN050 BKN120 20/19 A3022 RMK SLP234 T02050188,NA
LGA,1973-08-17T12:00:00Z,-73.8803,40.7794,69.98,66.02,87.26,70,6,NA,30.22,1023.4,5,NA,SCT,BKN,BKN,   ,3100,7000,12000,NA,DZ,NA,NA,NA,NA,NA,NA,69.98,METAR KLGA 171200Z 07006KT 5SM DZ SCT031 BKN070 BKN120 21/19 A3022 RMK SLP234 T02110189,NA
LGA,1973-08-17T13:00:00Z,-73.8803,40.7794,71.96,65.84,81.07,0,0,NA,30.23,1023.7,5,NA,SCT,SCT,OVC,   ,1500,3000,7000,NA,DZ,NA,NA,NA,NA,NA,NA,71.96,METAR KLGA 171300Z 00000KT 5SM DZ SCT015 SCT030 OVC070 22/19 A3023 RMK BINOVC VA SLP237 T02220188,NA
LGA,1973-08-17T14:00:00Z,-73.8803,40.7794,72.86,64.94,76.21,80,4,NA,30.23,1023.7,4,NA,SCT,OVC,   ,   ,3500,7000,NA,NA,DZ,NA,NA,NA,NA,NA,NA,72.86,METAR KLGA 171400Z 08004KT 4SM DZ SCT035 OVC070 23/18 A3023 RMK VA SLP237 T02270183,NA
LGA,1973-08-17T15:00:00Z,-73.8803,40.7794,73.94,66.02,76.31,40,5,NA,30.23,1023.7,4,NA,SCT,OVC,   ,   ,3500,7000,NA,NA,DZ,NA,NA,NA,NA,NA,NA,73.94,METAR KLGA 171500Z 04005KT 4SM DZ SCT035 OVC070 23/19 A3023 RMK BINOVC VA SLP237 8/57/ T02330189 51003,NA
LGA,1973-08-17T16:00:00Z,-73.8803,40.7794,74.84,64.94,71.31,80,3,NA,30.23,1023.7,4,NA,SCT,SCT,OVC,   ,2500,3500,7000,NA,DZ,NA,NA,NA,NA,NA,NA,74.84,METAR KLGA 171600Z 08003KT 4SM DZ SCT025 SCT035 OVC070 24/18 A3023 RMK VA SLP237 T02380183,NA
LGA,1973-08-17T17:00:00Z,-73.8803,40.7794,77,65.84,68.47,330,5,NA,30.23,1023.7,4,NA,SCT,SCT,BKN,   ,2400,3700,7000,NA,DZ,NA,NA,NA,NA,NA,NA,77,METAR KLGA 171700Z 33005KT 4SM DZ SCT024 SCT037 BKN070 25/19 A3023 RMK WND LGT VRBL VA SLP237 T02500188,NA
LGA,1973-08-17T18:00:00Z,-73.8803,40.7794,75.92,66.02,71.42,300,4,NA,30.22,1023.4,5,NA,SCT,SCT,BKN,   ,2400,3500,7000,NA,DZ,NA,NA,NA,NA,NA,NA,75.92,METAR KLGA 171800Z 30004KT 5SM DZ SCT024 SCT035 BKN070 24/19 A3022 RMK VA SLP234 T02440189,NA
LGA,1973-08-17T19:00:00Z,-73.8803,40.7794,78.98,64.94,62.16,170,5,NA,30.2,1022.7,5,NA,SCT,SCT,   ,   ,2800,7000,NA,NA,DZ,NA,NA,NA,NA,NA,NA,80.82,METAR KLGA 171900Z 17005KT 5SM DZ SCT028 SCT070 26/18 A3020 RMK VA SLP227 T02610183,NA
LGA,1973-08-17T20:00:00Z,-73.8803,40.7794,78.98,64.94,62.16,180,11,NA,30.19,1022.4,5,NA,SCT,SCT,   ,   ,3000,7000,NA,NA,DZ,NA,NA,NA,NA,NA,NA,80.82,METAR KLGA 172000Z 18011KT 5SM DZ SCT030 SCT070 26/18 A3019 RMK VA SLP224 T02610183,NA
LGA,1973-08-17T21:00:00Z,-73.8803,40.7794,78.08,64.04,62.05,140,9,NA,30.19,1022.4,7,NA,SCT,BKN,   ,   ,3000,7000,NA,NA,NA,NA,NA,NA,NA,NA,NA,78.08,METAR KLGA 172100Z 14009KT 7SM SCT030 BKN070 26/18 A3019 RMK VA/ 0 SLP224 8/140 T02560178,NA
LGA,1973-08-17T22:00:00Z,-73.8803,40.7794,75.92,64.94,68.78,190,11,NA,30.18,1022,7,NA,SCT,SCT,   ,   ,3000,7000,NA,NA,NA,NA,NA,NA,NA,NA,NA,75.92,METAR KLGA 172200Z 19011KT 7SM SCT030 SCT070 24/18 A3018 RMK VA SLP220 T02440183,NA
LGA,1973-08-17T23:00:00Z,-73.8803,40.7794,73.94,62.96,68.57,150,8,NA,30.18,1022,7,NA,SCT,SCT,   ,   ,3000,7000,NA,NA,NA,NA,NA,NA,NA,NA,NA,73.94,METAR KLGA 172300Z 15008KT 7SM SCT030 SCT070 23/17 A3018 RMK VA SLP220 T02330172,NA
LGA,1973-08-18T00:00:00Z,-73.8803,40.7794,73.04,62.96,70.68,180,10,NA,30.17,1021.7,7,NA,SCT,   ,   ,   ,7000,NA,NA,NA,NA,NA,NA,NA,NA,NA,NA,73.04,METAR KLGA 180000Z 18010KT 7SM SCT070 23/17 A3017 RMK VA SLP217 T02280172,NA
LGA,1973-08-18T01:00:00Z,-73.8803,40.7794,72.86,62.96,71.11,180,6,NA,30.18,1022,7,NA,SCT,   ,   ,   ,7000,NA,NA,NA,NA,NA,NA,NA,NA,NA,NA,72.86,METAR KLGA 180100Z 18006KT 7SM SCT070 23/17 A3018 RMK SLP220 T02270172,NA
LGA,1973-08-18T02:00:00Z,-73.8803,40.7794,71.96,63.86,75.66,180,8,NA,30.19,1022.4,7,NA,SCT,SCT,   ,   ,9000,25000,NA,NA,NA,NA,NA,NA,NA,NA,NA,71.96,METAR KLGA 180200Z 18008KT 7SM SCT090 SCT250 22/18 A3019 RMK SLP224 T02220177,NA
LGA,1973-08-18T03:00:00Z,-73.8803,40.7794,71.06,64.04,78.49,180,9,NA,30.2,1022.7,10,NA,SCT,BKN,   ,   ,NA,NA,NA,NA,NA,NA,NA,NA,NA,NA,NA,71.06,METAR KLGA 180300Z 18009KT 10SM SCT/// BKN/// 22/18 A//// RMK SLP227 T02170178,NA
LGA,1973-08-18T04:00:00Z,-73.8803,40.7794,70.88,63.86,78.48,180,5,NA,30.2,1022.7,9,NA,SCT,BKN,   ,   ,3000,25000,NA,NA,NA,NA,NA,NA,NA,NA,NA,70.88,METAR KLGA 180400Z 18005KT 9SM SCT030 BKN250 22/18 A3020 RMK SLP227 T02160177,NA
LGA,1973-08-18T05:00:00Z,-73.8803,40.7794,70.88,63.86,78.48,190,4,NA,30.2,1022.7,10,NA,SCT,   ,   ,   ,25000,NA,NA,NA,NA,NA,NA,NA,NA,NA,NA,70.88,METAR KLGA 180500Z 19004KT 10SM SCT250 22/18 A3020 RMK SLP227 T02160177,NA
LGA,1973-08-18T06:00:00Z,-73.8803,40.7794,71.06,64.04,78.49,150,4,NA,30.19,1022.4,10,NA,BKN,   ,   ,   ,25000,NA,NA,NA,NA,NA,NA,NA,NA,NA,NA,71.06,METAR KLGA 180600Z 15004KT 10SM BKN250 22/18 A3019 RMK SLP224 T02170178,NA
LGA,1973-08-18T07:00:00Z,-73.8803,40.7794,69.98,63.86,80.92,200,5,NA,30.18,1022,10,NA,SCT,BKN,   ,   ,9000,25000,NA,NA,NA,NA,NA,NA,NA,NA,NA,69.98,METAR KLGA 180700Z 20005KT 10SM SCT090 BKN250 21/18 A3018 RMK SLP220 T02110177,NA
LGA,1973-08-18T08:00:00Z,-73.8803,40.7794,68.9,63.86,83.97,140,5,NA,30.17,1021.7,10,NA,SCT,BKN,   ,   ,9000,25000,NA,NA,NA,NA,NA,NA,NA,NA,NA,68.9,METAR KLGA 180800Z 14005KT 10SM SCT090 BKN250 20/18 A3017 RMK SLP217 T02050177,NA
LGA,1973-08-18T09:00:00Z,-73.8803,40.7794,69.08,64.94,86.66,0,0,NA,30.17,1021.7,8,NA,SCT,BKN,   ,   ,9000,25000,NA,NA,NA,NA,NA,NA,NA,NA,NA,69.08,METAR KLGA 180900Z 00000KT 8SM SCT090 BKN250 21/18 A3017 RMK SLP217 8/034 T02060183 56007,NA
LGA,1973-08-18T10:00:00Z,-73.8803,40.7794,68,64.94,89.94,40,4,NA,30.17,1021.7,8,NA,SCT,BKN,   ,   ,8000,25000,NA,NA,NA,NA,NA,NA,NA,NA,NA,68,METAR KLGA 181000Z 04004KT 8SM SCT080 BKN250 20/18 A3017 RMK VA SLP217 T02000183,NA
LGA,1973-08-18T11:00:00Z,-73.8803,40.7794,68,64.94,89.94,50,5,NA,30.18,1022,6,NA,SCT,SCT,BKN,   ,1500,8000,20000,NA,DZ,NA,NA,NA,NA,NA,NA,68,METAR KLGA 181100Z 05005KT 6SM DZ SCT015 SCT080 BKN200 20/18 A3018 RMK VA SLP220 T02000183,NA
LGA,1973-08-18T12:00:00Z,-73.8803,40.7794,69.08,66.02,89.98,40,6,NA,30.18,1022,7,NA,BKN,OVC,   ,   ,1200,8000,NA,NA,NA,NA,NA,NA,NA,NA,NA,69.08,METAR KLGA 181200Z 04006KT 7SM BKN012 OVC080 21/19 A3018 RMK SLP220 T02060189,NA
LGA,1973-08-18T13:00:00Z,-73.8803,40.7794,70.88,66.92,87.3,30,8,NA,30.17,1021.7,7,NA,SCT,BKN,OVC,   ,2000,12000,25000,NA,NA,NA,NA,NA,NA,NA,NA,70.88,METAR KLGA 181300Z 03008KT 7SM SCT020 BKN120 OVC250 22/19 A3017 RMK / FEW LWR SLP217 T02160194,NA
LGA,1973-08-18T14:00:00Z,-73.8803,40.7794,70.88,66.92,87.3,20,7,NA,30.16,1021.3,8,NA,SCT,OVC,   ,   ,2000,12000,NA,NA,NA,NA,NA,NA,NA,NA,NA,70.88,METAR KLGA 181400Z 02007KT 8SM SCT020 OVC120 22/19 A3016 RMK %V SLP213 T02160194,NA
LGA,1973-08-18T15:00:00Z,-73.8803,40.7794,73.04,66.02,78.65,40,7,NA,30.16,1021.3,7,NA,SCT,OVC,   ,   ,2000,12000,NA,NA,NA,NA,NA,NA,NA,NA,NA,73.04,METAR KLGA 181500Z 04007KT 7SM SCT020 OVC120 23/19 A3016 RMK / 153 SLP213 T02280189 56007,NA
LGA,1973-08-18T16:00:00Z,-73.8803,40.7794,72.86,65.84,78.64,40,8,NA,30.16,1021.3,8,NA,SCT,OVC,   ,   ,1600,10000,NA,NA,NA,NA,NA,NA,NA,NA,NA,72.86,METAR KLGA 181600Z 04008KT 8SM SCT016 OVC100 23/19 A3016 RMK VA SLP213 T02270188,NA
LGA,1973-08-18T17:00:00Z,-73.8803,40.7794,74.84,66.92,76.38,60,6,NA,30.15,1021,7,NA,SCT,OVC,   ,   ,2000,10000,NA,NA,NA,NA,NA,NA,NA,NA,NA,74.84,METAR KLGA 181700Z 06006KT 7SM SCT020 OVC100 24/19 A3015 RMK VIRGA SE VA SLP210 T02380194,NA
LGA,1973-08-18T18:00:00Z,-73.8803,40.7794,75.02,66.02,73.59,60,6,NA,30.15,1021,10,NA,SCT,BKN,OVC,   ,1600,2500,10000,NA,NA,NA,NA,NA,NA,NA,NA,75.02,METAR KLGA 181800Z 06006KT 10SM SCT016 BKN025 OVC100 24/19 A3015 RMK %V VA SLP210 T02390189,NA
LGA,1973-08-18T19:00:00Z,-73.8803,40.7794,75.92,64.94,68.78,160,7,NA,30.13,1020.3,10,NA,SCT,BKN,OVC,   ,2000,3000,10000,NA,NA,NA,NA,NA,NA,NA,NA,75.92,METAR KLGA 181900Z 16007KT 10SM SCT020 BKN030 OVC100 24/18 A3013 RMK VA SLP203 T02440183,NA
LGA,1973-08-18T20:00:00Z,-73.8803,40.7794,74.84,63.86,68.67,140,8,NA,30.12,1020,10,NA,SCT,OVC,   ,   ,2500,10000,NA,NA,NA,NA,NA,NA,NA,NA,NA,74.84,METAR KLGA 182000Z 14008KT 10SM SCT025 OVC100 24/18 A3012 RMK VA SLP200 T02380177,NA
LGA,1973-08-18T21:00:00Z,-73.8803,40.7794,75.02,64.04,68.69,120,7,NA,30.1,1019.3,10,NA,SCT,OVC,   ,   ,2500,5000,NA,NA,NA,NA,NA,NA,NA,NA,NA,75.02,METAR KLGA 182100Z 12007KT 10SM SCT025 OVC050 24/18 A3010 RMK / VA SLP193 8/5// T02390178 57017,NA
LGA,1973-08-18T22:00:00Z,-73.8803,40.7794,73.94,59.9,61.53,140,7,NA,30.1,1019.3,10,NA,SCT,OVC,   ,   ,2500,5000,NA,NA,NA,NA,NA,NA,NA,NA,NA,73.94,METAR KLGA 182200Z 14007KT 10SM SCT025 OVC050 23/16 A3010 RMK VA SLP193 T02330155,NA
LGA,1973-08-18T23:00:00Z,-73.8803,40.7794,73.94,59.9,61.53,90,5,NA,30.09,1019,10,NA,SCT,BKN,   ,   ,3000,6000,NA,NA,NA,NA,NA,NA,NA,NA,NA,73.94,METAR KLGA 182300Z 09005KT 10SM SCT030 BKN060 23/16 A3009 RMK VA SLP190 T02330155,NA
LGA,1973-08-19T00:00:00Z,-73.8803,40.7794,73.04,60.98,65.9,80,5,NA,30.09,1019,10,NA,SCT,SCT,   ,   ,NA,NA,NA,NA,NA,NA,NA,NA,NA,NA,NA,73.04,METAR KLGA 190000Z 08005KT 10SM SCT/// SCT/// 23/16 A3009 RMK SLP190 T02280161,NA
LGA,1973-08-19T01:00:00Z,-73.8803,40.7794,70.88,61.88,73.2,60,5,NA,30.09,1019,15,NA,SCT,   ,   ,   ,8000,NA,NA,NA,NA,NA,NA,NA,NA,NA,NA,70.88,METAR KLGA 190100Z 06005KT 15SM SCT080 22/17 A3009 RMK SLP190 T02160166,NA
LGA,1973-08-19T02:00:00Z,-73.8803,40.7794,69.98,62.96,78.41,60,7,NA,30.09,1019,15,NA,SCT,SCT,   ,   ,8000,25000,NA,NA,NA,NA,NA,NA,NA,NA,NA,69.98,METAR KLGA 190200Z 06007KT 15SM SCT080 SCT250 21/17 A3009 RMK SLP190 T02110172,NA
LGA,1973-08-19T03:00:00Z,-73.8803,40.7794,69.98,64.04,81.44,80,8,NA,30.09,1019,10,NA,SCT,   ,   ,   ,8000,NA,NA,NA,NA,NA,NA,NA,NA,NA,NA,69.98,METAR KLGA 190300Z 08008KT 10SM SCT080 21/18 A3009 RMK / SLP190 8/050 T02110178 54000,NA
LGA,1973-08-19T04:00:00Z,-73.8803,40.7794,68.9,63.86,83.97,90,5,NA,30.08,1018.6,10,NA,SCT,   ,   ,   ,4000,NA,NA,NA,NA,NA,NA,NA,NA,NA,NA,68.9,METAR KLGA 190400Z 09005KT 10SM SCT040 20/18 A3008 RMK SLP186 T02050177,NA
LGA,1973-08-19T05:00:00Z,-73.8803,40.7794,68,62.96,83.91,60,5,NA,30.07,1018.3,10,NA,SCT,   ,   ,   ,10000,NA,NA,NA,NA,NA,NA,NA,NA,NA,NA,68,METAR KLGA 190500Z 06005KT 10SM SCT100 20/17 A3007 RMK SLP183 T02000172,NA
LGA,1973-08-19T06:00:00Z,-73.8803,40.7794,66.92,64.04,90.46,10,6,NA,30.07,1018.3,10,NA,SCT,BKN,   ,   ,10000,20000,NA,NA,NA,NA,NA,NA,NA,NA,NA,66.92,METAR KLGA 190600Z 01006KT 10SM SCT100 BKN200 19/18 A3007 RMK SLP183 T01940178,NA
LGA,1973-08-19T07:00:00Z,-73.8803,40.7794,66.92,63.86,89.9,50,6,NA,30.06,1018,10,NA,SCT,   ,   ,   ,20000,NA,NA,NA,NA,NA,NA,NA,NA,NA,NA,66.92,METAR KLGA 190700Z 05006KT 10SM SCT200 19/18 A3006 RMK SLP180 T01940177,NA
LGA,1973-08-19T08:00:00Z,-73.8803,40.7794,66.92,63.86,89.9,50,5,NA,30.05,1017.6,10,NA,SCT,   ,   ,   ,30000,NA,NA,NA,NA,NA,NA,NA,NA,NA,NA,66.92,METAR KLGA 190800Z 05005KT 10SM SCT300 19/18 A3005 RMK SLP176 T01940177,NA
LGA,1973-08-19T09:00:00Z,-73.8803,40.7794,66.92,64.04,90.46,10,4,NA,30.04,1017.3,10,NA,SCT,SCT,   ,   ,2000,15000,NA,NA,NA,NA,NA,NA,NA,NA,NA,66.92,METAR KLGA 190900Z 01004KT 10SM SCT020 SCT150 19/18 A3004 RMK SLP173 8/130 T01940178 57010,NA
LGA,1973-08-19T09:56:00Z,-73.8803,40.7794,NA,NA,NA,10,5,NA,30.05,NA,3,NA,BKN,BKN,BKN,NA,500,14800,29500,NA,NA,NA,NA,NA,NA,NA,NA,NA,KLGA 190956Z AUTO 01005KT 3SM BKN005 BKN148 BKN295 A3005 RMK IEM_DS3505,NA
LGA,1973-08-19T10:00:00Z,-73.8803,40.7794,65.84,63.86,93.33,10,6,NA,30.05,1017.6,4,NA,SCT,SCT,BKN,   ,500,15000,30000,NA,FG,NA,NA,NA,NA,NA,NA,65.84,METAR KLGA 191000Z 01006KT 4SM FG SCT005 SCT150 BKN300 19/18 A3005 RMK TWR VSBY 3 FOG BANK NE VA SLP176 T01880177,NA
LGA,1973-08-19T11:00:00Z,-73.8803,40.7794,65.84,63.86,93.33,360,4,NA,30.06,1018,4,NA,BKN,   ,   ,   ,900,NA,NA,NA,FG,NA,NA,NA,NA,NA,NA,65.84,METAR KLGA 191100Z 36004KT 4SM FG BKN009 19/18 A3006 RMK SLP180 T01880177,NA
LGA,1973-08-19T11:13:00Z,-73.8803,40.7794,NA,NA,NA,10,5,NA,30.06,NA,4,NA,SCT,NA,NA,NA,1000,NA,NA,NA,NA,NA,NA,NA,NA,NA,NA,NA,KLGA 191113Z AUTO 01005KT 4SM SCT010 A3006 RMK IEM_DS3505,NA
LGA,1973-08-19T12:00:00Z,-73.8803,40.7794,68,64.9,89.81,50,9.04,NA,30.06,NA,4,NA,   ,   ,   ,   ,NA,NA,NA,NA,NA,NA,NA,NA,NA,NA,NA,68,METAR KLGA 191200Z 05009KT 4SM FGFU BKN009 20/18 A3006 RMK / UA SLP180 T02000183,NA
LGA,1973-08-19T12:21:00Z,-73.8803,40.7794,NA,NA,NA,60,8,NA,30.06,NA,4,NA,SCT,BKN,NA,NA,500,1000,NA,NA,NA,NA,NA,NA,NA,NA,NA,NA,KLGA 191221Z AUTO 06008KT 4SM SCT005 BKN010 A3006 RMK IEM_DS3505,NA
LGA,1973-08-19T13:00:00Z,-73.8803,40.7794,68,65.84,92.8,60,9,NA,30.06,1018,2,NA,BKN,BKN,   ,   ,200,1000,NA,NA,FG,NA,NA,NA,NA,NA,NA,68,METAR KLGA 191300Z 06009KT 2SM FG BKN002 BKN010 20/19 A3006 RMK SLP180 T02000188,NA
LGA,1973-08-19T13:13:00Z,-73.8803,40.7794,NA,NA,NA,40,12,NA,30.06,NA,2,NA,SCT,BKN,OVC,NA,200,500,1000,NA,NA,NA,NA,NA,NA,NA,NA,NA,KLGA 191313Z AUTO 04012KT 2SM SCT002 BKN005 OVC010 A3006 RMK IEM_DS3505,NA
LGA,1973-08-19T13:28:00Z,-73.8803,40.7794,NA,NA,NA,30,8,NA,30.06,NA,2,NA,SCT,BKN,NA,NA,500,800,NA,NA,NA,NA,NA,NA,NA,NA,NA,NA,KLGA 191328Z AUTO 03008KT 2SM SCT005 BKN008 A3006 RMK IEM_DS3505,NA
LGA,1973-08-19T14:00:00Z,-73.8803,40.7794,68.9,65.84,89.98,50,10,NA,30.06,1018,4,NA,SCT,SCT,BKN,   ,400,700,800,NA,FG,NA,NA,NA,NA,NA,NA,68.9,METAR KLGA 191400Z 05010KT 4SM FG SCT004 SCT007 BKN008 20/19 A3006 RMK VA SLP180 T02050188,NA
LGA,1973-08-19T14:16:00Z,-73.8803,40.7794,NA,NA,NA,40,9,NA,30.06,NA,5,NA,SCT,SCT,NA,NA,900,1500,NA,NA,NA,NA,NA,NA,NA,NA,NA,NA,KLGA 191416Z AUTO 04009KT 5SM SCT009 SCT015 A3006 RMK IEM_DS3505,NA
LGA,1973-08-19T15:00:00Z,-73.8803,40.7794,71.96,64.94,78.57,50,10,NA,30.06,1018,6,NA,SCT,SCT,   ,   ,1500,8000,NA,NA,DZ,NA,NA,NA,NA,NA,NA,71.96,METAR KLGA 191500Z 05010KT 6SM DZ SCT015 SCT080 22/18 A3006 RMK / VA SLP180 8/530 T02220183 54000,NA
LGA,1973-08-19T16:00:00Z,-73.8803,40.7794,73.94,63.86,70.77,50,11,NA,30.04,1017.3,10,NA,SCT,   ,   ,   ,2500,NA,NA,NA,NA,NA,NA,NA,NA,NA,NA,73.94,METAR KLGA 191600Z 05011KT 10SM SCT025 23/18 A3004 RMK VA SLP173 T02330177,NA
LGA,1973-08-19T17:00:00Z,-73.8803,40.7794,75.92,62.96,64.17,40,12,NA,30.04,1017.3,10,NA,SCT,SCT,   ,   ,2500,8000,NA,NA,NA,NA,NA,NA,NA,NA,NA,75.92,METAR KLGA 191700Z 04012KT 10SM SCT025 SCT080 24/17 A3004 RMK VA SLP173 T02440172,NA
LGA,1973-08-19T18:00:00Z,-73.8803,40.7794,78.08,60.98,55.7,40,11,NA,30.03,1016.9,10,NA,SCT,   ,   ,   ,2500,NA,NA,NA,NA,NA,NA,NA,NA,NA,NA,78.08,METAR KLGA 191800Z 04011KT 10SM SCT025 26/16 A3003 RMK VA UA TSTMS O/HUO SLP169 8/735 T02560161,NA
LGA,1973-08-19T19:00:00Z,-73.8803,40.7794,77.9,61.88,57.85,50,12,NA,30.02,1016.6,10,NA,SCT,   ,   ,   ,3000,NA,NA,NA,NA,NA,NA,NA,NA,NA,NA,77.9,METAR KLGA 191900Z 05012KT 10SM SCT030 25/17 A3002 RMK VA SLP166 T02550166,NA
LGA,1973-08-19T20:00:00Z,-73.8803,40.7794,77.9,60.98,56.04,40,13,NA,30.01,1016.3,10,NA,SCT,   ,   ,   ,3000,NA,NA,NA,NA,NA,NA,NA,NA,NA,NA,77.9,METAR KLGA 192000Z 04013KT 10SM SCT030 25/16 A3001 RMK VA SLP163 T02550161,NA
LGA,1973-08-19T21:00:00Z,-73.8803,40.7794,75.92,59,55.77,40,11,NA,30.01,1016.3,10,NA,SCT,   ,   ,   ,NA,NA,NA,NA,NA,NA,NA,NA,NA,NA,NA,75.92,METAR KLGA 192100Z 04011KT 10SM SCT/// 24/15 A//// RMK SLP163 T02440150,NA
LGA,1973-08-19T22:00:00Z,-73.8803,40.7794,73.94,61.88,66.01,110,9,NA,30.01,1016.3,15,NA,BKN,BKN,   ,   ,3000,10000,NA,NA,NA,NA,NA,NA,NA,NA,NA,73.94,METAR KLGA 192200Z 11009KT 15SM BKN030 BKN100 23/17 A3001 RMK VA SLP163 T02330166,NA
LGA,1973-08-19T23:00:00Z,-73.8803,40.7794,73.94,59.9,61.53,140,8,NA,30.02,1016.6,15,NA,BKN,   ,   ,   ,3000,NA,NA,NA,NA,NA,NA,NA,NA,NA,NA,73.94,METAR KLGA 192300Z 14008KT 15SM BKN030 23/16 A3002 RMK VA SLP166 T02330155,NA
LGA,1973-08-20T00:00:00Z,-73.8803,40.7794,73.04,57.92,59.08,160,7,NA,30.03,1016.9,15,NA,SCT,BKN,   ,   ,3000,5000,NA,NA,NA,NA,NA,NA,NA,NA,NA,73.04,METAR KLGA 200000Z 16007KT 15SM SCT030 BKN050 23/14 A3003 RMK RB15E25 SLP169 T02280144,NA
LGA,1973-08-20T01:00:00Z,-73.8803,40.7794,70.88,59.9,68.23,130,8,NA,30.04,1017.3,15,NA,SCT,BKN,   ,   ,3000,8000,NA,NA,NA,NA,NA,NA,NA,NA,NA,70.88,METAR KLGA 200100Z 13008KT 15SM SCT030 BKN080 22/16 A3004 RMK SLP173 T02160155,NA
LGA,1973-08-20T02:00:00Z,-73.8803,40.7794,70.88,60.98,70.9,140,7,NA,30.04,1017.3,15,NA,BKN,   ,   ,   ,8000,NA,NA,NA,NA,NA,NA,NA,NA,NA,NA,70.88,METAR KLGA 200200Z 14007KT 15SM BKN080 22/16 A3004 RMK SLP173 T02160161,NA
LGA,1973-08-20T03:00:00Z,-73.8803,40.7794,69.98,62.06,75.96,80,7,NA,30.05,1017.6,15,NA,SCT,SCT,   ,   ,3000,8000,NA,NA,NA,NA,NA,NA,NA,NA,NA,69.98,METAR KLGA 200300Z 08007KT 15SM SCT030 SCT080 21/17 A3005 RMK / SLP176 8/570 T02110167 52007,NA
LGA,1973-08-20T04:00:00Z,-73.8803,40.7794,68.9,61.88,78.32,70,5,NA,30.03,1016.9,15,NA,SCT,   ,   ,   ,8000,NA,NA,NA,NA,NA,NA,NA,NA,NA,NA,68.9,METAR KLGA 200400Z 07005KT 15SM SCT080 20/17 A3003 RMK SLP169 T02050166,NA
LGA,1973-08-20T05:00:00Z,-73.8803,40.7794,68,61.88,80.78,50,6,NA,30.02,1016.6,15,NA,SCT,   ,   ,   ,2000,NA,NA,NA,NA,NA,NA,NA,NA,NA,NA,68,METAR KLGA 200500Z 05006KT 15SM SCT020 20/17 A3002 RMK SLP166 T02000166,NA
LGA,1973-08-20T06:00:00Z,-73.8803,40.7794,68,62.06,81.29,60,3,NA,30.02,1016.6,15,NA,BKN,   ,   ,   ,3600,NA,NA,NA,NA,NA,NA,NA,NA,NA,NA,68,METAR KLGA 200600Z 06003KT 15SM BKN036 20/17 A3002 RMK SLP166 T02000167,NA
LGA,1973-08-20T07:00:00Z,-73.8803,40.7794,68,60.98,78.25,60,5,NA,30.01,1016.3,15,NA,BKN,   ,   ,   ,3000,NA,NA,NA,NA,NA,NA,NA,NA,NA,NA,68,METAR KLGA 200700Z 06005KT 15SM BKN030 20/16 A3001 RMK SLP163 T02000161,NA
LGA,1973-08-20T08:00:00Z,-73.8803,40.7794,68,60.98,78.25,210,5,NA,30.01,1016.3,15,NA,BKN,   ,   ,   ,3000,NA,NA,NA,NA,NA,NA,NA,NA,NA,NA,68,METAR KLGA 200800Z 21005KT 15SM BKN030 20/16 A3001 RMK SLP163 T02000161,NA
LGA,1973-08-20T09:00:00Z,-73.8803,40.7794,68,60.98,78.25,240,3,NA,30.01,1016.3,15,NA,SCT,OVC,   ,   ,2000,8000,NA,NA,NA,NA,NA,NA,NA,NA,NA,68,METAR KLGA 200900Z 24003KT 15SM SCT020 OVC080 20/16 A3001 RMK MOON DIMLY VSBL VA SLP163 8/53/ T02000161 56003,NA
LGA,1973-08-20T10:00:00Z,-73.8803,40.7794,68,61.88,80.78,30,4,NA,30.01,1016.3,15,NA,SCT,BKN,BKN,   ,2000,8000,30000,NA,NA,NA,NA,NA,NA,NA,NA,68,METAR KLGA 201000Z 03004KT 15SM SCT020 BKN080 BKN300 20/17 A3001 RMK VSBY LWR W VA SLP163 T02000166,NA
LGA,1973-08-20T11:00:00Z,-73.8803,40.7794,68,62.96,83.91,70,5,NA,30.03,1016.9,7,NA,SCT,SCT,BKN,   ,2500,6000,15000,NA,NA,NA,NA,NA,NA,NA,NA,68,METAR KLGA 201100Z 07005KT 7SM SCT025 SCT060 BKN150 20/17 A3003 RMK VA SLP169 T02000172,NA
LGA,1973-08-20T12:00:00Z,-73.8803,40.7794,70,63,78.46,90,8,NA,30.03,NA,6,NA,   ,   ,   ,   ,NA,NA,NA,NA,NA,NA,NA,NA,NA,NA,NA,70,METAR KLGA 201200Z 08008KT 6SM FUDZ SCT024 SCT100 BKN150 21/17 A3003 RMK VA SLP169 T02110172,NA
LGA,1973-08-20T13:00:00Z,-73.8803,40.7794,70.9,61.9,73.2,70,6,NA,30.03,NA,6,NA,   ,   ,   ,   ,NA,NA,NA,NA,NA,NA,NA,NA,NA,NA,NA,70.9,METAR KLGA 201300Z 07006KT 6SM FUDZ SCT025 SCT100 BKN150 22/17 A3003 RMK VA SLP169 T02160166,NA
LGA,1973-08-20T14:00:00Z,-73.8803,40.7794,71.96,63.86,75.66,60,12,NA,30.04,1017.3,7,NA,BKN,BKN,   ,   ,2500,10000,NA,NA,NA,NA,NA,NA,NA,NA,NA,71.96,METAR KLGA 201400Z 06012KT 7SM BKN025 BKN100 22/18 A3004 RMK VA SLP173 T02220177,NA
LGA,1973-08-20T15:00:00Z,-73.8803,40.7794,73.94,64.04,71.22,40,10,NA,30.04,1017.3,7,NA,SCT,SCT,BKN,   ,2000,3000,15000,NA,NA,NA,NA,NA,NA,NA,NA,73.94,METAR KLGA 201500Z 04010KT 7SM SCT020 SCT030 BKN150 23/18 A3004 RMK / 1170LGA 8/17 DME OTS SLP173 T02330178 51005,NA
LGA,1973-08-20T16:00:00Z,-73.8803,40.7794,74.84,64.94,71.31,40,13,NA,30.02,1016.6,8,NA,SCT,BKN,BKN,   ,2200,12000,18000,NA,NA,NA,NA,NA,NA,NA,NA,74.84,METAR KLGA 201600Z 04013KT 8SM SCT022 BKN120 BKN180 24/18 A3002 RMK VALGA8/17 SLP166 T02380183,NA
LGA,1973-08-20T17:00:00Z,-73.8803,40.7794,75.92,62.96,64.17,40,13,NA,30.01,1016.3,8,NA,SCT,SCT,   ,   ,2500,12000,NA,NA,NA,NA,NA,NA,NA,NA,NA,75.92,METAR KLGA 201700Z 04013KT 8SM SCT025 SCT120 24/17 A3001 RMK VALGA 8/18 REIL OTS^C8/17 SLP163 T02440172,NA
LGA,1973-08-20T18:00:00Z,-73.8803,40.7794,78.08,60.98,55.7,30,12,NA,29.99,1015.6,10,NA,SCT,SCT,   ,   ,4000,12000,NA,NA,NA,NA,NA,NA,NA,NA,NA,78.08,METAR KLGA 201800Z 03012KT 10SM SCT040 SCT120 26/16 A2999 RMK TCU SW VALGA8/18 SLP156 T02560161,NA
LGA,1973-08-20T19:00:00Z,-73.8803,40.7794,77,57.92,51.76,50,11,NA,29.97,1014.9,10,NA,SCT,SCT,   ,   ,4000,8000,NA,NA,NA,NA,NA,NA,NA,NA,NA,77,METAR KLGA 201900Z 05011KT 10SM SCT040 SCT080 25/14 A2997 RMK VALGA8/18 SLP149 T02500144,NA
LGA,1973-08-20T20:00:00Z,-73.8803,40.7794,75.92,61.88,61.78,180,10,NA,29.96,1015.6,10,NA,SCT,SCT,   ,   ,4000,8000,NA,NA,NA,NA,NA,NA,NA,NA,NA,75.92,METAR KLGA 202000Z 18010KT 10SM SCT040 SCT080 24/17 A2996 RMK TCU NLGA8/18 SLP156 T02440166,NA
LGA,1973-08-20T21:00:00Z,-73.8803,40.7794,78.08,60.98,55.7,180,10,NA,29.96,1014.6,10,NA,SCT,SCT,   ,   ,4000,8000,NA,NA,NA,NA,NA,NA,NA,NA,NA,78.08,METAR KLGA 202100Z 18010KT 10SM SCT040 SCT080 26/16 A2996 RMK 0 1250LGA8/18 VA SLP146 T02560161,NA
LGA,1973-08-20T22:00:00Z,-73.8803,40.7794,75.92,59,55.77,180,10,NA,29.96,1014.6,10,NA,SCT,SCT,   ,   ,4000,8000,NA,NA,NA,NA,NA,NA,NA,NA,NA,75.92,METAR KLGA 202200Z 18010KT 10SM SCT040 SCT080 24/15 A2996 RMK LGA8/18 SLP146 T02440150,NA
LGA,1973-08-20T23:00:00Z,-73.8803,40.7794,73.94,59,59.58,190,10,NA,29.96,1014.6,15,NA,SCT,   ,   ,   ,8000,NA,NA,NA,NA,NA,NA,NA,NA,NA,NA,73.94,METAR KLGA 202300Z 19010KT 15SM SCT080 23/15 A2996 RMK LGA8/18 SLP146 T02330150,NA
LGA,1973-08-21T00:00:00Z,-73.8803,40.7794,71.96,57.02,59.32,170,7,NA,29.97,1014.9,10,NA,SCT,   ,   ,   ,8000,NA,NA,NA,NA,NA,NA,NA,NA,NA,NA,71.96,METAR KLGA 210000Z 17007KT 10SM SCT080 22/14 A2997 RMK VALGA8/18 SLP149 T02220139,NA
LGA,1973-08-21T01:00:00Z,-73.8803,40.7794,71.96,52.88,51.02,130,7,NA,29.98,1015.2,10,NA,SCT,   ,   ,   ,8000,NA,NA,NA,NA,NA,NA,NA,NA,NA,NA,71.96,METAR KLGA 210100Z 13007KT 10SM SCT080 22/12 A2998 RMK VALGA8/18 SLP152 T02220116,NA
LGA,1973-08-21T02:00:00Z,-73.8803,40.7794,69.98,57.92,65.54,140,8,NA,29.99,1015.6,10,NA,SCT,   ,   ,   ,8000,NA,NA,NA,NA,NA,NA,NA,NA,NA,NA,69.98,METAR KLGA 210200Z 14008KT 10SM SCT080 21/14 A2999 RMK VALGA8/18 SLP156 T02110144,NA
LGA,1973-08-21T03:00:00Z,-73.8803,40.7794,69.98,60.98,73.11,110,6,NA,29.99,1015.6,10,NA,SCT,   ,   ,   ,NA,NA,NA,NA,NA,NA,NA,NA,NA,NA,NA,69.98,METAR KLGA 210300Z 11006KT 10SM SCT/// 21/16 A//// RMK SLP156 T02110161,NA
LGA,1973-08-21T04:00:00Z,-73.8803,40.7794,68.9,60.98,75.86,90,8,NA,29.99,1015.6,10,NA,SCT,   ,   ,   ,4000,NA,NA,NA,NA,NA,NA,NA,NA,NA,NA,68.9,METAR KLGA 210400Z 09008KT 10SM SCT040 20/16 A2999 RMK VALGA8/18 SLP156 T02050161,NA
LGA,1973-08-21T05:00:00Z,-73.8803,40.7794,66.92,60.98,81.22,70,6,NA,29.99,1015.6,15,NA,CLR,   ,   ,   ,NA,NA,NA,NA,NA,NA,NA,NA,NA,NA,NA,66.92,METAR KLGA 210500Z 07006KT 15SM CLR 19/16 A2999 RMK VALGA C8/198/18 SLP156 T01940161,NA
LGA,1973-08-21T06:00:00Z,-73.8803,40.7794,66.92,62.06,84.38,70,7,NA,29.98,1015.2,10,NA,CLR,   ,   ,   ,NA,NA,NA,NA,NA,NA,NA,NA,NA,NA,NA,66.92,METAR KLGA 210600Z 07007KT 10SM CLR 19/17 A2998 RMK VALGA8/18 SLP152 T01940167,NA
LGA,1973-08-21T07:00:00Z,-73.8803,40.7794,65.84,61.88,87.04,70,6,NA,29.98,1015.2,8,NA,CLR,   ,   ,   ,NA,NA,NA,NA,NA,NA,NA,NA,NA,NA,NA,65.84,METAR KLGA 210700Z 07006KT 8SM CLR 19/17 A2998 RMK VALGA8/18 SLP152 T01880166,NA
LGA,1973-08-21T08:00:00Z,-73.8803,40.7794,65.84,61.88,87.04,80,6,NA,29.99,1015.6,7,NA,SCT,SCT,   ,   ,3000,15000,NA,NA,NA,NA,NA,NA,NA,NA,NA,65.84,METAR KLGA 210800Z 08006KT 7SM SCT030 SCT150 19/17 A2999 RMK LGA8/18 SLP156 T01880166,NA
LGA,1973-08-21T09:00:00Z,-73.8803,40.7794,64.94,62.06,90.39,70,10,NA,29.99,1015.6,10,NA,SCT,   ,   ,   ,1600,NA,NA,NA,NA,NA,NA,NA,NA,NA,NA,64.94,METAR KLGA 210900Z 07010KT 10SM SCT016 18/17 A2999 RMK %V 1500LGA8/18 SLP156 T01830167 51003,NA
LGA,1973-08-21T10:00:00Z,-73.8803,40.7794,64.94,60.98,87,80,8,NA,30,1015.9,10,NA,SCT,SCT,BKN,   ,1600,2500,20000,NA,NA,NA,NA,NA,NA,NA,NA,64.94,METAR KLGA 211000Z 08008KT 10SM SCT016 SCT025 BKN200 18/16 A3000 RMK VALGA8/18 SLP159 T01830161,NA
LGA,1973-08-21T11:00:00Z,-73.8803,40.7794,64.94,59.9,83.72,70,9,NA,30.01,1016.3,10,NA,SCT,SCT,BKN,   ,1600,2500,25000,NA,NA,NA,NA,NA,NA,NA,NA,64.94,METAR KLGA 211100Z 07009KT 10SM SCT016 SCT025 BKN250 18/16 A3001 RMK VALGA8/18 SLP163 T01830155,NA
LGA,1973-08-21T12:00:00Z,-73.8803,40.7794,66.92,60.08,78.66,80,15,NA,30.03,1016.9,10,NA,SCT,BKN,   ,   ,1600,20000,NA,NA,NA,NA,NA,NA,NA,NA,NA,66.92,METAR KLGA 211200Z 08015KT 10SM SCT016 BKN200 19/16 A3003 RMK LGA8/18 SLP169 T01940156,NA
LGA,1973-08-21T13:00:00Z,-73.8803,40.7794,68,59,72.92,80,11,NA,30.03,1016.9,10,NA,BKN,   ,   ,   ,20000,NA,NA,NA,NA,NA,NA,NA,NA,NA,NA,68,METAR KLGA 211300Z 08011KT 10SM BKN200 20/15 A3003 RMK CU N VALGA8/18 SLP169 T02000150,NA
LGA,1973-08-21T14:00:00Z,-73.8803,40.7794,70.88,55.94,59.18,60,10,NA,30.02,1016.6,15,NA,SCT,   ,   ,   ,25000,NA,NA,NA,NA,NA,NA,NA,NA,NA,NA,70.88,METAR KLGA 211400Z 06010KT 15SM SCT250 22/13 A3002 RMK LGA8/18 SLP166 T02160133,NA
LGA,1973-08-21T15:00:00Z,-73.8803,40.7794,73.94,53.06,48.04,80,12,NA,30.03,1016.9,15,NA,FEW,   ,   ,   ,25000,NA,NA,NA,NA,NA,NA,NA,NA,NA,NA,73.94,METAR KLGA 211500Z 08012KT 15SM FEW250 23/12 A3003 RMK / 1001LGA8/18 SLP169 T02330117 52002,NA
LGA,1973-08-21T16:00:00Z,-73.8803,40.7794,75.92,55.94,49.95,100,13,NA,30.04,1017.3,15,NA,SCT,   ,   ,   ,25000,NA,NA,NA,NA,NA,NA,NA,NA,NA,NA,75.92,METAR KLGA 211600Z 10013KT 15SM SCT250 24/13 A3004 RMK LGA8/18 SLP173 T02440133,NA
LGA,1973-08-21T17:00:00Z,-73.8803,40.7794,75.92,60.98,59.84,NA,NA,NA,30.03,1016.9,15,NA,BKN,   ,   ,   ,25000,NA,NA,NA,NA,NA,NA,NA,NA,NA,NA,75.92,METAR KLGA 211700Z /////KT 15SM BKN250 24/16 A3003 RMK 003LGA8/18 SLP169 T02440161,NA
LGA,1973-08-21T18:00:00Z,-73.8803,40.7794,75.92,57.92,53.65,40,17,NA,30.03,1016.9,15,NA,SCT,BKN,   ,   ,3500,25000,NA,NA,NA,NA,NA,NA,NA,NA,NA,75.92,METAR KLGA 211800Z 04017KT 15SM SCT035 BKN250 24/14 A3003 RMK VALGA8/18 SLP169 T02440144,NA
LGA,1973-08-21T19:00:00Z,-73.8803,40.7794,72.86,59,61.79,40,16,NA,30.03,1016.9,15,NA,SCT,BKN,   ,   ,3500,25000,NA,NA,NA,NA,NA,NA,NA,NA,NA,72.86,METAR KLGA 211900Z 04016KT 15SM SCT035 BKN250 23/15 A3003 RMK %V VALGA8/18 SLP169 T02270150,NA
LGA,1973-08-21T20:00:00Z,-73.8803,40.7794,72.86,59,61.79,60,14,NA,30.02,1016.6,15,NA,BKN,OVC,   ,   ,3500,25000,NA,NA,NA,NA,NA,NA,NA,NA,NA,72.86,METAR KLGA 212000Z 06014KT 15SM BKN035 OVC250 23/15 A3002 RMK / V% VALGA8/18 SLP166 T02270150,NA
LGA,1973-08-21T21:00:00Z,-73.8803,40.7794,73.04,55.04,53.24,100,12,NA,30.02,1016.6,15,NA,SCT,BKN,   ,   ,3500,25000,NA,NA,NA,NA,NA,NA,NA,NA,NA,73.04,METAR KLGA 212100Z 10012KT 15SM SCT035 BKN250 23/13 A3002 RMK / VALGA8/20 SLP166 8/508 T02280128 56003,NA
LGA,1973-08-21T22:00:00Z,-73.8803,40.7794,71.96,54.86,54.86,110,10,NA,30.03,1016.9,15,NA,SCT,SCT,BKN,   ,2500,12000,25000,NA,NA,NA,NA,NA,NA,NA,NA,71.96,METAR KLGA 212200Z 11010KT 15SM SCT025 SCT120 BKN250 22/13 A3003 RMK VALGA8/20 SLP169 T02220127,NA
LGA,1973-08-21T23:00:00Z,-73.8803,40.7794,70.88,53.96,55.07,110,9,NA,30.03,1016.9,10,NA,SCT,SCT,BKN,   ,6000,12000,25000,NA,NA,NA,NA,NA,NA,NA,NA,70.88,METAR KLGA 212300Z 11009KT 10SM SCT060 SCT120 BKN250 22/12 A3003 RMK LGA8/20 SLP169 T02160122,NA
LGA,1973-08-22T00:00:00Z,-73.8803,40.7794,69.08,55.94,62.93,90,13,NA,30.04,1017.3,10,NA,SCT,BKN,BKN,   ,8000,12000,25000,NA,NA,NA,NA,NA,NA,NA,NA,69.08,METAR KLGA 220000Z 09013KT 10SM SCT080 BKN120 BKN250 21/13 A3004 RMK VALGA8/20 SLP173 T02060133,NA
LGA,1973-08-22T01:00:00Z,-73.8803,40.7794,68,55.94,65.31,110,11,NA,30.04,1017.3,10,NA,BKN,OVC,   ,   ,10000,25000,NA,NA,NA,NA,NA,NA,NA,NA,NA,68,METAR KLGA 220100Z 11011KT 10SM BKN100 OVC250 20/13 A3004 RMK LGA8/20 SLP173 T02000133,NA
LGA,1973-08-22T02:00:00Z,-73.8803,40.7794,66.92,56.84,70.03,70,9,NA,30.04,1017.3,10,NA,BKN,OVC,   ,   ,10000,25000,NA,NA,NA,NA,NA,NA,NA,NA,NA,66.92,METAR KLGA 220200Z 07009KT 10SM BKN100 OVC250 19/14 A3004 RMK LGA8/20 SLP173 T01940138,NA
LGA,1973-08-22T03:00:00Z,-73.8803,40.7794,66.02,57.92,75.12,70,9,NA,30.04,1017.3,10,NA,SCT,OVC,   ,   ,3000,10000,NA,NA,NA,NA,NA,NA,NA,NA,NA,66.02,METAR KLGA 220300Z 07009KT 10SM SCT030 OVC100 19/14 A3004 RMK / 157/LGA8/20 SLP173 T01890144 54000,NA
LGA,1973-08-22T04:00:00Z,-73.8803,40.7794,65.84,57.92,75.59,60,7,NA,30.04,1017.3,10,NA,SCT,OVC,   ,   ,2500,8000,NA,NA,NA,NA,NA,NA,NA,NA,NA,65.84,METAR KLGA 220400Z 06007KT 10SM SCT025 OVC080 19/14 A3004 RMK LGA8/20 SLP173 T01880144,NA
LGA,1973-08-22T05:00:00Z,-73.8803,40.7794,65.84,60.98,84.32,60,8,0.01,30.05,1017.6,10,NA,BKN,OVC,   ,   ,1500,10000,NA,NA,-RA,NA,NA,NA,NA,NA,NA,65.84,METAR KLGA 220500Z 06008KT 10SM -RA BKN015 OVC100 19/16 A3005 RMK RB08LGA8/20 SLP176 P0001 T01880161,NA
LGA,1973-08-22T06:00:00Z,-73.8803,40.7794,66.02,62.06,87.05,70,8,0.02,30.03,1016.9,9,NA,SCT,BKN,OVC,   ,1600,2400,3000,NA,-RA,NA,NA,NA,NA,NA,NA,66.02,METAR KLGA 220600Z 07008KT 9SM -RA SCT016 BKN024 OVC030 19/17 A3003 RMK LGA8/20 SLP169 P0002 T01890167,NA
LGA,1973-08-22T07:00:00Z,-73.8803,40.7794,65.84,63.86,93.33,50,9,0.02,30.02,1016.6,3,NA,SCT,BKN,OVC,   ,1400,2300,3400,NA,-RA,NA,NA,NA,NA,NA,NA,65.84,METAR KLGA 220700Z 05009KT 3SM -RA SCT014 BKN023 OVC034 19/18 A3002 RMK HIR CLDS VSB/LGA8/20 SLP166 P0002 T01880177,NA
LGA,1973-08-22T08:00:00Z,-73.8803,40.7794,65.84,63.86,93.33,40,11,0.02,30,1015.9,6,NA,SCT,BKN,BKN,OVC,800,1000,1600,3400,-RA FG,NA,NA,NA,NA,NA,NA,65.84,METAR KLGA 220800Z 04011KT 6SM -RA FG SCT008 BKN010 BKN016 OVC034 19/18 A3000 RMK WND 020V060LGA SLP159 P0002 T01880177,NA
LGA,1973-08-22T09:00:00Z,-73.8803,40.7794,66.02,64.04,93.33,40,11,0.02,29.99,1015.6,6,NA,BKN,OVC,   ,   ,500,1000,NA,NA,-RA FG,NA,NA,NA,NA,NA,NA,66.02,METAR KLGA 220900Z 04011KT 6SM -RA FG BKN005 OVC010 19/18 A2999 RMK CIG RGD/ 172/LGA8/20 SLP156 P0002 T01890178 56014,NA
LGA,1973-08-22T10:00:00Z,-73.8803,40.7794,66.92,64.94,93.35,50,14,0.03,30,1015.9,5,NA,BKN,BKN,OVC,   ,600,900,3000,NA,-RA FG,NA,NA,NA,NA,NA,NA,66.92,METAR KLGA 221000Z 05014KT 5SM -RA FG BKN006 BKN009 OVC030 19/18 A3000 RMK LGA8/20 SLP159 P0003 T01940183,NA
LGA,1973-08-22T11:00:00Z,-73.8803,40.7794,66.92,64.94,93.35,40,12,0.03,30.01,1016.3,5,NA,BKN,BKN,OVC,   ,600,1000,3100,NA,-RA FG,NA,NA,NA,NA,NA,NA,66.92,METAR KLGA 221100Z 04012KT 5SM -RA FG BKN006 BKN010 OVC031 19/18 A3001 RMK WND 020V060LGA8/20 SLP163 P0003 T01940183,NA
LGA,1973-08-22T12:00:00Z,-73.8803,40.7794,66.92,64.04,90.46,10,13,0.02,30.01,1016.3,5,NA,BKN,BKN,OVC,   ,900,5000,7000,NA,-RA FG,NA,NA,NA,NA,NA,NA,66.92,METAR KLGA 221200Z 01013KT 5SM -RA FG BKN009 BKN050 OVC070 19/18 A3001 RMK 9V%LGA8/20 SLP163 P0002 60016 70016 T01940178,NA
LGA,1973-08-22T13:00:00Z,-73.8803,40.7794,66.92,63.86,89.9,20,11,0.01,30,1015.9,9,NA,SCT,BKN,OVC,   ,700,1100,4500,NA,NA,NA,NA,NA,NA,NA,NA,66.92,METAR KLGA 221300Z 02011KT 9SM SCT007 BKN011 OVC045 19/18 A3000 RMK RE35LGA8/20 SLP159 P0001 T01940177,NA
LGA,1973-08-22T15:00:00Z,-73.8803,40.7794,68,64.04,87.16,30,12,NA,30,1015.9,10,NA,BKN,BKN,OVC,   ,1100,2800,4500,NA,NA,NA,NA,NA,NA,NA,NA,68,METAR KLGA 221500Z 03012KT 10SM BKN011 BKN028 OVC045 20/18 A3000 RMK CIG RGD/ 15//LGA8/20 SLP159 T02000178 56003,NA
LGA,1973-08-22T16:00:00Z,-73.8803,40.7794,68,59.9,75.3,40,13,NA,30,1015.9,10,NA,SCT,BKN,OVC,   ,1200,2600,3600,NA,NA,NA,NA,NA,NA,NA,NA,68,METAR KLGA 221600Z 04013KT 10SM SCT012 BKN026 OVC036 20/16 A3000 RMK SLP159 T02000155,NA
LGA,1973-08-22T17:00:00Z,-73.8803,40.7794,68,61.88,80.78,20,13,NA,29.99,1015.6,10,NA,SCT,OVC,   ,   ,1800,5000,NA,NA,NA,NA,NA,NA,NA,NA,NA,68,METAR KLGA 221700Z 02013KT 10SM SCT018 OVC050 20/17 A2999 RMK VALGA8/20 SLP156 T02000166,NA
LGA,1973-08-22T18:00:00Z,-73.8803,40.7794,69.98,60.08,70.81,30,12,NA,29.98,1015.2,15,NA,SCT,OVC,   ,   ,1200,5000,NA,NA,NA,NA,NA,NA,NA,NA,NA,69.98,METAR KLGA 221800Z 03012KT 15SM SCT012 OVC050 21/16 A2998 RMK VALGA8/20 SLP152 60001 T02110156,NA
LGA,1973-08-22T19:00:00Z,-73.8803,40.7794,70.88,59,66.07,60,14,NA,29.97,1014.9,15,NA,BKN,OVC,   ,   ,6000,10000,NA,NA,NA,NA,NA,NA,NA,NA,NA,70.88,METAR KLGA 221900Z 06014KT 15SM BKN060 OVC100 22/15 A2997 RMK VALGA8/20 SLP149 T02160150,NA
LGA,1973-08-22T21:00:00Z,-73.8803,40.7794,71.96,60.08,66.2,50,10,NA,29.95,1014.2,15,NA,SCT,BKN,BKN,   ,3500,10000,25000,NA,NA,NA,NA,NA,NA,NA,NA,71.96,METAR KLGA 222100Z 05010KT 15SM SCT035 BKN100 BKN250 22/16 A2995 RMK 1578LGA8/20 SLP142 T02220156 58010,NA
LGA,1973-08-22T22:00:00Z,-73.8803,40.7794,71.96,60.98,68.35,40,10,NA,29.96,1014.6,10,NA,SCT,SCT,BKN,   ,3500,10000,25000,NA,NA,NA,NA,NA,NA,NA,NA,71.96,METAR KLGA 222200Z 04010KT 10SM SCT035 SCT100 BKN250 22/16 A2996 RMK VALGA8/20 SLP146 T02220161,NA
LGA,1973-08-23T00:00:00Z,-73.8803,40.7794,69.08,60.08,73.02,50,7,NA,29.96,1014.6,10,NA,SCT,   ,   ,   ,4000,NA,NA,NA,NA,NA,NA,NA,NA,NA,NA,69.08,METAR KLGA 230000Z 05007KT 10SM SCT040 21/16 A2996 RMK LGA8/20 SLP146 T02060156,NA
LGA,1973-08-23T01:00:00Z,-73.8803,40.7794,68.9,59.9,73.01,80,3,NA,29.98,1015.2,10,NA,SCT,   ,   ,   ,4000,NA,NA,NA,NA,NA,NA,NA,NA,NA,NA,68.9,METAR KLGA 230100Z 08003KT 10SM SCT040 20/16 A2998 RMK VALGA8/20 SLP152 T02050155,NA
LGA,1973-08-23T02:00:00Z,-73.8803,40.7794,68.9,57.92,68.01,320,10,NA,30,1015.9,15,NA,SCT,   ,   ,   ,8000,NA,NA,NA,NA,NA,NA,NA,NA,NA,NA,68.9,METAR KLGA 230200Z 32010KT 15SM SCT080 20/14 A3000 RMK VALGA8/20 SLP159 T02050144,NA
LGA,1973-08-23T03:00:00Z,-73.8803,40.7794,68,57.92,70.15,330,12,NA,30.02,1016.6,15,NA,SCT,   ,   ,   ,5000,NA,NA,NA,NA,NA,NA,NA,NA,NA,NA,68,METAR KLGA 230300Z 33012KT 15SM SCT050 20/14 A3002 RMK / VALGA8/20 SLP166 8/500 T02000144 52020,NA
LGA,1973-08-23T04:00:00Z,-73.8803,40.7794,66.92,55.94,67.79,350,8,NA,30.01,1016.3,15,NA,SCT,   ,   ,   ,5000,NA,NA,NA,NA,NA,NA,NA,NA,NA,NA,66.92,METAR KLGA 230400Z 35008KT 15SM SCT050 19/13 A3001 RMK LGA8/20 SLP163 T01940133,NA
LGA,1973-08-23T05:00:00Z,-73.8803,40.7794,63.86,54.86,72.51,330,6,NA,30.03,1016.9,15,NA,SCT,   ,   ,   ,3500,NA,NA,NA,NA,NA,NA,NA,NA,NA,NA,63.86,METAR KLGA 230500Z 33006KT 15SM SCT035 18/13 A3003 RMK LGA8/20 SLP169 T01770127,NA
LGA,1973-08-23T06:00:00Z,-73.8803,40.7794,62.96,55.04,75.33,330,7,NA,30.04,1017.3,15,NA,SCT,   ,   ,   ,8000,NA,NA,NA,NA,NA,NA,NA,NA,NA,NA,62.96,METAR KLGA 230600Z 33007KT 15SM SCT080 17/13 A3004 RMK LGA8/20 SLP173 T01720128,NA
LGA,1973-08-23T07:00:00Z,-73.8803,40.7794,62.96,53.96,72.42,320,6,NA,30.06,1018,15,NA,CLR,   ,   ,   ,NA,NA,NA,NA,NA,NA,NA,NA,NA,NA,NA,62.96,METAR KLGA 230700Z 32006KT 15SM CLR 17/12 A3006 RMK FEW ACLGA8/20 SLP180 T01720122,NA
LGA,1973-08-23T08:00:00Z,-73.8803,40.7794,61.88,54.86,77.74,20,6,NA,30.07,1018.3,15,NA,SCT,   ,   ,   ,8000,NA,NA,NA,NA,NA,NA,NA,NA,NA,NA,61.88,METAR KLGA 230800Z 02006KT 15SM SCT080 17/13 A3007 RMK LGA8/20 SLP183 T01660127,NA
LGA,1973-08-23T09:00:00Z,-73.8803,40.7794,62.06,53.06,72.33,360,9,NA,30.09,1019,15,NA,SCT,   ,   ,   ,5000,NA,NA,NA,NA,NA,NA,NA,NA,NA,NA,62.06,METAR KLGA 230900Z 36009KT 15SM SCT050 17/12 A3009 RMK / 1500LGA8/20 SLP190 T01670117 52017,NA
LGA,1973-08-23T10:00:00Z,-73.8803,40.7794,60.98,52.88,74.65,360,8,NA,30.11,1019.6,15,NA,SCT,BKN,   ,   ,3900,4900,NA,NA,NA,NA,NA,NA,NA,NA,NA,60.98,METAR KLGA 231000Z 36008KT 15SM SCT039 BKN049 16/12 A3011 RMK WND 340V020LGA8/20 SLP196 T01610116,NA
LGA,1973-08-23T11:00:00Z,-73.8803,40.7794,59.9,51.98,75.04,360,7,NA,30.14,1020.7,15,NA,SCT,BKN,   ,   ,5000,20000,NA,NA,NA,NA,NA,NA,NA,NA,NA,59.9,METAR KLGA 231100Z 36007KT 15SM SCT050 BKN200 16/11 A3014 RMK WND 340V020LGA8/20 SLP207 T01550111,NA
LGA,1973-08-23T12:00:00Z,-73.8803,40.7794,62.06,51.08,67.24,350,11,NA,30.15,1021,15,NA,FEW,   ,   ,   ,20000,NA,NA,NA,NA,NA,NA,NA,NA,NA,NA,62.06,METAR KLGA 231200Z 35011KT 15SM FEW200 17/11 A3015 RMK VALGA8/20 SLP210 70001 T01670106,NA
LGA,1973-08-23T13:00:00Z,-73.8803,40.7794,65.84,51.98,60.89,340,12,NA,30.16,1021.3,15,NA,SCT,   ,   ,   ,20000,NA,NA,NA,NA,NA,NA,NA,NA,NA,NA,65.84,METAR KLGA 231300Z 34012KT 15SM SCT200 19/11 A3016 RMK VALGA8/20 SLP213 T01880111,NA
LGA,1973-08-23T14:00:00Z,-73.8803,40.7794,66.92,52.88,60.63,40,10,NA,30.16,1021.3,15,NA,SCT,   ,   ,   ,20000,NA,NA,NA,NA,NA,NA,NA,NA,NA,NA,66.92,METAR KLGA 231400Z 04010KT 15SM SCT200 19/12 A3016 RMK VALGA8/20 SLP213 T01940116,NA
LGA,1973-08-23T15:00:00Z,-73.8803,40.7794,69.08,53.06,56.66,30,11,NA,30.16,1021.3,15,NA,FEW,   ,   ,   ,20000,NA,NA,NA,NA,NA,NA,NA,NA,NA,NA,69.08,METAR KLGA 231500Z 03011KT 15SM FEW200 21/12 A3016 RMK VALGA8/20 SLP213 8/001 T02060117 51003,NA
LGA,1973-08-23T16:00:00Z,-73.8803,40.7794,70.88,53.96,55.07,60,9,NA,30.16,1021.3,15,NA,BKN,   ,   ,   ,20000,NA,NA,NA,NA,NA,NA,NA,NA,NA,NA,70.88,METAR KLGA 231600Z 06009KT 15SM BKN200 22/12 A3016 RMK VALGA8/20 SLP213 T02160122,NA
LGA,1973-08-23T17:00:00Z,-73.8803,40.7794,72.86,53.96,51.49,60,7,NA,30.14,1020.7,15,NA,SCT,BKN,   ,   ,5000,20000,NA,NA,NA,NA,NA,NA,NA,NA,NA,72.86,METAR KLGA 231700Z 06007KT 15SM SCT050 BKN200 23/12 A3014 RMK VALGA8/20 SLP207 T02270122,NA
LGA,1973-08-23T18:00:00Z,-73.8803,40.7794,75.02,55.94,51.47,280,6,NA,30.13,1020.3,10,NA,SCT,BKN,   ,   ,4500,20000,NA,NA,NA,NA,NA,NA,NA,NA,NA,75.02,METAR KLGA 231800Z 28006KT 10SM SCT045 BKN200 24/13 A3013 RMK VALGA8/20 SLP203 T02390133,NA
LGA,1973-08-23T19:00:00Z,-73.8803,40.7794,71.96,56.84,58.94,170,9,NA,30.13,1020.3,10,NA,BKN,OVC,   ,   ,4500,20000,NA,NA,NA,NA,NA,NA,NA,NA,NA,71.96,METAR KLGA 231900Z 17009KT 10SM BKN045 OVC200 22/14 A3013 RMK VALGA8/20 SLP203 T02220138,NA
LGA,1973-08-23T20:00:00Z,-73.8803,40.7794,72.86,57.92,59.44,160,10,NA,30.11,1019.6,10,NA,BKN,BKN,   ,   ,4500,20000,NA,NA,NA,NA,NA,NA,NA,NA,NA,72.86,METAR KLGA 232000Z 16010KT 10SM BKN045 BKN200 23/14 A3011 RMK %V%LGA IXWP SLP196 T02270144,NA
LGA,1973-08-23T21:00:00Z,-73.8803,40.7794,75.02,55.04,49.81,280,5,NA,30.1,1019.3,10,NA,BKN,BKN,   ,   ,4000,20000,NA,NA,NA,NA,NA,NA,NA,NA,NA,75.02,METAR KLGA 232100Z 28005KT 10SM BKN040 BKN200 24/13 A3010 RMK / VALGA IXWP SLP193 8/502 T02390128 58010,NA
LGA,1973-08-23T22:00:00Z,-73.8803,40.7794,72.86,55.94,55.34,280,8,NA,30.1,1019.3,10,NA,BKN,BKN,   ,   ,4000,25000,NA,NA,NA,NA,NA,NA,NA,NA,NA,72.86,METAR KLGA 232200Z 28008KT 10SM BKN040 BKN250 23/13 A3010 RMK VALGA8/20 SLP193 T02270133,NA
LGA,1973-08-23T23:00:00Z,-73.8803,40.7794,71.96,60.98,68.35,170,10,NA,30.1,1019.3,10,NA,SCT,BKN,   ,   ,4000,25000,NA,NA,NA,NA,NA,NA,NA,NA,NA,71.96,METAR KLGA 232300Z 17010KT 10SM SCT040 BKN250 22/16 A3010 RMK VALGA8/20 SLP193 T02220161,NA
LGA,1973-08-24T00:00:00Z,-73.8803,40.7794,71.06,60.08,68.25,200,9,NA,30.11,1019.6,8,NA,SCT,SCT,   ,   ,12000,25000,NA,NA,NA,NA,NA,NA,NA,NA,NA,71.06,METAR KLGA 240000Z 20009KT 8SM SCT120 SCT250 22/16 A3011 RMK LGA8/20% SLP196 T02170156,NA
LGA,1973-08-24T01:00:00Z,-73.8803,40.7794,68.9,60.98,75.86,190,8,NA,30.12,1020,8,NA,SCT,   ,   ,   ,12000,NA,NA,NA,NA,NA,NA,NA,NA,NA,NA,68.9,METAR KLGA 240100Z 19008KT 8SM SCT120 20/16 A3012 RMK LGA8/20% SLP200 T02050161,NA
LGA,1973-08-24T02:00:00Z,-73.8803,40.7794,68,61.88,80.78,200,8,NA,30.13,1020.3,8,NA,SCT,   ,   ,   ,12000,NA,NA,NA,NA,NA,NA,NA,NA,NA,NA,68,METAR KLGA 240200Z 20008KT 8SM SCT120 20/17 A3013 RMK LGA8/20% SLP203 T02000166,NA
LGA,1973-08-24T03:00:00Z,-73.8803,40.7794,68,62.06,81.29,200,7,NA,30.13,1020.3,8,NA,SCT,   ,   ,   ,12000,NA,NA,NA,NA,NA,NA,NA,NA,NA,NA,68,METAR KLGA 240300Z 20007KT 8SM SCT120 20/17 A3013 RMK 1070LGA8/20% SLP203 T02000167 51007,NA
LGA,1973-08-24T04:00:00Z,-73.8803,40.7794,68,61.88,80.78,200,6,NA,30.13,1020.3,8,NA,SCT,   ,   ,   ,25000,NA,NA,NA,NA,NA,NA,NA,NA,NA,NA,68,METAR KLGA 240400Z 20006KT 8SM SCT250 20/17 A3013 RMK LGA8/20% SLP203 T02000166,NA
LGA,1973-08-24T05:00:00Z,-73.8803,40.7794,68,61.88,80.78,250,6,NA,30.14,1020.7,9,NA,SCT,   ,   ,   ,2000,NA,NA,NA,NA,NA,NA,NA,NA,NA,NA,68,METAR KLGA 240500Z 25006KT 9SM SCT020 20/17 A3014 RMK LGA8/20% SLP207 T02000166,NA
LGA,1973-08-24T06:00:00Z,-73.8803,40.7794,66.92,62.96,87.1,260,4,NA,30.14,1020.7,9,NA,SCT,   ,   ,   ,7000,NA,NA,NA,NA,NA,NA,NA,NA,NA,NA,66.92,METAR KLGA 240600Z 26004KT 9SM SCT070 19/17 A3014 RMK LGA8/20% SLP207 T01940172,NA
LGA,1973-08-24T07:00:00Z,-73.8803,40.7794,66.92,60.98,81.22,230,4,NA,30.14,1020.7,7,NA,BKN,   ,   ,   ,7000,NA,NA,NA,NA,NA,NA,NA,NA,NA,NA,66.92,METAR KLGA 240700Z 23004KT 7SM BKN070 19/16 A3014 RMK LGA8/20% SLP207 T01940161,NA
LGA,1973-08-24T08:00:00Z,-73.8803,40.7794,66.92,59,75.69,220,4,NA,30.14,1020.7,10,NA,BKN,   ,   ,   ,6000,NA,NA,NA,NA,NA,NA,NA,NA,NA,NA,66.92,METAR KLGA 240800Z 22004KT 10SM BKN060 19/15 A3014 RMK LGA8/20% SLP207 T01940150,NA
LGA,1973-08-24T09:00:00Z,-73.8803,40.7794,66.92,59,75.69,300,3,NA,30.15,1021,10,NA,SCT,BKN,   ,   ,6000,8000,NA,NA,NA,NA,NA,NA,NA,NA,NA,66.92,METAR KLGA 240900Z 30003KT 10SM SCT060 BKN080 19/15 A3015 RMK / 1570LGA8/20% SLP210 T01940150 53002,NA
LGA,1973-08-24T10:00:00Z,-73.8803,40.7794,65.84,57.92,75.59,310,5,NA,30.16,1021.3,9,NA,BKN,BKN,   ,   ,8000,12000,NA,NA,NA,NA,NA,NA,NA,NA,NA,65.84,METAR KLGA 241000Z 31005KT 9SM BKN080 BKN120 19/14 A3016 RMK LGA8/20% SLP213 T01880144,NA
LGA,1973-08-24T11:00:00Z,-73.8803,40.7794,65.84,57.92,75.59,20,8,NA,30.18,1022,9,NA,BKN,BKN,   ,   ,5000,8000,NA,NA,NA,NA,NA,NA,NA,NA,NA,65.84,METAR KLGA 241100Z 02008KT 9SM BKN050 BKN080 19/14 A3018 RMK LGA8/20% SLP220 T01880144,NA
LGA,1973-08-24T12:00:00Z,-73.8803,40.7794,66.02,55.94,69.94,20,10,NA,30.19,1022.4,9,NA,BKN,   ,   ,   ,8000,NA,NA,NA,NA,NA,NA,NA,NA,NA,NA,66.02,METAR KLGA 241200Z 02010KT 9SM BKN080 19/13 A3019 RMK LGA8/20% SLP224 T01890133,NA
LGA,1973-08-24T13:00:00Z,-73.8803,40.7794,66.92,55.94,67.79,30,10,NA,30.2,1022.7,10,NA,BKN,BKN,   ,   ,8000,12000,NA,NA,NA,NA,NA,NA,NA,NA,NA,66.92,METAR KLGA 241300Z 03010KT 10SM BKN080 BKN120 19/13 A3020 RMK LGA8/20 VA% SLP227 T01940133,NA
LGA,1973-08-24T14:00:00Z,-73.8803,40.7794,69.98,56.84,63.04,60,8,NA,30.21,1023,10,NA,BKN,BKN,   ,   ,12000,25000,NA,NA,NA,NA,NA,NA,NA,NA,NA,69.98,METAR KLGA 241400Z 06008KT 10SM BKN120 BKN250 21/14 A3021 RMK FEW LWR ACLGA8/20% SLP230 T02110138,NA
LGA,1973-08-24T15:00:00Z,-73.8803,40.7794,71.96,57.92,61.28,60,7,NA,30.21,1023,10,NA,SCT,BKN,   ,   ,12000,25000,NA,NA,NA,NA,NA,NA,NA,NA,NA,71.96,METAR KLGA 241500Z 06007KT 10SM SCT120 BKN250 22/14 A3021 RMK / 1031LGA8/20% SLP230 T02220144 51007,NA
LGA,1973-08-24T16:00:00Z,-73.8803,40.7794,73.94,57.92,57.32,50,8,NA,30.19,1022.4,10,NA,SCT,BKN,   ,   ,12000,25000,NA,NA,NA,NA,NA,NA,NA,NA,NA,73.94,METAR KLGA 241600Z 05008KT 10SM SCT120 BKN250 23/14 A3019 RMK VALGA8/20% SLP224 T02330144,NA
LGA,1973-08-24T17:00:00Z,-73.8803,40.7794,74.84,55.94,51.78,270,4,NA,30.18,1022,10,NA,SCT,BKN,   ,   ,12000,25000,NA,NA,NA,NA,NA,NA,NA,NA,NA,74.84,METAR KLGA 241700Z 27004KT 10SM SCT120 BKN250 24/13 A3018 RMK VALGA8/20% SLP220 T02380133,NA
LGA,1973-08-24T18:00:00Z,-73.8803,40.7794,78.98,53.96,42,40,6,NA,30.18,1022,10,NA,BKN,OVC,   ,   ,12000,25000,NA,NA,NA,NA,NA,NA,NA,NA,NA,78.98,METAR KLGA 241800Z 04006KT 10SM BKN120 OVC250 26/12 A3018 RMK VALGA8/20% SLP220 T02610122,NA
LGA,1973-08-24T19:00:00Z,-73.8803,40.7794,77.9,55.94,46.77,60,6,NA,30.17,1021.7,10,NA,SCT,BKN,BKN,   ,8000,12000,25000,NA,NA,NA,NA,NA,NA,NA,NA,77.9,METAR KLGA 241900Z 06006KT 10SM SCT080 BKN120 BKN250 25/13 A3017 RMK VALGA8/20% SLP217 T02550133,NA
LGA,1973-08-24T20:00:00Z,-73.8803,40.7794,77,56.84,49.78,50,10,NA,30.16,1021.3,10,NA,SCT,BKN,OVC,   ,4000,10000,25000,NA,NA,NA,NA,NA,NA,NA,NA,77,METAR KLGA 242000Z 05010KT 10SM SCT040 BKN100 OVC250 25/14 A3016 RMK FEW SC/VALGA8/20% SLP213 T02500138,NA
LGA,1973-08-24T21:00:00Z,-73.8803,40.7794,77,55.04,46.64,100,5,NA,30.16,1021.3,10,NA,SCT,BKN,BKN,   ,4500,10000,25000,NA,NA,NA,NA,NA,NA,NA,NA,77,METAR KLGA 242100Z 10005KT 10SM SCT045 BKN100 BKN250 25/13 A3016 RMK / VALGA8/20 SLP213 8/171 T02500128 56007,NA
LGA,1973-08-24T22:00:00Z,-73.8803,40.7794,74.84,54.86,49.79,50,6,NA,30.17,1021.7,10,NA,SCT,BKN,BKN,   ,4500,10000,25000,NA,NA,NA,NA,NA,NA,NA,NA,74.84,METAR KLGA 242200Z 05006KT 10SM SCT045 BKN100 BKN250 24/13 A3017 RMK VALGA8/20 SLP217 T02380127,NA
LGA,1973-08-24T23:00:00Z,-73.8803,40.7794,73.94,53.96,49.66,100,4,NA,30.17,1021.7,10,NA,SCT,BKN,BKN,   ,4500,10000,25000,NA,NA,NA,NA,NA,NA,NA,NA,73.94,METAR KLGA 242300Z 10004KT 10SM SCT045 BKN100 BKN250 23/12 A3017 RMK VALGA8/20 SLP217 T02330122,NA
LGA,1973-08-25T00:00:00Z,-73.8803,40.7794,73.94,55.94,53.37,150,7,NA,30.17,1021.7,8,NA,BKN,BKN,   ,   ,10000,25000,NA,NA,NA,NA,NA,NA,NA,NA,NA,73.94,METAR KLGA 250000Z 15007KT 8SM BKN100 BKN250 23/13 A3017 RMK LGA8/20 SLP217 T02330133,NA
LGA,1973-08-25T01:00:00Z,-73.8803,40.7794,73.94,54.86,51.31,160,4,NA,30.19,1022.4,8,NA,BKN,   ,   ,   ,12000,NA,NA,NA,NA,NA,NA,NA,NA,NA,NA,73.94,METAR KLGA 250100Z 16004KT 8SM BKN120 23/13 A3019 RMK LGA8/20 ^ SLP224 T02330127,NA
LGA,1973-08-25T02:00:00Z,-73.8803,40.7794,70.88,53.96,55.07,190,5,NA,30.2,1022.7,8,NA,SCT,   ,   ,   ,12000,NA,NA,NA,NA,NA,NA,NA,NA,NA,NA,70.88,METAR KLGA 250200Z 19005KT 8SM SCT120 22/12 A3020 RMK LGA8/20 SLP227 T02160122,NA
LGA,1973-08-25T03:00:00Z,-73.8803,40.7794,71.96,55.94,57.05,180,5,NA,30.2,1022.7,8,NA,SCT,   ,   ,   ,12000,NA,NA,NA,NA,NA,NA,NA,NA,NA,NA,71.96,METAR KLGA 250300Z 18005KT 8SM SCT120 22/13 A3020 RMK 1040LGA8/20 SLP227 T02220133 51010,NA
LGA,1973-08-25T04:00:00Z,-73.8803,40.7794,70.88,56.84,61.14,200,5,NA,30.21,1023,8,NA,BKN,   ,   ,   ,12000,NA,NA,NA,NA,NA,NA,NA,NA,NA,NA,70.88,METAR KLGA 250400Z 20005KT 8SM BKN120 22/14 A3021 RMK LGA8/20 SLP230 T02160138,NA
LGA,1973-08-25T05:00:00Z,-73.8803,40.7794,70.88,56.84,61.14,210,5,NA,30.21,1023,10,NA,BKN,   ,   ,   ,12000,NA,NA,NA,NA,NA,NA,NA,NA,NA,NA,70.88,METAR KLGA 250500Z 21005KT 10SM BKN120 22/14 A3021 RMK LGA8/20 SLP230 T02160138,NA
LGA,1973-08-25T06:00:00Z,-73.8803,40.7794,69.98,57.02,63.45,200,4,NA,30.2,1022.7,8,NA,BKN,   ,   ,   ,NA,NA,NA,NA,NA,NA,NA,NA,NA,NA,NA,69.98,METAR KLGA 250600Z 20004KT 8SM BKN/// 21/14 A3020 RMK SLP227 T02110139,NA
LGA,1973-08-25T07:00:00Z,-73.8803,40.7794,69.98,59,68.13,0,0,NA,30.18,1022,8,NA,BKN,   ,   ,   ,14000,NA,NA,NA,NA,NA,NA,NA,NA,NA,NA,69.98,METAR KLGA 250700Z 00000KT 8SM BKN140 21/15 A3018 RMK LGA8/20 SLP220 T02110150,NA
LGA,1973-08-25T08:00:00Z,-73.8803,40.7794,68.9,62.96,81.36,0,0,NA,30.18,1022,6,NA,OVC,   ,   ,   ,14000,NA,NA,NA,DZ,NA,NA,NA,NA,NA,NA,68.9,METAR KLGA 250800Z 00000KT 6SM DZ OVC140 20/17 A3018 RMK LGA8/20 SLP220 T02050172,NA
LGA,1973-08-25T09:00:00Z,-73.8803,40.7794,69.08,64.04,83.98,30,5,NA,30.18,1022,6,NA,OVC,   ,   ,   ,14000,NA,NA,NA,DZ,NA,NA,NA,NA,NA,NA,69.08,METAR KLGA 250900Z 03005KT 6SM DZ OVC140 21/18 A3018 RMK / 104/LGA8/20 SLP220 T02060178 56007,NA
LGA,1973-08-25T11:00:00Z,-73.8803,40.7794,68.9,60.98,75.86,0,0,NA,30.21,1023,6,NA,SCT,BKN,   ,   ,10000,25000,NA,NA,DZ,NA,NA,NA,NA,NA,NA,68.9,METAR KLGA 251100Z 00000KT 6SM DZ SCT100 BKN250 20/16 A3021 RMK LGA8/20 SLP230 T02050161,NA
LGA,1973-08-25T12:00:00Z,-73.8803,40.7794,71.06,62.96,75.57,0,0,NA,30.22,1023.4,4,NA,SCT,SCT,   ,   ,10000,25000,NA,NA,DZ,NA,NA,NA,NA,NA,NA,71.06,METAR KLGA 251200Z 00000KT 4SM DZ SCT100 SCT250 22/17 A3022 RMK VALGA8/20 SLP234 T02170172,NA
LGA,1973-08-25T13:00:00Z,-73.8803,40.7794,72.86,60.98,66.3,40,4,NA,30.23,1023.7,6,NA,CLR,   ,   ,   ,NA,NA,NA,NA,DZ,NA,NA,NA,NA,NA,NA,72.86,METAR KLGA 251300Z 04004KT 6SM DZ CLR 23/16 A3023 RMK VALGA8/20 SLP237 T02270161,NA
LGA,1973-08-25T14:00:00Z,-73.8803,40.7794,75.92,57.92,53.65,290,6,NA,30.23,1023.7,6,NA,CLR,   ,   ,   ,NA,NA,NA,NA,DZ,NA,NA,NA,NA,NA,NA,75.92,METAR KLGA 251400Z 29006KT 6SM DZ CLR 24/14 A3023 RMK VALGA8/20 SLP237 T02440144,NA
LGA,1973-08-25T15:00:00Z,-73.8803,40.7794,77,57.02,50.11,340,6,NA,30.23,1023.7,7,NA,CLR,   ,   ,   ,NA,NA,NA,NA,NA,NA,NA,NA,NA,NA,NA,77,METAR KLGA 251500Z 34006KT 7SM CLR 25/14 A3023 RMK / VALGA8/20 SLP237 T02500139 56003,NA
LGA,1973-08-25T16:00:00Z,-73.8803,40.7794,79.88,55.94,43.82,40,7,NA,30.22,1023.4,8,NA,SCT,   ,   ,   ,5000,NA,NA,NA,NA,NA,NA,NA,NA,NA,NA,79.88,METAR KLGA 251600Z 04007KT 8SM SCT050 27/13 A3022 RMK VALGA8/20 SLP234 T02660133,NA
LGA,1973-08-25T17:00:00Z,-73.8803,40.7794,78.98,56.84,46.63,60,6,NA,30.2,1022.7,7,NA,SCT,   ,   ,   ,5000,NA,NA,NA,NA,NA,NA,NA,NA,NA,NA,78.98,METAR KLGA 251700Z 06006KT 7SM SCT050 26/14 A3020 RMK VALGA8/20 SLP227 T02610138,NA
LGA,1973-08-25T18:00:00Z,-73.8803,40.7794,80.06,60.08,50.55,160,10,NA,30.19,1022.4,5,NA,BKN,   ,   ,   ,5000,NA,NA,NA,DZ,NA,NA,NA,NA,NA,NA,80.91,METAR KLGA 251800Z 16010KT 5SM DZ BKN050 27/16 A3019 RMK VALGA8/20 SLP224 T02670156,NA
LGA,1973-08-25T19:00:00Z,-73.8803,40.7794,79.88,59.9,50.52,160,11,NA,30.16,1021.3,5,NA,CLR,   ,   ,   ,NA,NA,NA,NA,DZ,NA,NA,NA,NA,NA,NA,79.88,METAR KLGA 251900Z 16011KT 5SM DZ CLR 27/16 A3016 RMK VALGA8/20 SLP213 T02660155,NA
LGA,1973-08-25T20:00:00Z,-73.8803,40.7794,80.96,55.94,42.3,140,13,NA,30.15,1021,7,NA,CLR,   ,   ,   ,NA,NA,NA,NA,NA,NA,NA,NA,NA,NA,NA,80.85,METAR KLGA 252000Z 14013KT 7SM CLR 27/13 A3015 RMK LGA8/20 SLP210 T02720133,NA
LGA,1973-08-25T21:00:00Z,-73.8803,40.7794,80.06,53.96,40.54,150,12,NA,30.13,1020.3,7,NA,CLR,   ,   ,   ,NA,NA,NA,NA,NA,NA,NA,NA,NA,NA,NA,80.01,METAR KLGA 252100Z 15012KT 7SM CLR 27/12 A3013 RMK / 720VALGA8/20 SLP203 T02670122,NA
LGA,1973-08-25T22:00:00Z,-73.8803,40.7794,77,53.96,44.84,170,11,NA,30.13,1020.3,8,NA,SCT,   ,   ,   ,25000,NA,NA,NA,NA,NA,NA,NA,NA,NA,NA,77,METAR KLGA 252200Z 17011KT 8SM SCT250 25/12 A3013 RMK VALGA8/20 SLP203 T02500122,NA
LGA,1973-08-25T23:00:00Z,-73.8803,40.7794,74.84,56.84,53.49,170,10,NA,30.12,1020,8,NA,SCT,   ,   ,   ,25000,NA,NA,NA,NA,NA,NA,NA,NA,NA,NA,74.84,METAR KLGA 252300Z 17010KT 8SM SCT250 24/14 A3012 RMK LGA8/20 SLP200 T02380138,NA
LGA,1973-08-26T00:00:00Z,-73.8803,40.7794,73.04,60.08,63.83,180,12,NA,30.12,1020,8,NA,FEW,   ,   ,   ,25000,NA,NA,NA,NA,NA,NA,NA,NA,NA,NA,73.04,METAR KLGA 260000Z 18012KT 8SM FEW250 23/16 A3012 RMK VALGA8/20 SLP200 T02280156,NA
LGA,1973-08-26T01:00:00Z,-73.8803,40.7794,72.86,60.98,66.3,180,10,NA,30.13,1020.3,8,NA,SCT,   ,   ,   ,25000,NA,NA,NA,NA,NA,NA,NA,NA,NA,NA,72.86,METAR KLGA 260100Z 18010KT 8SM SCT250 23/16 A3013 RMK VALGA8/20 SLP203 T02270161,NA
LGA,1973-08-26T02:00:00Z,-73.8803,40.7794,72.86,60.98,66.3,200,14,NA,30.15,1021,8,NA,SCT,   ,   ,   ,25000,NA,NA,NA,NA,NA,NA,NA,NA,NA,NA,72.86,METAR KLGA 260200Z 20014KT 8SM SCT250 23/16 A3015 RMK VALGA8/20 SLP210 T02270161,NA
LGA,1973-08-26T03:00:00Z,-73.8803,40.7794,73.04,59,61.41,220,12,NA,30.14,1020.7,8,NA,FEW,   ,   ,   ,25000,NA,NA,NA,NA,NA,NA,NA,NA,NA,NA,73.04,METAR KLGA 260300Z 22012KT 8SM FEW250 23/15 A3014 RMK VA 10247LGA8/20 SLP207 T02280150 51000,NA
LGA,1973-08-26T04:00:00Z,-73.8803,40.7794,71.96,59.9,65.78,230,11,NA,30.14,1020.7,8,NA,SCT,   ,   ,   ,25000,NA,NA,NA,NA,NA,NA,NA,NA,NA,NA,71.96,METAR KLGA 260400Z 23011KT 8SM SCT250 22/16 A3014 RMK VALGA8/20 SLP207 T02220155,NA
LGA,1973-08-26T05:00:00Z,-73.8803,40.7794,71.96,60.98,68.35,230,9,NA,30.14,1020.7,8,NA,BKN,OVC,   ,   ,3100,25000,NA,NA,NA,NA,NA,NA,NA,NA,NA,71.96,METAR KLGA 260500Z 23009KT 8SM BKN031 OVC250 22/16 A3014 RMK WND210V250LGA8/20 SLP207 T02220161,NA
LGA,1973-08-26T06:00:00Z,-73.8803,40.7794,71.06,60.98,70.47,230,7,NA,30.14,1020.7,8,NA,SCT,BKN,   ,   ,3000,25000,NA,NA,NA,NA,NA,NA,NA,NA,NA,71.06,METAR KLGA 260600Z 23007KT 8SM SCT030 BKN250 22/16 A3014 RMK LGA8/20 SLP207 T02170161,NA
LGA,1973-08-26T07:00:00Z,-73.8803,40.7794,70.88,60.98,70.9,230,8,NA,30.13,1020.3,7,NA,SCT,BKN,   ,   ,7000,25000,NA,NA,NA,NA,NA,NA,NA,NA,NA,70.88,METAR KLGA 260700Z 23008KT 7SM SCT070 BKN250 22/16 A3013 RMK LGA8/20 SLP203 T02160161,NA
LGA,1973-08-26T08:00:00Z,-73.8803,40.7794,70.88,61.88,73.2,240,9,NA,30.13,1020.3,6,NA,OVC,   ,   ,   ,10000,NA,NA,NA,DZ,NA,NA,NA,NA,NA,NA,70.88,METAR KLGA 260800Z 24009KT 6SM DZ OVC100 22/17 A3013 RMK LGA8/20 SLP203 T02160166,NA
LGA,1973-08-26T09:00:00Z,-73.8803,40.7794,71.06,62.96,75.57,240,9,NA,30.13,1020.3,6,NA,SCT,OVC,   ,   ,10000,25000,NA,NA,DZ,NA,NA,NA,NA,NA,NA,71.06,METAR KLGA 260900Z 24009KT 6SM DZ SCT100 OVC250 22/17 A3013 RMK WND 220V260 1037LGA8/20 SLP203 T02170172 56005,NA
LGA,1973-08-26T10:00:00Z,-73.8803,40.7794,70.88,63.86,78.48,230,10,NA,30.13,1020.3,5,NA,BKN,OVC,   ,   ,8000,25000,NA,NA,DZ,NA,NA,NA,NA,NA,NA,70.88,METAR KLGA 261000Z 23010KT 5SM DZ BKN080 OVC250 22/18 A3013 RMK WND 200V250LGA8/20 SLP203 T02160177,NA
LGA,1973-08-26T11:00:00Z,-73.8803,40.7794,70.88,63.86,78.48,230,7,NA,30.13,1020.3,4,NA,SCT,BKN,   ,   ,8000,20000,NA,NA,DZ,NA,NA,NA,NA,NA,NA,70.88,METAR KLGA 261100Z 23007KT 4SM DZ SCT080 BKN200 22/18 A3013 RMK LGA8/20 SLP203 T02160177,NA
LGA,1973-08-26T12:00:00Z,-73.8803,40.7794,73,64.9,75.75,250,8,NA,30.13,NA,4,NA,   ,   ,   ,   ,NA,NA,NA,NA,NA,NA,NA,NA,NA,NA,NA,73,METAR KLGA 261200Z 25008KT 4SM FUDZ OVC/// SCT200 23/18 A3013 RMK KH2 VALGA8/20 SLP203 T02280183,NA
LGA,1973-08-26T13:00:00Z,-73.8803,40.7794,73.9,65.8,75.83,230,7.04,NA,30.13,NA,4,NA,   ,   ,   ,   ,NA,NA,NA,NA,NA,NA,NA,NA,NA,NA,NA,73.9,METAR KLGA 261300Z 23007KT 4SM FUDZ OVC/// 23/19 A3013 RMK KH1 VALGA8/20 SLP203 T02330188,NA
LGA,1973-08-26T14:00:00Z,-73.8803,40.7794,75.9,66.9,73.68,250,7.04,NA,30.13,NA,4,NA,   ,   ,   ,   ,NA,NA,NA,NA,NA,NA,NA,NA,NA,NA,NA,75.9,METAR KLGA 261400Z 25007KT 4SM FUDZ OVC/// 24/19 A3013 RMK KH2LGA8/20 SLP203 T02440194,NA
LGA,1973-08-26T15:00:00Z,-73.8803,40.7794,79,66.9,66.49,250,6,NA,30.13,NA,4,NA,   ,   ,   ,   ,NA,NA,NA,NA,NA,NA,NA,NA,NA,NA,NA,81.16,METAR KLGA 261500Z 24006KT 4SM FUDZ OVC/// FEW250 26/19 A3013 RMK KH2 VALGA8/20 SLP203 8/001 T02610194 54000,NA
LGA,1973-08-26T16:00:00Z,-73.8803,40.7794,81.9,65.8,58.22,270,7.04,NA,30.13,NA,5,NA,   ,   ,   ,   ,NA,NA,NA,NA,NA,NA,NA,NA,NA,NA,NA,83.97,METAR KLGA 261600Z 26007KT 5SM FUDZ OVC/// SCT250 28/19 A3013 RMK HK1LGA8/20 SLP203 T02770188,NA
LGA,1973-08-26T17:00:00Z,-73.8803,40.7794,83.84,64.94,53.06,260,4,NA,30.1,1019.3,5,NA,OVC,SCT,   ,   ,NA,4500,NA,NA,DZ,NA,NA,NA,NA,NA,NA,85.58,METAR KLGA 261700Z 26004KT 5SM DZ OVC/// SCT045 29/18 A3010 RMK H1LGA8/20 SLP193 T02880183,NA
LGA,1973-08-26T18:00:00Z,-73.8803,40.7794,86,64.94,49.51,290,7,NA,30.09,1019,5,NA,BKN,   ,   ,   ,4500,NA,NA,NA,DZ,NA,NA,NA,NA,NA,NA,87.75,METAR KLGA 261800Z 29007KT 5SM DZ BKN045 30/18 A3009 RMK LGA8/20 SLP190 T03000183,NA
LGA,1973-08-26T19:00:00Z,-73.8803,40.7794,86,62.96,46.19,310,9,NA,30.08,1018.6,5,NA,BKN,   ,   ,   ,5000,NA,NA,NA,DZ,NA,NA,NA,NA,NA,NA,86.87,METAR KLGA 261900Z 31009KT 5SM DZ BKN050 30/17 A3008 RMK WND290V330LGA8/20 VA SLP186 T03000172,NA
LGA,1973-08-26T20:00:00Z,-73.8803,40.7794,84.92,61.88,46.03,270,6,NA,30.07,1018.3,6,NA,SCT,   ,   ,   ,5000,NA,NA,NA,DZ,NA,NA,NA,NA,NA,NA,85.43,METAR KLGA 262000Z 27006KT 6SM DZ SCT050 29/17 A3007 RMK %V VALGA8/20 SLP183 T02940166,NA
LGA,1973-08-26T21:00:00Z,-73.8803,40.7794,84.92,64.04,49.66,260,8,NA,30.07,1018.3,6,NA,SCT,   ,   ,   ,5000,NA,NA,NA,DZ,NA,NA,NA,NA,NA,NA,86.27,METAR KLGA 262100Z 26008KT 6SM DZ SCT050 29/18 A3007 RMK / VALGA8/20 SLP183 8/500 T02940178 56007,NA
LGA,1973-08-26T22:00:00Z,-73.8803,40.7794,84.92,63.86,49.35,270,10,NA,30.06,1018,6,NA,SCT,   ,   ,   ,5000,NA,NA,NA,DZ,NA,NA,NA,NA,NA,NA,86.19,METAR KLGA 262200Z 27010KT 6SM DZ SCT050 29/18 A3006 RMK VALGA8/20 SLP180 T02940177,NA
LGA,1973-08-26T23:00:00Z,-73.8803,40.7794,83.84,64.94,53.06,260,8,NA,30.06,1018,5,NA,SCT,   ,   ,   ,25000,NA,NA,NA,DZ,NA,NA,NA,NA,NA,NA,85.58,METAR KLGA 262300Z 26008KT 5SM DZ SCT250 29/18 A3006 RMK VALGA8/20 SLP180 T02880183,NA
LGA,1973-08-27T00:00:00Z,-73.8803,40.7794,82.9,66,56.75,270,7.04,NA,30.07,NA,4,NA,   ,   ,   ,   ,NA,NA,NA,NA,NA,NA,NA,NA,NA,NA,NA,85.07,METAR KLGA 270000Z 27007KT 4SM FUDZ SCT100 SCT250 28/19 A3007 RMK LGA8/20 SLP183 T02830189,NA
LGA,1973-08-27T01:00:00Z,-73.8803,40.7794,81.86,65.84,58.37,270,12,NA,30.08,1018.6,4,NA,SCT,   ,   ,   ,10000,NA,NA,NA,DZ,NA,NA,NA,NA,NA,NA,83.94,METAR KLGA 270100Z 27012KT 4SM DZ SCT100 28/19 A3008 RMK LGA8/20 SLP186 T02770188,NA
LGA,1973-08-27T03:00:00Z,-73.8803,40.7794,80.96,66.92,62.4,280,10,NA,30.11,1019.6,4,NA,SCT,   ,   ,   ,10000,NA,NA,NA,DZ,NA,NA,NA,NA,NA,NA,83.36,METAR KLGA 270300Z 28010KT 4SM DZ SCT100 27/19 A3011 RMK 1030LGA8/20 SLP196 T02720194 53014,NA
LGA,1973-08-27T04:00:00Z,-73.8803,40.7794,79.88,66.92,64.64,270,7,NA,30.11,1019.6,4,NA,SCT,   ,   ,   ,10000,NA,NA,NA,DZ,NA,NA,NA,NA,NA,NA,82.16,METAR KLGA 270400Z 27007KT 4SM DZ SCT100 27/19 A3011 RMK LGA8/20 SLP196 T02660194,NA
LGA,1973-08-27T05:00:00Z,-73.8803,40.7794,77.9,66.92,69,230,5,NA,30.11,1019.6,5,NA,OVC,SCT,   ,   ,NA,12000,NA,NA,DZ,NA,NA,NA,NA,NA,NA,77.9,METAR KLGA 270500Z 23005KT 5SM DZ OVC/// SCT120 25/19 A3011 RMK H3LGA8/20 SLP196 T02550194,NA
LGA,1973-08-27T06:00:00Z,-73.8803,40.7794,78.08,66.92,68.59,210,7,NA,30.1,1019.3,5,NA,OVC,   ,   ,   ,20000,NA,NA,NA,DZ,NA,NA,NA,NA,NA,NA,78.08,METAR KLGA 270600Z 21007KT 5SM DZ OVC200 26/19 A3010 RMK BINOVCLGA8/20 SLP193 T02560194,NA
LGA,1973-08-27T07:00:00Z,-73.8803,40.7794,75.92,66.92,73.68,210,6,NA,30.1,1019.3,5,NA,OVC,BKN,   ,   ,NA,20000,NA,NA,DZ,NA,NA,NA,NA,NA,NA,75.92,METAR KLGA 270700Z 21006KT 5SM DZ OVC/// BKN200 24/19 A3010 RMK H4LGA8/20 SLP193 T02440194,NA
LGA,1973-08-27T08:00:00Z,-73.8803,40.7794,75.92,66.92,73.68,200,4,NA,30.09,1019,5,NA,OVC,BKN,   ,   ,NA,20000,NA,NA,DZ,NA,NA,NA,NA,NA,NA,75.92,METAR KLGA 270800Z 20004KT 5SM DZ OVC/// BKN200 24/19 A3009 RMK H4LGA8/20 SLP190 T02440194,NA
LGA,1973-08-27T09:00:00Z,-73.8803,40.7794,75.92,66.92,73.68,230,5,NA,30.09,1019,4,NA,OVC,BKN,   ,   ,NA,20000,NA,NA,DZ,NA,NA,NA,NA,NA,NA,75.92,METAR KLGA 270900Z 23005KT 4SM DZ OVC/// BKN200 24/19 A3009 RMK H3/ 1001LGA8/20 SLP190 T02440194 57005,NA
LGA,1973-08-27T10:00:00Z,-73.8803,40.7794,75.92,68,76.48,260,5,NA,30.09,1019,4,NA,OVC,BKN,   ,   ,NA,20000,NA,NA,DZ,NA,NA,NA,NA,NA,NA,75.92,METAR KLGA 271000Z 26005KT 4SM DZ OVC/// BKN200 24/20 A3009 RMK H3LGA8/20 SLP190 T02440200,NA
LGA,1973-08-27T11:00:00Z,-73.8803,40.7794,75.92,68,76.48,230,4,NA,30.1,1019.3,3,NA,OVC,   ,   ,   ,NA,NA,NA,NA,DZ,NA,NA,NA,NA,NA,NA,75.92,METAR KLGA 271100Z 23004KT 3SM DZ OVC/// 24/20 A3010 RMK / H5LGA8/20 SLP193 T02440200,NA
LGA,1973-08-27T11:02:00Z,-73.8803,40.7794,NA,NA,NA,250,6,NA,30.1,NA,2.5,NA,NA,NA,NA,NA,NA,NA,NA,NA,NA,NA,NA,NA,NA,NA,NA,NA,KLGA 271102Z AUTO 25006KT 2 1/2SM POB000 A3010 RMK IEM_DS3505,NA
LGA,1973-08-27T12:00:00Z,-73.8803,40.7794,77,69.1,76.62,230,5.04,NA,30.1,NA,10.5,NA,   ,   ,   ,   ,NA,NA,NA,NA,NA,NA,NA,NA,NA,NA,NA,78,METAR KLGA 271200Z 23005KT 21/2SM FUDZ OVC/// 25/21 A3010 RMK / HK5LGA8/20 SLP193 T02500206,NA
LGA,1973-08-27T13:00:00Z,-73.8803,40.7794,79,68.9,71.23,220,8,NA,30.11,NA,10.5,NA,   ,   ,   ,   ,NA,NA,NA,NA,NA,NA,NA,NA,NA,NA,NA,81.51,METAR KLGA 271300Z 22008KT 21/2SM FUDZ OVC/// BKN200 26/20 A3011 RMK / HK5LGA8/20 SLP196 T02610205,NA
LGA,1973-08-27T14:00:00Z,-73.8803,40.7794,81,70,69.28,220,7.04,NA,30.11,NA,10.5,NA,   ,   ,   ,   ,NA,NA,NA,NA,NA,NA,NA,NA,NA,NA,NA,84.5,METAR KLGA 271400Z 22007KT 21/2SM FUDZ OVC/// 27/21 A3011 RMK / HK5 SFC VSBY 2LGA8/20 SLP196 T02720211,NA
LGA,1973-08-27T15:00:00Z,-73.8803,40.7794,84,71.1,65.26,270,5.04,NA,30.1,NA,10.5,NA,   ,   ,   ,   ,NA,NA,NA,NA,NA,NA,NA,NA,NA,NA,NA,89.01,METAR KLGA 271500Z 26005KT 21/2SM FUDZ OVC/// 29/22 A3010 RMK / HK5 SFC VSBY 000LGA8/20 SLP193 T02890217,NA
LGA,1973-08-27T16:00:00Z,-73.8803,40.7794,86,72,63.1,230,7.04,NA,30.08,NA,10.5,NA,   ,   ,   ,   ,NA,NA,NA,NA,NA,NA,NA,NA,NA,NA,NA,92.25,METAR KLGA 271600Z 23007KT 21/2SM FUDZ OVC/// BKN080 30/22 A3008 RMK HK5LGA8/20 SLP186 T03000222,NA
LGA,1973-08-27T17:00:00Z,-73.8803,40.7794,86.9,72,61.31,250,9.04,NA,30.06,NA,10.5,NA,   ,   ,   ,   ,NA,NA,NA,NA,NA,NA,NA,NA,NA,NA,NA,93.4,METAR KLGA 271700Z 24009KT 21/2SM FUDZ OVC/// BKN080 31/22 A3006 RMK HK4LGA8/20 SLP180 T03050222,NA
LGA,1973-08-27T18:00:00Z,-73.8803,40.7794,88,72,59.21,220,8,NA,30.05,NA,10.5,NA,   ,   ,   ,   ,NA,NA,NA,NA,NA,NA,NA,NA,NA,NA,NA,94.79,METAR KLGA 271800Z 22008KT 21/2SM FUDZ OVC/// BKN070 OVC200 31/22 A3005 RMK HK4LGA8/20 SLP176 T03110222,NA
LGA,1973-08-27T20:00:00Z,-73.8803,40.7794,84.9,72.9,67.38,270,12,NA,30.03,NA,10.5,NA,   ,   ,   ,   ,NA,NA,NA,NA,NA,NA,NA,NA,NA,NA,NA,91.52,METAR KLGA 272000Z 27012KT 21/2SM -SHRA FUDZ OVC/// BKN037 BKN070 OVC200 29/23 A3003 RMK HK3RB05LGA8/20 ^ SLP169 T02940227,NA
LGA,1973-08-27T21:00:00Z,-73.8803,40.7794,86,69.08,57.12,280,12,NA,30.02,1016.6,2.5,NA,OVC,SCT,SCT,BKN,NA,NA,NA,NA,FU,NA,NA,NA,NA,NA,NA,90.1,METAR KLGA 272100Z 28012KT 21/2SM FU OVC/// SCT/// SCT/// BKN/// 30/21 A//// RMK SLP166 T03000206,NA
LGA,1973-08-27T22:00:00Z,-73.8803,40.7794,86,68,55.04,270,11.04,NA,30.01,NA,3,NA,   ,   ,   ,   ,NA,NA,NA,NA,NA,NA,NA,NA,NA,NA,NA,89.41,METAR KLGA 272200Z 28011KT 3SM FUDZ OVC/// SCT040 SCT200 30/20 A3001 RMK HK2LGA8/20 SLP163 T03000200,NA
LGA,1973-08-28T00:00:00Z,-73.8803,40.7794,84,72,67.28,250,10,NA,30.02,NA,3,NA,   ,   ,   ,   ,NA,NA,NA,NA,NA,NA,NA,NA,NA,NA,NA,89.62,METAR KLGA 280000Z 24010KT 3SM FUDZ OVC/// SCT040 29/22 A3002 RMK HK2 VALGA8/20 SLP166 T02890222,NA
LGA,1973-08-28T01:00:00Z,-73.8803,40.7794,83.8,72.9,69.81,200,12,NA,30.01,NA,3,NA,   ,   ,   ,   ,NA,NA,NA,NA,NA,NA,NA,NA,NA,NA,NA,89.99,METAR KLGA 280100Z 20012KT 3SM FUDZ OVC/// SCT040 SCT200 29/23 A3001 RMK HK3LGA8/20 SLP163 T02880227,NA
LGA,1973-08-28T02:00:00Z,-73.8803,40.7794,84.9,72.9,67.38,310,8,NA,30.02,NA,3,NA,   ,   ,   ,   ,NA,NA,NA,NA,NA,NA,NA,NA,NA,NA,NA,91.52,METAR KLGA 280200Z 31008KT 3SM FUDZ OVC/// SCT040 BKN200 29/23 A3002 RMK HK3 VALGA8/20 SLP166 T02940227,NA
LGA,1973-08-28T03:00:00Z,-73.8803,40.7794,82.9,73,72.11,180,7.04,NA,30,NA,3,NA,   ,   ,   ,   ,NA,NA,NA,NA,NA,NA,NA,NA,NA,NA,NA,88.75,METAR KLGA 280300Z 19007KT 3SM FUDZ OVC/// BKN200 28/23 A3000 RMK HK3/ VALGA8/20 SLP159 T02830228 58007,NA
LGA,1973-08-28T05:00:00Z,-73.8803,40.7794,81.9,72.9,74.23,230,10,NA,30,NA,3,NA,   ,   ,   ,   ,NA,NA,NA,NA,NA,NA,NA,NA,NA,NA,NA,87.18,METAR KLGA 280500Z 23010KT 3SM FUDZ OVC/// 28/23 A3000 RMK HK4 VALGA8/20 SLP159 T02770227,NA
LGA,1973-08-28T06:00:00Z,-73.8803,40.7794,81,73,76.7,230,10,NA,29.98,NA,3,NA,   ,   ,   ,   ,NA,NA,NA,NA,NA,NA,NA,NA,NA,NA,NA,85.81,METAR KLGA 280600Z 23010KT 3SM FUDZ OVC/// 27/23 A2998 RMK H5LGA8/20 SLP152 T02720228,NA
LGA,1973-08-28T07:00:00Z,-73.8803,40.7794,79.9,72.9,79.24,230,8,NA,29.97,NA,3,NA,   ,   ,   ,   ,NA,NA,NA,NA,NA,NA,NA,NA,NA,NA,NA,83.92,METAR KLGA 280700Z 23008KT 3SM FUDZ OVC/// 27/23 A2997 RMK H5 WND 200V250 VALGA8/20 SLP149 T02660227,NA
LGA,1973-08-28T08:00:00Z,-73.8803,40.7794,79,72.9,81.62,230,11.04,NA,29.96,NA,3,NA,   ,   ,   ,   ,NA,NA,NA,NA,NA,NA,NA,NA,NA,NA,NA,82.31,METAR KLGA 280800Z 23011KT 3SM FUDZ OVC/// 26/23 A2996 RMK LGA8/20 SLP146 T02610227,NA
LGA,1973-08-28T09:00:00Z,-73.8803,40.7794,79,73,81.89,230,7.04,NA,29.97,NA,3,NA,   ,   ,   ,   ,NA,NA,NA,NA,NA,NA,NA,NA,NA,NA,NA,82.33,METAR KLGA 280900Z 23007KT 3SM FUDZ OVC/// 26/23 A2997 RMK / H4 503LGA8/20 SLP149 T02610228,NA
LGA,1973-08-28T10:00:00Z,-73.8803,40.7794,77.9,72,82.09,250,5.04,NA,29.97,NA,2,NA,   ,   ,   ,   ,NA,NA,NA,NA,NA,NA,NA,NA,NA,NA,NA,80.16,METAR KLGA 281000Z 25005KT 2SM FUDZ OVC/// 25/22 A2997 RMK / HK5LGA8/20 SLP149 T02550222,NA
LGA,1973-08-28T11:00:00Z,-73.8803,40.7794,79.9,72,76.87,270,9.04,NA,29.99,NA,2,NA,   ,   ,   ,   ,NA,NA,NA,NA,NA,NA,NA,NA,NA,NA,NA,83.62,METAR KLGA 281100Z 26009KT 2SM FUDZ OVC/// OVC250 27/22 A2999 RMK / HK4LGA8/20 SLP156 T02660222,NA
LGA,1973-08-28T12:00:00Z,-73.8803,40.7794,80.1,73,78.99,290,6,NA,29.97,NA,2,NA,   ,   ,   ,   ,NA,NA,NA,NA,NA,NA,NA,NA,NA,NA,NA,84.3,METAR KLGA 281200Z 29006KT 2SM FUDZ OVC/// SCT150 BKN300 27/23 A2997 RMK HK2.LGA8/20 SLP149 T02670228,NA
LGA,1973-08-28T13:00:00Z,-73.8803,40.7794,81.9,72.9,74.23,270,10,NA,29.97,NA,2,NA,   ,   ,   ,   ,NA,NA,NA,NA,NA,NA,NA,NA,NA,NA,NA,87.18,METAR KLGA 281300Z 28010KT 2SM FUDZ OVC/// SCT250 28/23 A2997 RMK HK3LGA8/20 SLP149 T02770227,NA
LGA,1973-08-28T14:00:00Z,-73.8803,40.7794,84.9,73.9,69.69,270,10,NA,29.96,NA,2,NA,   ,   ,   ,   ,NA,NA,NA,NA,NA,NA,NA,NA,NA,NA,NA,92.36,METAR KLGA 281400Z 27010KT 2SM FUDZ OVC/// SCT250 29/23 A2996 RMK / HK2LGA8/20 SLP146 T02940233,NA
LGA,1973-08-28T15:00:00Z,-73.8803,40.7794,87.1,75,67.39,270,11.04,NA,29.94,NA,2,NA,   ,   ,   ,   ,NA,NA,NA,NA,NA,NA,NA,NA,NA,NA,NA,96.56,METAR KLGA 281500Z 26011KT 2SM FUDZ OVC/// 31/24 A2994 RMK HK2/810LGA8/20 SLP139 T03060239,NA
LGA,1973-08-28T16:00:00Z,-73.8803,40.7794,88.9,75.9,65.6,270,12,NA,29.93,NA,10.5,NA,   ,   ,   ,   ,NA,NA,NA,NA,NA,NA,NA,NA,NA,NA,NA,100.13,METAR KLGA 281600Z 26012KT 21/2SM FUDZ OVC/// SCT030 32/24 A2993 RMK HK2LGA8/20 SLP135 T03160244,NA
LGA,1973-08-28T17:00:00Z,-73.8803,40.7794,91.9,75.9,59.7,270,11.04,NA,29.91,NA,10.5,NA,   ,   ,   ,   ,NA,NA,NA,NA,NA,NA,NA,NA,NA,NA,NA,104.22,METAR KLGA 281700Z 26011KT 21/2SM FUDZ OVC/// 33/24 A2991 RMK HK2LGA8/20 SLP129 T03330244,NA
LGA,1973-08-28T18:00:00Z,-73.8803,40.7794,93,75.9,57.69,250,12,NA,29.89,NA,10.5,NA,   ,   ,   ,   ,NA,NA,NA,NA,NA,NA,NA,NA,NA,NA,NA,105.69,METAR KLGA 281800Z 24012KT 21/2SM FUDZ OVC/// 34/24 A2989 RMK / HK1LGA8/20 SLP122 T03390244,NA
LGA,1973-08-28T18:25:00Z,-73.8803,40.7794,NA,NA,NA,260,11,NA,29.88,NA,4,NA,SCT,NA,NA,NA,4900,NA,NA,NA,NA,NA,NA,NA,NA,NA,NA,NA,KLGA 281825Z AUTO 26011KT 4SM POB000 SCT049 A2988 RMK IEM_DS3505,NA
LGA,1973-08-28T19:00:00Z,-73.8803,40.7794,95,74.8,52.27,270,9.04,NA,29.87,NA,4,NA,   ,   ,   ,   ,NA,NA,NA,NA,NA,NA,NA,NA,NA,NA,NA,106.86,METAR KLGA 281900Z 27009KT 4SM FUDZ OVC/// SCT050 SCT200 35/24 A2987 RMK HK1LGA8/20 SLP115 T03500238,NA
LGA,1973-08-28T20:00:00Z,-73.8803,40.7794,96.98,71.96,44.71,270,15,NA,29.87,1011.5,6,NA,BKN,   ,   ,   ,5000,NA,NA,NA,DZ,NA,NA,NA,NA,NA,NA,106.02,METAR KLGA 282000Z 27015KT 6SM DZ BKN050 36/22 A2987 RMK TCU N ELGA8/20 SLP115 T03610222,NA
LGA,1973-08-28T21:00:00Z,-73.8803,40.7794,96.08,69.98,42.96,310,13,NA,29.87,1011.5,9,NA,SCT,BKN,   ,   ,5000,18000,NA,NA,NA,NA,NA,NA,NA,NA,NA,102.87,METAR KLGA 282100Z 31013KT 9SM SCT050 BKN180 36/21 A2987 RMK / 1270LGA8/20 SLP115 T03560211 56008,NA
LGA,1973-08-28T22:00:00Z,-73.8803,40.7794,91.94,69.98,48.84,300,12,NA,29.87,1011.5,9,NA,SCT,SCT,   ,   ,5000,20000,NA,NA,NA,NA,NA,NA,NA,NA,NA,97.8,METAR KLGA 282200Z 30012KT 9SM SCT050 SCT200 33/21 A2987 RMK LGA8/20 SLP115 T03330211,NA
LGA,1973-08-29T00:00:00Z,-73.8803,40.7794,91.04,68,46.93,310,12,NA,29.89,1012.2,9,NA,FEW,   ,   ,   ,20000,NA,NA,NA,NA,NA,NA,NA,NA,NA,NA,95.13,METAR KLGA 290000Z 31012KT 9SM FEW200 33/20 A2989 RMK VALGA8/20 SLP122 T03280200,NA
LGA,1973-08-29T01:00:00Z,-73.8803,40.7794,87.98,68,51.68,300,13,NA,29.92,1013.2,9,NA,SCT,   ,   ,   ,20000,NA,NA,NA,NA,NA,NA,NA,NA,NA,NA,91.63,METAR KLGA 290100Z 30013KT 9SM SCT200 31/20 A2992 RMK LGA8/20 SLP132 T03110200,NA
LGA,1973-08-29T02:00:00Z,-73.8803,40.7794,86,69.98,58.91,320,12,NA,29.94,1013.9,9,NA,SCT,   ,   ,   ,20000,NA,NA,NA,NA,NA,NA,NA,NA,NA,NA,90.71,METAR KLGA 290200Z 32012KT 9SM SCT200 30/21 A2994 RMK VALGA8/20 SLP139 T03000211,NA
LGA,1973-08-29T03:00:00Z,-73.8803,40.7794,84.02,69.98,62.77,320,8,NA,29.95,1014.2,9,NA,CLR,   ,   ,   ,NA,NA,NA,NA,NA,NA,NA,NA,NA,NA,NA,88.32,METAR KLGA 290300Z 32008KT 9SM CLR 29/21 A2995 RMK / VALGA8/20 SLP142 T02890211 52020,NA
LGA,1973-08-29T04:00:00Z,-73.8803,40.7794,82.94,69.98,65,360,5,NA,29.97,1014.9,9,NA,CLR,   ,   ,   ,NA,NA,NA,NA,NA,NA,NA,NA,NA,NA,NA,86.99,METAR KLGA 290400Z 36005KT 9SM CLR 28/21 A2997 RMK LGA8/20 SLP149 T02830211,NA
LGA,1973-08-29T05:00:00Z,-73.8803,40.7794,82.94,68.9,62.64,360,8,NA,29.98,1015.2,9,NA,CLR,   ,   ,   ,NA,NA,NA,NA,NA,NA,NA,NA,NA,NA,NA,86.43,METAR KLGA 290500Z 36008KT 9SM CLR 28/20 A2998 RMK WND 340V020LGA8/20 SLP152 T02830205,NA
LGA,1973-08-29T06:00:00Z,-73.8803,40.7794,80.06,69.98,71.39,340,5,NA,29.98,1015.2,8,NA,CLR,   ,   ,   ,NA,NA,NA,NA,NA,NA,NA,NA,NA,NA,NA,83.22,METAR KLGA 290600Z 34005KT 8SM CLR 27/21 A2998 RMK LGA8/20 SLP152 T02670211,NA
LGA,1973-08-29T07:00:00Z,-73.8803,40.7794,79.88,69.98,71.81,350,5,NA,30,1015.9,8,NA,CLR,   ,   ,   ,NA,NA,NA,NA,NA,NA,NA,NA,NA,NA,NA,82.97,METAR KLGA 290700Z 35005KT 8SM CLR 27/21 A3000 RMK LGA8/20 SLP159 T02660211,NA
LGA,1973-08-29T08:00:00Z,-73.8803,40.7794,77,69.98,78.96,20,3,NA,30.02,1016.6,7,NA,CLR,   ,   ,   ,NA,NA,NA,NA,NA,NA,NA,NA,NA,NA,NA,78.11,METAR KLGA 290800Z 02003KT 7SM CLR 25/21 A3002 RMK LGA8/20 SLP166 T02500211,NA
LGA,1973-08-29T09:00:00Z,-73.8803,40.7794,77,69.08,76.57,0,0,NA,30.03,1016.9,6,NA,CLR,   ,   ,   ,NA,NA,NA,NA,DZ,NA,NA,NA,NA,NA,NA,77,METAR KLGA 290900Z 00000KT 6SM DZ CLR 25/21 A3003 RMK FEW CU/ 1100LGA8/20 SLP169 T02500206 51015,NA
LGA,1973-08-29T10:00:00Z,-73.8803,40.7794,77,69.98,78.96,0,0,NA,30.04,1017.3,6,NA,CLR,   ,   ,   ,NA,NA,NA,NA,DZ,NA,NA,NA,NA,NA,NA,78.11,METAR KLGA 291000Z 00000KT 6SM DZ CLR 25/21 A3004 RMK FEW CU WLGA8/20 SLP173 T02500211,NA
LGA,1973-08-29T11:00:00Z,-73.8803,40.7794,77,70.88,81.42,10,3,NA,30.06,1018,5,NA,CLR,   ,   ,   ,NA,NA,NA,NA,DZ,NA,NA,NA,NA,NA,NA,78.23,METAR KLGA 291100Z 01003KT 5SM DZ CLR 25/22 A3006 RMK FEW CULGA8/20 SLP180 T02500216,NA
LGA,1973-08-29T12:00:00Z,-73.8803,40.7794,78.98,71.06,76.74,0,0,NA,30.07,1018.3,4,NA,SCT,   ,   ,   ,3000,NA,NA,NA,DZ,NA,NA,NA,NA,NA,NA,81.9,METAR KLGA 291200Z 00000KT 4SM DZ SCT030 26/22 A3007 RMK LGA8/20 SLP183 T02610217,NA
LGA,1973-08-29T13:00:00Z,-73.8803,40.7794,80.96,70.88,71.48,290,3,NA,30.08,1018.6,4,NA,SCT,   ,   ,   ,3000,NA,NA,NA,DZ,NA,NA,NA,NA,NA,NA,84.81,METAR KLGA 291300Z 29003KT 4SM DZ SCT030 27/22 A3008 RMK LGA8/20 SLP186 T02720216,NA
LGA,1973-08-29T14:00:00Z,-73.8803,40.7794,83.84,71.96,67.54,330,4,NA,30.09,1019,4,NA,CLR,   ,   ,   ,NA,NA,NA,NA,DZ,NA,NA,NA,NA,NA,NA,89.37,METAR KLGA 291400Z 33004KT 4SM DZ CLR 29/22 A3009 RMK FEW CULGA8/20 SLP190 T02880222,NA
LGA,1973-08-29T15:00:00Z,-73.8803,40.7794,87.98,69.08,53.64,350,4,NA,30.09,1019,5,NA,SCT,   ,   ,   ,3500,NA,NA,NA,DZ,NA,NA,NA,NA,NA,NA,92.39,METAR KLGA 291500Z 35004KT 5SM DZ SCT035 31/21 A3009 RMK 1100LGA8/20 SLP190 T03110206 51007,NA
LGA,1973-08-29T18:00:00Z,-73.8803,40.7794,91.04,68,46.93,320,5,NA,30.06,1018,6,NA,SCT,   ,   ,   ,4000,NA,NA,NA,DZ,NA,NA,NA,NA,NA,NA,95.13,METAR KLGA 291800Z 32005KT 6SM DZ SCT040 33/20 A3006 RMK LGA8/20 VA SLP180 T03280200,NA
LGA,1973-08-29T19:00:00Z,-73.8803,40.7794,91.94,68.9,47.06,310,6,NA,30.04,1017.3,6,NA,SCT,   ,   ,   ,4000,NA,NA,NA,DZ,NA,NA,NA,NA,NA,NA,96.89,METAR KLGA 291900Z 31006KT 6SM DZ SCT040 33/20 A3004 RMK LGA8/20 SLP173 T03330205,NA
LGA,1973-08-29T20:00:00Z,-73.8803,40.7794,93.9,32,11.23,340,6,NA,30.04,NA,7,NA,   ,   ,   ,   ,NA,NA,NA,NA,NA,NA,NA,NA,NA,NA,NA,88.85,METAR KLGA 292000Z 34006KT 7SM SCT040 34/M A3004 RMK VALGA8/20 SLP173 T0344////,NA
LGA,1973-08-29T21:00:00Z,-73.8803,40.7794,89.96,69.98,51.96,180,10,NA,30.03,1016.9,7,NA,BKN,   ,   ,   ,4000,NA,NA,NA,NA,NA,NA,NA,NA,NA,NA,95.42,METAR KLGA 292100Z 18010KT 7SM BKN040 32/21 A3003 RMK VA/ 0 1100LGA8/20 SLP169 T03220211,NA
LGA,1973-08-29T22:00:00Z,-73.8803,40.7794,88.88,69.98,53.76,80,13,NA,30.03,1016.9,7,NA,SCT,   ,   ,   ,4000,NA,NA,NA,NA,NA,NA,NA,NA,NA,NA,94.14,METAR KLGA 292200Z 08013KT 7SM SCT040 32/21 A3003 RMK VALGA8/20 SLP169 T03160211,NA
LGA,1973-08-29T23:00:00Z,-73.8803,40.7794,89.96,69.98,51.96,170,12,NA,30.03,1016.9,7,NA,SCT,   ,   ,   ,4000,NA,NA,NA,NA,NA,NA,NA,NA,NA,NA,95.42,METAR KLGA 292300Z 17012KT 7SM SCT040 32/21 A3003 RMK VALGA8/20 SLP169 T03220211,NA
LGA,1973-08-30T00:00:00Z,-73.8803,40.7794,87.98,69.08,53.64,220,6,NA,30.04,1017.3,7,NA,SCT,   ,   ,   ,4000,NA,NA,NA,NA,NA,NA,NA,NA,NA,NA,92.39,METAR KLGA 300000Z 22006KT 7SM SCT040 31/21 A3004 RMK VALGA 8/21 APLS OTS8/20 SLP173 T03110206,NA
LGA,1973-08-30T01:00:00Z,-73.8803,40.7794,86,68.9,56.77,230,6,NA,30.06,1018,9,NA,CLR,   ,   ,   ,NA,NA,NA,NA,NA,NA,NA,NA,NA,NA,NA,89.98,METAR KLGA 300100Z 23006KT 9SM CLR 30/20 A3006 RMK VALGA8/20 8/22 SLP180 T03000205,NA
LGA,1973-08-30T02:00:00Z,-73.8803,40.7794,84.92,68.9,58.77,210,5,NA,30.07,1018.3,8,NA,CLR,   ,   ,   ,NA,NA,NA,NA,NA,NA,NA,NA,NA,NA,NA,88.73,METAR KLGA 300200Z 21005KT 8SM CLR 29/20 A3007 RMK VALGA8/20 SLP183 T02940205,NA
LGA,1973-08-30T03:00:00Z,-73.8803,40.7794,84.92,68,56.98,230,6,NA,30.07,1018.3,8,NA,CLR,   ,   ,   ,NA,NA,NA,NA,NA,NA,NA,NA,NA,NA,NA,88.21,METAR KLGA 300300Z 23006KT 8SM CLR 29/20 A3007 RMK 110LGA8/20 SLP183 T02940200,NA
LGA,1973-08-30T04:00:00Z,-73.8803,40.7794,84.92,68,56.98,220,4,NA,30.08,1018.6,9,NA,CLR,   ,   ,   ,NA,NA,NA,NA,NA,NA,NA,NA,NA,NA,NA,88.21,METAR KLGA 300400Z 22004KT 9SM CLR 29/20 A3008 RMK LGA8/20 SLP186 T02940200,NA
LGA,1973-08-30T05:00:00Z,-73.8803,40.7794,87.98,70.88,57.04,300,4,NA,30.08,1018.6,6,NA,CLR,   ,   ,   ,NA,NA,NA,NA,DZ,NA,NA,NA,NA,NA,NA,93.79,METAR KLGA 300500Z 30004KT 6SM DZ CLR 31/22 A3008 RMK LGA8/20 SLP186 T03110216,NA
LGA,1973-08-30T06:00:00Z,-73.8803,40.7794,84.92,73.94,69.73,290,9,NA,30.07,1018.3,6,NA,CLR,   ,   ,   ,NA,NA,NA,NA,DZ,NA,NA,NA,NA,NA,NA,92.42,METAR KLGA 300600Z 29009KT 6SM DZ CLR 29/23 A3007 RMK LGA8/20 SLP183 T02940233,NA
LGA,1973-08-30T07:00:00Z,-73.8803,40.7794,84.92,71.96,65.23,310,4,NA,30.08,1018.6,6,NA,CLR,   ,   ,   ,NA,NA,NA,NA,DZ,NA,NA,NA,NA,NA,NA,90.81,METAR KLGA 300700Z 31004KT 6SM DZ CLR 29/22 A3008 RMK LGA8/20 SLP186 T02940222,NA
LGA,1973-08-30T08:00:00Z,-73.8803,40.7794,82.94,71.96,69.53,310,4,NA,30.09,1019,6,NA,CLR,   ,   ,   ,NA,NA,NA,NA,DZ,NA,NA,NA,NA,NA,NA,88.14,METAR KLGA 300800Z 31004KT 6SM DZ CLR 28/22 A3009 RMK LGA8/20 SLP190 T02830222,NA
LGA,1973-08-30T09:00:00Z,-73.8803,40.7794,84.02,71.96,67.15,310,4,NA,30.09,1019,6,NA,CLR,   ,   ,   ,NA,NA,NA,NA,DZ,NA,NA,NA,NA,NA,NA,89.62,METAR KLGA 300900Z 31004KT 6SM DZ CLR 29/22 A3009 RMK VALGA8/20 SLP190 T02890222 51005,NA
LGA,1973-08-30T10:00:00Z,-73.8803,40.7794,81.86,70.88,69.42,300,3,NA,30.09,1019,6,NA,SCT,   ,   ,   ,1000,NA,NA,NA,DZ,NA,NA,NA,NA,NA,NA,86.05,METAR KLGA 301000Z 30003KT 6SM DZ SCT010 28/22 A3009 RMK 10% K LYR W VALGA8/20 SLP190 T02770216,NA
LGA,1973-08-30T11:00:00Z,-73.8803,40.7794,81.86,71.96,72.01,310,5,NA,30.11,1019.6,5,NA,CLR,   ,   ,   ,NA,NA,NA,NA,DZ,NA,NA,NA,NA,NA,NA,86.6,METAR KLGA 301100Z 31005KT 5SM DZ CLR 28/22 A3011 RMK VALGA8/20 SLP196 T02770222,NA
LGA,1973-08-30T12:00:00Z,-73.8803,40.7794,82.94,71.96,69.53,320,6,NA,30.11,1019.6,5,NA,CLR,   ,   ,   ,NA,NA,NA,NA,DZ,NA,NA,NA,NA,NA,NA,88.14,METAR KLGA 301200Z 32006KT 5SM DZ CLR 28/22 A3011 RMK VALGA8/20 SLP196 T02830222,NA
LGA,1973-08-30T13:00:00Z,-73.8803,40.7794,84.92,71.96,65.23,320,6,NA,30.11,1019.6,5,NA,CLR,   ,   ,   ,NA,NA,NA,NA,DZ,NA,NA,NA,NA,NA,NA,90.81,METAR KLGA 301300Z 32006KT 5SM DZ CLR 29/22 A3011 RMK VALGA8/20 SLP196 T02940222,NA
LGA,1973-08-30T14:00:00Z,-73.8803,40.7794,86,70.88,60.75,310,5,NA,30.12,1020,4,NA,CLR,   ,   ,   ,NA,NA,NA,NA,DZ,NA,NA,NA,NA,NA,NA,91.37,METAR KLGA 301400Z 31005KT 4SM DZ CLR 30/22 A3012 RMK VALGA8/20 SLP200 T03000216,NA
LGA,1973-08-30T15:00:00Z,-73.8803,40.7794,89.06,69.98,53.46,300,5,NA,30.13,1020.3,5,NA,CLR,   ,   ,   ,NA,NA,NA,NA,DZ,NA,NA,NA,NA,NA,NA,94.35,METAR KLGA 301500Z 30005KT 5SM DZ CLR 32/21 A3013 RMK VALGA8/20 SLP203 T03170211 53005,NA
LGA,1973-08-30T16:00:00Z,-73.8803,40.7794,91.94,68,45.63,300,5,NA,30.11,1019.6,6,NA,CLR,   ,   ,   ,NA,NA,NA,NA,DZ,NA,NA,NA,NA,NA,NA,96.18,METAR KLGA 301600Z 30005KT 6SM DZ CLR 33/20 A3011 RMK VALGA8/20 SLP196 T03330200,NA
LGA,1973-08-30T17:00:00Z,-73.8803,40.7794,92.84,66.92,42.75,320,5,NA,30.1,1019.3,7,NA,CLR,   ,   ,   ,NA,NA,NA,NA,NA,NA,NA,NA,NA,NA,NA,96.43,METAR KLGA 301700Z 32005KT 7SM CLR 34/19 A3010 RMK VALGA8/20 ^ SLP193 T03380194,NA
LGA,1973-08-30T18:00:00Z,-73.8803,40.7794,93.92,66.02,40.07,250,7,NA,30.09,1019,7,NA,CLR,   ,   ,   ,NA,NA,NA,NA,NA,NA,NA,NA,NA,NA,NA,97.06,METAR KLGA 301800Z 25007KT 7SM CLR/// 34/19 A3009 RMK FEW CU SLP190 T03440189,NA
LGA,1973-08-30T19:00:00Z,-73.8803,40.7794,95,66.92,39.98,240,8,NA,30.08,1018.6,7,NA,CLR,   ,   ,   ,NA,NA,NA,NA,NA,NA,NA,NA,NA,NA,NA,98.98,METAR KLGA 301900Z 24008KT 7SM CLR 35/19 A3008 RMK VALGA8/20 SLP186 T03500194,NA
LGA,1973-08-30T20:00:00Z,-73.8803,40.7794,95,65.84,38.51,240,9,NA,30.07,1018.3,7,NA,SCT,   ,   ,   ,5000,NA,NA,NA,NA,NA,NA,NA,NA,NA,NA,98.2,METAR KLGA 302000Z 24009KT 7SM SCT050 35/19 A3007 RMK LGA8/20 SLP183 T03500188,NA
LGA,1973-08-30T21:00:00Z,-73.8803,40.7794,93.92,68,42.91,270,11,NA,30.07,1018.3,7,NA,SCT,   ,   ,   ,5000,NA,NA,NA,NA,NA,NA,NA,NA,NA,NA,98.52,METAR KLGA 302100Z 27011KT 7SM SCT050 34/20 A3007 RMK / 1100LGA8/20 SLP183 T03440200 56007,NA
LGA,1973-08-30T22:00:00Z,-73.8803,40.7794,91.94,68.9,47.06,250,12,NA,30.07,1019.3,7,NA,SCT,   ,   ,   ,5000,NA,NA,NA,NA,NA,NA,NA,NA,NA,NA,96.89,METAR KLGA 302200Z 25012KT 7SM SCT050 33/20 A3007 RMK LGA8/20 VA SLP193 T03330205,NA
LGA,1973-08-30T23:00:00Z,-73.8803,40.7794,90.86,68.9,48.68,260,8,NA,30.06,1018,7,NA,SCT,   ,   ,   ,5000,NA,NA,NA,NA,NA,NA,NA,NA,NA,NA,95.61,METAR KLGA 302300Z 26008KT 7SM SCT050 33/20 A3006 RMK LGA8/20 VA SLP180 T03270205,NA
LGA,1973-08-31T00:00:00Z,-73.8803,40.7794,89.96,69.08,50.39,250,8,NA,30.07,1018.3,7,NA,CLR,   ,   ,   ,NA,NA,NA,NA,NA,NA,NA,NA,NA,NA,NA,94.7,METAR KLGA 310000Z 25008KT 7SM CLR 32/21 A3007 RMK VALGA 8/23 LOC/GP OTS8/20 SLP183 T03220206,NA
LGA,1973-08-31T01:00:00Z,-73.8803,40.7794,87.98,69.98,55.31,260,7,NA,30.09,1019,7,NA,CLR,   ,   ,   ,NA,NA,NA,NA,NA,NA,NA,NA,NA,NA,NA,93.07,METAR KLGA 310100Z 26007KT 7SM CLR 31/21 A3009 RMK VALGA8/20 8/23 SLP190 T03110211,NA
LGA,1973-08-31T02:00:00Z,-73.8803,40.7794,86.9,70.88,59.03,290,8,NA,30.11,1019.6,7,NA,CLR,   ,   ,   ,NA,NA,NA,NA,NA,NA,NA,NA,NA,NA,NA,92.47,METAR KLGA 310200Z 29008KT 7SM CLR 31/22 A3011 RMK VALGA8/20 SLP196 T03050216,NA
LGA,1973-08-31T03:00:00Z,-73.8803,40.7794,84.02,71.96,67.15,300,6,NA,30.13,1020.3,7,NA,CLR,   ,   ,   ,NA,NA,NA,NA,NA,NA,NA,NA,NA,NA,NA,89.62,METAR KLGA 310300Z 30006KT 7SM CLR 29/22 A3013 RMK / VALGA8/20 SLP203 T02890222 52020,NA
LGA,1973-08-31T04:00:00Z,-73.8803,40.7794,82.94,69.98,65,310,5,NA,30.14,1020.7,7,NA,CLR,   ,   ,   ,NA,NA,NA,NA,NA,NA,NA,NA,NA,NA,NA,86.99,METAR KLGA 310400Z 31005KT 7SM CLR 28/21 A3014 RMK VALGA8/20 SLP207 T02830211,NA
LGA,1973-08-31T05:00:00Z,-73.8803,40.7794,NA,NA,NA,360,NA,NA,30.14,NA,6,NA,   ,   ,   ,   ,NA,NA,NA,NA,NA,NA,NA,NA,NA,NA,NA,NA,METAR KLGA 310500Z 220//KT 6SM CLR M/M A3014 RMK LGA8/20 SLPNO T////////,NA
LGA,1973-08-31T06:00:00Z,-73.8803,40.7794,80.96,69.08,67.22,310,4,NA,30.13,1020.3,6,NA,CLR,   ,   ,   ,NA,NA,NA,NA,DZ,NA,NA,NA,NA,NA,NA,84.1,METAR KLGA 310600Z 31004KT 6SM DZ CLR 27/21 A3013 RMK LGA8/20 SLP203 T02720206,NA
LGA,1973-08-31T07:00:00Z,-73.8803,40.7794,81.86,68.9,64.88,0,0,NA,30.13,1020.3,6,NA,CLR,   ,   ,   ,NA,NA,NA,NA,DZ,NA,NA,NA,NA,NA,NA,85.14,METAR KLGA 310700Z 00000KT 6SM DZ CLR 28/20 A3013 RMK LGA8/20 SLP203 T02770205,NA
LGA,1973-08-31T08:00:00Z,-73.8803,40.7794,80.96,69.98,69.32,0,0,NA,30.14,1020.7,6,NA,CLR,   ,   ,   ,NA,NA,NA,NA,DZ,NA,NA,NA,NA,NA,NA,84.44,METAR KLGA 310800Z 00000KT 6SM DZ CLR 27/21 A3014 RMK LGA8/20 SLP207 T02720211,NA
LGA,1973-08-31T09:00:00Z,-73.8803,40.7794,80.06,69.98,71.39,0,0,NA,30.14,1020.7,5,NA,CLR,   ,   ,   ,NA,NA,NA,NA,DZ,NA,NA,NA,NA,NA,NA,83.22,METAR KLGA 310900Z 00000KT 5SM DZ CLR 27/21 A3014 RMK / 103LGA8/20 SLP207 T02670211,NA
LGA,1973-08-31T10:00:00Z,-73.8803,40.7794,78.98,69.98,73.97,290,4,NA,30.16,1021.3,5,NA,SCT,   ,   ,   ,4000,NA,NA,NA,DZ,NA,NA,NA,NA,NA,NA,81.69,METAR KLGA 311000Z 29004KT 5SM DZ SCT040 26/21 A3016 RMK LGA8/20 SLP213 T02610211,NA
LGA,1973-08-31T11:00:00Z,-73.8803,40.7794,77.9,70.9,79.09,300,5.04,NA,30.18,NA,10.5,NA,   ,   ,   ,   ,NA,NA,NA,NA,NA,NA,NA,NA,NA,NA,NA,80.1,METAR KLGA 311100Z 30005KT 21/2SM FUDZ SCT080 25/22 A3018 RMK SFC VSBY 3LGA8/20 SLP220 T02550216,NA
LGA,1973-08-31T12:00:00Z,-73.8803,40.7794,80.1,71.1,74.07,290,4,NA,30.19,NA,10.5,NA,   ,   ,   ,   ,NA,NA,NA,NA,NA,NA,NA,NA,NA,NA,NA,83.64,METAR KLGA 311200Z 29004KT 21/2SM FUDZ CLR 27/22 A3019 RMK LGA8/20 SLP224 T02670217,NA
LGA,1973-08-31T13:00:00Z,-73.8803,40.7794,84.9,70,61.06,50,5.04,NA,30.18,NA,10.5,NA,   ,   ,   ,   ,NA,NA,NA,NA,NA,NA,NA,NA,NA,NA,NA,89.4,METAR KLGA 311300Z 05005KT 21/2SM FUDZ CLR 29/21 A3018 RMK SFC VSBY 3LGA8/20 SLP220 T02940211,NA
LGA,1973-08-31T14:00:00Z,-73.8803,40.7794,88,70.9,57.04,50,7.04,NA,30.19,NA,10.5,NA,   ,   ,   ,   ,NA,NA,NA,NA,NA,NA,NA,NA,NA,NA,NA,93.83,METAR KLGA 311400Z 05007KT 21/2SM FUDZ CLR 31/22 A3019 RMK SFC VSBY 3LGA8/20 SLP224 T03110216,NA
LGA,1973-08-31T15:00:00Z,-73.8803,40.7794,89.1,72,57.18,50,7.04,NA,30.19,NA,4,NA,   ,   ,   ,   ,NA,NA,NA,NA,NA,NA,NA,NA,NA,NA,NA,96.17,METAR KLGA 311500Z 05007KT 4SM FUDZ CLR 32/22 A3019 RMK / VALGA8/20 SLP224 T03170222 55000,NA
LGA,1973-08-31T16:00:00Z,-73.8803,40.7794,91.9,70,48.93,50,7.04,NA,30.18,NA,4,NA,   ,   ,   ,   ,NA,NA,NA,NA,NA,NA,NA,NA,NA,NA,NA,97.77,METAR KLGA 311600Z 05007KT 4SM FUDZ CLR 33/21 A3018 RMK VALGA8/20 8/24 SLP220 T03330211,NA
LGA,1973-08-31T17:00:00Z,-73.8803,40.7794,91.9,68,45.69,50,8,NA,30.17,NA,4,NA,   ,   ,   ,   ,NA,NA,NA,NA,NA,NA,NA,NA,NA,NA,NA,96.13,METAR KLGA 311700Z 05008KT 4SM FUDZ SCT040 33/20 A3017 RMK VALGA8/20 8/24 SLP217 T03330200,NA
LGA,1973-08-31T18:00:00Z,-73.8803,40.7794,93,69.1,45.85,180,6,NA,30.17,NA,4,NA,   ,   ,   ,   ,NA,NA,NA,NA,NA,NA,NA,NA,NA,NA,NA,98.32,METAR KLGA 311800Z 18006KT 4SM FUDZ SCT040 34/21 A3017 RMK VALGA8/20 8/24 SLP217 T03390206,NA
LGA,1973-08-31T19:00:00Z,-73.8803,40.7794,93.9,68,42.93,160,11.04,NA,30.14,NA,4,NA,   ,   ,   ,   ,NA,NA,NA,NA,NA,NA,NA,NA,NA,NA,NA,98.5,METAR KLGA 311900Z 16011KT 4SM FUDZ SCT040 34/20 A3014 RMK VALGA8/20 8/24 SLP207 T03440200,NA
LGA,1973-08-31T20:00:00Z,-73.8803,40.7794,91.9,66.9,43.99,180,12,NA,30.12,NA,4,NA,   ,   ,   ,   ,NA,NA,NA,NA,NA,NA,NA,NA,NA,NA,NA,95.33,METAR KLGA 312000Z 17012KT 4SM FUDZ SCT040 33/19 A3012 RMK VALGA8/20 8/24 SLP200 T03330194,NA
LGA,1973-08-31T21:00:00Z,-73.8803,40.7794,91,68,46.99,180,12,NA,30.13,NA,4,NA,   ,   ,   ,   ,NA,NA,NA,NA,NA,NA,NA,NA,NA,NA,NA,95.08,METAR KLGA 312100Z 18012KT 4SM FUDZ OVC/// 33/20 A3013 RMK HK2/VA/ 514LGA8/20 8/24 SLP203 T03280200,NA
LGA,1973-08-31T22:00:00Z,-73.8803,40.7794,88.9,68,50.2,200,14,NA,30.14,NA,4,NA,   ,   ,   ,   ,NA,NA,NA,NA,NA,NA,NA,NA,NA,NA,NA,92.67,METAR KLGA 312200Z 20014KT 4SM FUDZ OVC/// SCT250 32/20 A3014 RMK HK2/VALGAIXWP IXWR SLP207 T03160200,NA
LGA,1973-08-31T23:00:00Z,-73.8803,40.7794,88,66.9,49.73,200,12,0.22,30.15,NA,4,NA,   ,   ,   ,   ,NA,NA,NA,NA,NA,NA,NA,NA,NA,NA,NA,90.95,METAR KLGA 312300Z 20012KT 4SM FUDZ OVC/// BKN250 31/19 A3015 RMK HK4/TCU NWLGA8/20 8/24 SLP210 P0022 T03110194,NA
LGA,1973-08-31T23:01:00Z,-73.8803,40.7794,NA,NA,NA,300,19,NA,30.19,NA,2,28,BKN,BKN,NA,NA,4400,24600,NA,NA,NA,NA,NA,NA,NA,NA,NA,NA,KLGA 312301Z AUTO 30019G28KT 2SM BKN044 BKN246 A3019 RMK IEM_DS3505,NA
LGA,1973-08-31T23:06:00Z,-73.8803,40.7794,NA,NA,NA,310,23,NA,30.21,NA,2,NA,BKN,BKN,NA,NA,4400,24600,NA,NA,NA,NA,NA,NA,NA,NA,NA,NA,KLGA 312306Z AUTO 31023KT 2SM BKN044 BKN246 A3021 RMK IEM_DS3505,NA
LGA,1973-08-31T23:24:00Z,-73.8803,40.7794,NA,NA,NA,320,21,NA,30.2,NA,4,NA,BKN,BKN,NA,NA,4400,24600,NA,NA,NA,NA,NA,NA,NA,NA,NA,NA,KLGA 312324Z AUTO 32021KT 4SM BKN044 BKN246 A3020 RMK IEM_DS3505,NA
LGA,1973-09-01T00:00:00Z,-73.8803,40.7794,77,64.04,64.3,310,16,NA,30.21,1023,7,NA,SCT,OVC,CLR,CLR,4400,9800,NA,NA,NA,NA,NA,NA,NA,NA,NA,77,KLGA 010000Z AUTO 31016KT 7SM SCT044 OVC098 CLR CLR 25/18 A3021 RMK 60024 70024 SLP230 T02500178 53027 IEM_DS3505,NA
LGA,1973-09-01T01:00:00Z,-73.8803,40.7794,78.98,63.86,59.86,340,11,NA,30.21,1023,10,NA,SCT,OVC,NA,NA,4400,9800,NA,NA,NA,NA,NA,NA,NA,NA,NA,78.98,KLGA 010100Z AUTO 34011KT 10SM SCT044 OVC098 26/18 A3021 RMK SLP230 T02610177 IEM_DS3505,NA
LGA,1973-09-01T02:00:00Z,-73.8803,40.7794,77,62.96,61.91,120,9,NA,30.18,1022,10,NA,SCT,BKN,NA,NA,9800,24600,NA,NA,NA,NA,NA,NA,NA,NA,NA,77,KLGA 010200Z AUTO 12009KT 10SM SCT098 BKN246 25/17 A3018 RMK SLP220 T02500172 IEM_DS3505,NA
LGA,1973-09-01T03:00:00Z,-73.8803,40.7794,75.92,62.96,64.17,110,7,NA,30.2,1022.7,9,NA,SCT,BKN,CLR,CLR,4900,9800,NA,NA,NA,NA,NA,NA,NA,NA,NA,75.92,KLGA 010300Z AUTO 11007KT 9SM SCT049 BKN098 CLR CLR 24/17 A3020 RMK SLP227 T02440172 55003 IEM_DS3505,NA
LGA,1973-09-01T04:00:00Z,-73.8803,40.7794,74.84,64.94,71.31,340,4,NA,30.19,1022.4,8,NA,BKN,   ,   ,   ,10000,NA,NA,NA,NA,NA,NA,NA,NA,NA,NA,74.84,METAR KLGA 010400Z 34004KT 8SM BKN100 24/18 A3019 RMK LGA8/20 8/24 SLP224 T02380183,NA
LGA,1973-09-01T05:00:00Z,-73.8803,40.7794,75.92,64.94,68.78,0,0,NA,30.2,1022.7,7,NA,OVC,   ,   ,   ,10000,NA,NA,NA,NA,NA,NA,NA,NA,NA,NA,75.92,METAR KLGA 010500Z 00000KT 7SM OVC100 24/18 A3020 RMK LGA8/20 8/24 SLP227 T02440183,NA
LGA,1973-09-01T06:00:00Z,-73.8803,40.7794,75.02,64.94,70.88,0,0,NA,30.21,1023,7,NA,OVC,   ,   ,   ,10000,NA,NA,NA,NA,NA,NA,NA,NA,NA,NA,75.02,METAR KLGA 010600Z 00000KT 7SM OVC100 24/18 A3021 RMK LGA8/20 8/24 SLP230 T02390183,NA
LGA,1973-09-01T07:00:00Z,-73.8803,40.7794,75.92,63.86,66.23,230,5,NA,30.21,1023,7,NA,BKN,   ,   ,   ,10000,NA,NA,NA,NA,NA,NA,NA,NA,NA,NA,75.92,METAR KLGA 010700Z 23005KT 7SM BKN100 24/18 A3021 RMK LGA8/20 8/24 SLP230 T02440177,NA
LGA,1973-09-01T08:00:00Z,-73.8803,40.7794,73.94,64.94,73.49,270,4,NA,30.21,1023,7,NA,SCT,   ,   ,   ,10000,NA,NA,NA,NA,NA,NA,NA,NA,NA,NA,73.94,METAR KLGA 010800Z 27004KT 7SM SCT100 23/18 A3021 RMK LGA8/20 8/24 SLP230 T02330183,NA
LGA,1973-09-01T09:00:00Z,-73.8803,40.7794,73.94,64.04,71.22,240,4,NA,30.22,1023.4,7,NA,SCT,   ,   ,   ,10000,NA,NA,NA,NA,NA,NA,NA,NA,NA,NA,73.94,METAR KLGA 010900Z 24004KT 7SM SCT100 23/18 A3022 RMK / 1030LGA8/20 8/24 SLP234 T02330178 53003,NA
LGA,1973-09-01T10:00:00Z,-73.8803,40.7794,73.94,64.94,73.49,260,4,NA,30.24,1024,6,NA,SCT,   ,   ,   ,10000,NA,NA,NA,DZ,NA,NA,NA,NA,NA,NA,73.94,METAR KLGA 011000Z 26004KT 6SM DZ SCT100 23/18 A3024 RMK LGA8/20 8/24 SLP240 T02330183,NA
LGA,1973-09-01T11:00:00Z,-73.8803,40.7794,73.94,62.96,68.57,310,5,NA,30.25,1024.4,7,NA,SCT,BKN,   ,   ,10000,25000,NA,NA,NA,NA,NA,NA,NA,NA,NA,73.94,METAR KLGA 011100Z 31005KT 7SM SCT100 BKN250 23/17 A3025 RMK LGA8/20 8/24 SLP244 T02330172,NA
LGA,1973-09-01T12:00:00Z,-73.8803,40.7794,75.92,64.04,66.65,260,5,NA,30.25,1024.4,7,NA,BKN,   ,   ,   ,22000,NA,NA,NA,NA,NA,NA,NA,NA,NA,NA,75.92,METAR KLGA 011200Z 26005KT 7SM BKN220 24/18 A3025 RMK VALGA8/20 8/24 SLP244 70024 T02440178,NA
LGA,1973-09-01T13:00:00Z,-73.8803,40.7794,79.88,63.86,58.11,310,6,NA,30.25,1024.4,8,NA,CLR,   ,   ,   ,NA,NA,NA,NA,NA,NA,NA,NA,NA,NA,NA,81.48,METAR KLGA 011300Z 31006KT 8SM CLR 27/18 A3025 RMK VALGA C8/248/20 SLP244 T02660177,NA
LGA,1973-09-01T14:00:00Z,-73.8803,40.7794,81.86,61.88,50.81,320,6,NA,30.25,1024.4,7,NA,SCT,   ,   ,   ,25000,NA,NA,NA,NA,NA,NA,NA,NA,NA,NA,82.74,METAR KLGA 011400Z 32006KT 7SM SCT250 28/17 A3025 RMK VALGA8/20 SLP244 T02770166,NA
LGA,1973-09-01T15:00:00Z,-73.8803,40.7794,84.02,64.04,51.12,290,7,NA,30.24,1024,7,NA,BKN,   ,   ,   ,25000,NA,NA,NA,NA,NA,NA,NA,NA,NA,NA,85.4,METAR KLGA 011500Z 29007KT 7SM BKN250 29/18 A3024 RMK / VALGA8/20 SLP240 8/006 T02890178 58003,NA
LGA,1973-09-01T16:00:00Z,-73.8803,40.7794,86.9,65.84,49.64,290,7,NA,30.23,1023.7,7,NA,BKN,   ,   ,   ,25000,NA,NA,NA,NA,NA,NA,NA,NA,NA,NA,89.14,METAR KLGA 011600Z 29007KT 7SM BKN250 31/19 A3023 RMK LGA8/20 SLP237 T03050188,NA
LGA,1973-09-01T17:00:00Z,-73.8803,40.7794,87.98,69.98,55.31,300,8,NA,30.23,1023.4,5,NA,BKN,   ,   ,   ,25000,NA,NA,NA,DZ,NA,NA,NA,NA,NA,NA,93.07,METAR KLGA 011700Z 30008KT 5SM DZ BKN250 31/21 A3023 RMK VLGA8/20 SLP234 T03110211,NA
LGA,1973-09-01T18:00:00Z,-73.8803,40.7794,89.96,71.06,53.91,320,8,NA,30.21,1023,5,NA,FEW,   ,   ,   ,25000,NA,NA,NA,DZ,NA,NA,NA,NA,NA,NA,96.36,METAR KLGA 011800Z 32008KT 5SM DZ FEW250 32/22 A3021 RMK LGA8/20 SLP230 T03220217,NA
LGA,1973-09-01T19:00:00Z,-73.8803,40.7794,90.86,69.98,50.51,270,9,NA,30.18,1022,5,NA,SCT,   ,   ,   ,25000,NA,NA,NA,DZ,NA,NA,NA,NA,NA,NA,96.5,METAR KLGA 011900Z 27009KT 5SM DZ SCT250 33/21 A3018 RMK LGA8/20 VA SLP220 T03270211,NA
LGA,1973-09-01T20:00:00Z,-73.8803,40.7794,90.86,69.98,50.51,330,5,NA,30.16,1021.3,5,NA,SCT,   ,   ,   ,4500,NA,NA,NA,DZ,NA,NA,NA,NA,NA,NA,96.5,METAR KLGA 012000Z 33005KT 5SM DZ SCT045 33/21 A3016 RMK VALGA8/20 SLP213 T03270211,NA
LGA,1973-09-01T21:00:00Z,-73.8803,40.7794,87.08,69.08,55.19,130,10,NA,30.16,1021.3,6,NA,BKN,   ,   ,   ,4500,NA,NA,NA,DZ,NA,NA,NA,NA,NA,NA,91.35,METAR KLGA 012100Z 13010KT 6SM DZ BKN045 31/21 A3016 RMK TCU NW/ 7 1200LGA8/20 SLP213 T03060206,NA
LGA,1973-09-01T21:23:00Z,-73.8803,40.7794,NA,NA,NA,200,7,NA,30.17,NA,6,NA,BKN,NA,NA,NA,3900,NA,NA,NA,NA,NA,NA,NA,NA,NA,NA,NA,KLGA 012123Z AUTO 20007KT 6SM BKN039 A3017 RMK IEM_DS3505,NA
LGA,1973-09-01T22:00:00Z,-73.8803,40.7794,80.96,73.94,79.27,260,10,0.03,30.18,1022,3,NA,BKN,   ,   ,   ,3500,NA,NA,NA,TSRA DZ,NA,NA,NA,NA,NA,NA,86.2,METAR KLGA 012200Z 26010KT 3SM TSRA DZ BKN035 27/23 A3018 RMK TB21/T NW MOVG E OCNL LTGCG NW/PK WND 48/RB27LGA8/20 SLP220 P0003 76/12 T02720233 5206/,NA
LGA,1973-09-01T23:00:00Z,-73.8803,40.7794,77,71.96,84.46,360,5,0.05,30.17,1021.7,2.5,NA,BKN,OVC,   ,   ,3500,25000,NA,NA,-SHRA DZ,NA,NA,NA,NA,NA,NA,78.37,METAR KLGA 012300Z 36005KT 21/2SM -SHRA DZ BKN035 OVC250 25/22 A3017 RMK TE44 MOVD E/PK WND 31/1 2 SLP217 P0005 T02500222,NA
LGA,1973-09-01T23:07:00Z,-73.8803,40.7794,NA,NA,NA,20,3,NA,30.17,NA,4,NA,BKN,OVC,NA,NA,3400,24600,NA,NA,NA,NA,NA,NA,NA,NA,NA,NA,KLGA 012307Z AUTO 02003KT 4SM BKN034 OVC246 A3017 RMK IEM_DS3505,NA
LGA,1973-09-02T00:00:00Z,-73.8803,40.7794,77,71.96,84.46,80,5,NA,30.18,1022,4,NA,OVC,   ,   ,   ,25000,NA,NA,NA,DZ,NA,NA,NA,NA,NA,NA,78.37,METAR KLGA 020000Z 08005KT 4SM DZ OVC250 25/22 A3018 RMK RE10LGA8/20 SLP220 60008 T02500222,NA
LGA,1973-09-02T01:00:00Z,-73.8803,40.7794,77.9,72.86,84.51,280,4,NA,30.19,1022.4,4,NA,SCT,SCT,   ,   ,3500,25000,NA,NA,DZ,NA,NA,NA,NA,NA,NA,80.19,METAR KLGA 020100Z 28004KT 4SM DZ SCT035 SCT250 25/23 A3019 RMK LGA8/20 SLP224 T02550227,NA
LGA,1973-09-02T02:00:00Z,-73.8803,40.7794,77,72.86,87.07,290,4,NA,30.19,1022.4,4,NA,SCT,BKN,   ,   ,4000,25000,NA,NA,DZ,NA,NA,NA,NA,NA,NA,78.49,METAR KLGA 020200Z 29004KT 4SM DZ SCT040 BKN250 25/23 A3019 RMK LGA8/20 SLP224 T02500227,NA
LGA,1973-09-02T03:00:00Z,-73.8803,40.7794,77,73.94,90.29,270,4,NA,30.19,1022.4,4,NA,BKN,   ,   ,   ,25000,NA,NA,NA,DZ,NA,NA,NA,NA,NA,NA,78.64,METAR KLGA 020300Z 27004KT 4SM DZ BKN250 25/23 A3019 RMK / 1008LGA8/20 SLP224 T02500233 51003,NA
LGA,1973-09-02T04:00:00Z,-73.8803,40.7794,78.98,73.94,84.58,40,5,NA,30.2,1022.7,4,NA,BKN,   ,   ,   ,25000,NA,NA,NA,DZ,NA,NA,NA,NA,NA,NA,82.5,METAR KLGA 020400Z 04005KT 4SM DZ BKN250 26/23 A3020 RMK LGA8/20 SLP227 T02610233,NA
LGA,1973-09-02T06:00:00Z,-73.8803,40.7794,78.08,73.04,84.53,300,6,NA,30.18,1022.4,4,NA,CLR,   ,   ,   ,NA,NA,NA,NA,DZ,NA,NA,NA,NA,NA,NA,80.56,METAR KLGA 020600Z 30006KT 4SM DZ CLR 26/23 A3018 RMK SLP224 T02560228,NA
LGA,1973-09-02T07:00:00Z,-73.8803,40.7794,75.92,72.86,90.25,40,4,NA,30.19,1022.4,4,NA,OVC,   ,   ,   ,NA,NA,NA,NA,DZ,NA,NA,NA,NA,NA,NA,77.45,METAR KLGA 020700Z 04004KT 4SM DZ OVC/// 24/23 A3019 RMK H3LGA8/20 SLP224 T02440227,NA
LGA,1973-09-02T08:00:00Z,-73.8803,40.7794,74.84,71.96,90.76,50,5,NA,30.19,1022.4,4,NA,OVC,   ,   ,   ,NA,NA,NA,NA,DZ,NA,NA,NA,NA,NA,NA,76.29,METAR KLGA 020800Z 05005KT 4SM DZ OVC/// 24/22 A3019 RMK / H2LGA8/20 SLP224 T02380222,NA
LGA,1973-09-02T09:00:00Z,-73.8803,40.7794,75.02,71.96,90.22,40,5,NA,30.18,1022,4,NA,OVC,   ,   ,   ,NA,NA,NA,NA,DZ,NA,NA,NA,NA,NA,NA,76.46,METAR KLGA 020900Z 04005KT 4SM DZ OVC/// 24/22 A3018 RMK / H2 / 802LGA8/20 SLP220 T02390222,NA
LGA,1973-09-02T10:00:00Z,-73.8803,40.7794,74.84,71.96,90.76,40,4,NA,30.19,1022.4,4,NA,OVC,   ,   ,   ,NA,NA,NA,NA,DZ,NA,NA,NA,NA,NA,NA,76.29,METAR KLGA 021000Z 04004KT 4SM DZ OVC/// 24/22 A3019 RMK H3LGA8/20 SLP224 T02380222,NA
LGA,1973-09-02T11:00:00Z,-73.8803,40.7794,74.84,71.96,90.76,70,3,NA,30.2,1022.7,4,NA,OVC,   ,   ,   ,NA,NA,NA,NA,DZ,NA,NA,NA,NA,NA,NA,76.29,METAR KLGA 021100Z 07003KT 4SM DZ OVC/// 24/22 A3020 RMK H3LGA8/20 SLP227 T02380222,NA
LGA,1973-09-02T12:00:00Z,-73.8803,40.7794,77,71.96,84.46,50,4,NA,30.21,1023,4,NA,OVC,   ,   ,   ,NA,NA,NA,NA,DZ,NA,NA,NA,NA,NA,NA,78.37,METAR KLGA 021200Z 05004KT 4SM DZ OVC/// 25/22 A3021 RMK H3LGA C9/18/20 SLP230 70008 T02500222,NA
LGA,1973-09-02T13:00:00Z,-73.8803,40.7794,78.98,71.96,79.12,60,3,NA,30.21,1023,4,NA,OVC,   ,   ,   ,NA,NA,NA,NA,DZ,NA,NA,NA,NA,NA,NA,82.08,METAR KLGA 021300Z 06003KT 4SM DZ OVC/// 26/22 A3021 RMK LGA8/20 SLP230 T02610222,NA
LGA,1973-09-02T14:00:00Z,-73.8803,40.7794,81.86,71.96,72.01,40,5,NA,30.22,1023.4,4,NA,OVC,   ,   ,   ,NA,NA,NA,NA,DZ,NA,NA,NA,NA,NA,NA,86.6,METAR KLGA 021400Z 04005KT 4SM DZ OVC/// 28/22 A3022 RMK H3LGA8/20 SLP234 T02770222,NA
LGA,1973-09-02T15:00:00Z,-73.8803,40.7794,84.92,71.96,65.23,10,5,NA,30.22,1023.4,4,NA,OVC,BKN,   ,   ,NA,NA,NA,NA,DZ,NA,NA,NA,NA,NA,NA,90.81,METAR KLGA 021500Z 01005KT 4SM DZ OVC/// BKN/// 29/22 A//// RMK SLP234 T02940222,NA
LGA,1973-09-02T16:00:00Z,-73.8803,40.7794,87.98,70.88,57.04,300,3,NA,30.21,1023,5,NA,OVC,BKN,   ,   ,NA,25000,NA,NA,DZ,NA,NA,NA,NA,NA,NA,93.79,METAR KLGA 021600Z 30003KT 5SM DZ OVC/// BKN250 31/22 A3021 RMK H2 VALGA8/20 SLP230 T03110216,NA
LGA,1973-09-02T17:00:00Z,-73.8803,40.7794,90.86,69.98,50.51,40,8,NA,30.19,1022.4,5,NA,OVC,SCT,BKN,   ,NA,4500,9000,NA,DZ,NA,NA,NA,NA,NA,NA,96.5,METAR KLGA 021700Z 04008KT 5SM DZ OVC/// SCT045 BKN090 33/21 A3019 RMK H1 VALGA8/20 SLP224 T03270211,NA
LGA,1973-09-02T18:00:00Z,-73.8803,40.7794,91.04,69.08,48.71,60,7,NA,30.17,1021.7,5,NA,OVC,SCT,SCT,   ,NA,4500,10000,NA,DZ,NA,NA,NA,NA,NA,NA,95.97,METAR KLGA 021800Z 06007KT 5SM DZ OVC/// SCT045 SCT100 33/21 A3017 RMK H1 VALGA8/20 SLP217 T03280206,NA
LGA,1973-09-02T19:00:00Z,-73.8803,40.7794,91.94,68,45.63,40,8,NA,30.14,1020.7,6,NA,OVC,SCT,   ,   ,NA,5000,NA,NA,DZ,NA,NA,NA,NA,NA,NA,96.18,METAR KLGA 021900Z 04008KT 6SM DZ OVC/// SCT050 33/20 A3014 RMK H1 VALGA8/20 SLP207 T03330200,NA
LGA,1973-09-02T20:00:00Z,-73.8803,40.7794,91.94,68,45.63,70,8,NA,30.12,1020,6,NA,OVC,SCT,   ,   ,NA,5000,NA,NA,DZ,NA,NA,NA,NA,NA,NA,96.18,METAR KLGA 022000Z 07008KT 6SM DZ OVC/// SCT050 33/20 A3012 RMK H1LGA8/20 SLP200 T03330200,NA
LGA,1973-09-02T21:00:00Z,-73.8803,40.7794,91.94,68,45.63,60,6,NA,30.12,1020,7,NA,SCT,BKN,   ,   ,5000,25000,NA,NA,NA,NA,NA,NA,NA,NA,NA,96.18,METAR KLGA 022100Z 06006KT 7SM SCT050 BKN250 33/20 A3012 RMK / 7 1106LGA8/20 SLP200 T03330200,NA
LGA,1973-09-02T22:00:00Z,-73.8803,40.7794,89.96,68,48.55,70,6,NA,30.11,1019.6,7,NA,SCT,   ,   ,   ,25000,NA,NA,NA,NA,NA,NA,NA,NA,NA,NA,93.88,METAR KLGA 022200Z 07006KT 7SM SCT250 32/20 A3011 RMK LGA8/20 VA SLP196 T03220200,NA
LGA,1973-09-02T23:00:00Z,-73.8803,40.7794,87.98,68,51.68,20,5,NA,30.12,1020,7,NA,SCT,SCT,BKN,   ,5000,10000,25000,NA,NA,NA,NA,NA,NA,NA,NA,91.63,METAR KLGA 022300Z 02005KT 7SM SCT050 SCT100 BKN250 31/20 A3012 RMK TCU NWLGA8/20 SLP200 T03110200,NA
LGA,1973-09-03T00:00:00Z,-73.8803,40.7794,87.98,68,51.68,80,7,NA,30.12,1020,5,NA,SCT,BKN,BKN,   ,5000,10000,25000,NA,DZ,NA,NA,NA,NA,NA,NA,91.63,METAR KLGA 030000Z 08007KT 5SM DZ SCT050 BKN100 BKN250 31/20 A3012 RMK LGA8/20 SLP200 T03110200,NA
LGA,1973-09-03T01:00:00Z,-73.8803,40.7794,84.92,68.9,58.77,190,7,NA,30.12,1020,6,NA,BKN,BKN,   ,   ,10000,25000,NA,NA,DZ,NA,NA,NA,NA,NA,NA,88.73,METAR KLGA 030100Z 19007KT 6SM DZ BKN100 BKN250 29/20 A3012 RMK LGA8/20 SLP200 T02940205,NA
LGA,1973-09-03T02:00:00Z,-73.8803,40.7794,82.94,66.92,58.51,180,10,NA,30.12,1020,6,NA,SCT,BKN,   ,   ,10000,25000,NA,NA,DZ,NA,NA,NA,NA,NA,NA,85.5,METAR KLGA 030200Z 18010KT 6SM DZ SCT100 BKN250 28/19 A3012 RMK LGA8/20 SLP200 T02830194,NA
LGA,1973-09-03T03:00:00Z,-73.8803,40.7794,80.96,69.98,69.32,190,9,NA,30.12,1020,4,NA,SCT,BKN,   ,   ,4000,20000,NA,NA,DZ,NA,NA,NA,NA,NA,NA,84.44,METAR KLGA 030300Z 19009KT 4SM DZ SCT040 BKN200 27/21 A3012 RMK / 1502LGA8/20 SLP200 T02720211 54000,NA
LGA,1973-09-03T04:00:00Z,-73.8803,40.7794,81.86,61.88,50.81,130,8,NA,30.13,1020.3,4,NA,SCT,BKN,   ,   ,4000,20000,NA,NA,DZ,NA,NA,NA,NA,NA,NA,82.74,METAR KLGA 030400Z 13008KT 4SM DZ SCT040 BKN200 28/17 A3013 RMK %V8/20 SLP203 T02770166,NA
LGA,1973-09-03T05:00:00Z,-73.8803,40.7794,80.96,70.88,71.48,230,6,NA,30.13,1020.3,4,NA,OVC,OVC,   ,   ,NA,20000,NA,NA,DZ,NA,NA,NA,NA,NA,NA,84.81,METAR KLGA 030500Z 23006KT 4SM DZ OVC/// OVC200 27/22 A3013 RMK H3LGA8/20 SLP203 T02720216,NA
LGA,1973-09-03T06:00:00Z,-73.8803,40.7794,80.96,71.06,71.92,230,7,NA,30.11,1020,4,NA,OVC,   ,   ,   ,NA,NA,NA,NA,DZ,NA,NA,NA,NA,NA,NA,84.88,METAR KLGA 030600Z 23007KT 4SM DZ OVC/// 27/22 A3011 RMK SLP200 T02720217,NA
LGA,1973-09-03T07:00:00Z,-73.8803,40.7794,78.98,71.96,79.12,240,3,NA,30.12,1020,4,NA,OVC,   ,   ,   ,NA,NA,NA,NA,DZ,NA,NA,NA,NA,NA,NA,82.08,METAR KLGA 030700Z 24003KT 4SM DZ OVC/// 26/22 A3012 RMK LGA8/20 SLP200 T02610222,NA
LGA,1973-09-03T08:00:00Z,-73.8803,40.7794,78.98,72.86,81.56,300,4,NA,30.1,1019.3,3,NA,OVC,   ,   ,   ,NA,NA,NA,NA,DZ,NA,NA,NA,NA,NA,NA,82.27,METAR KLGA 030800Z 30004KT 3SM DZ OVC/// 26/23 A3010 RMK H5LGA8/20 SLP193 T02610227,NA
LGA,1973-09-03T09:00:00Z,-73.8803,40.7794,77,73.04,87.6,60,5,NA,30.11,1019.6,3,NA,OVC,OVC,   ,   ,NA,9000,NA,NA,DZ,NA,NA,NA,NA,NA,NA,78.52,METAR KLGA 030900Z 06005KT 3SM DZ OVC/// OVC090 25/23 A3011 RMK H5 BINOVCLGA8/20 SLP196 T02500228,NA
LGA,1973-09-03T11:00:00Z,-73.8803,40.7794,75.9,73.9,93.53,70,5.04,NA,30.14,NA,5.5,NA,   ,   ,   ,   ,NA,NA,NA,NA,NA,NA,NA,NA,NA,NA,NA,77.59,METAR KLGA 031100Z 06005KT 11/2SM MIBCFGDZ OVC/// BKN050 OVC080 24/23 A3014 RMK / FH6 BINOVCLGA8/20 SLP207 T02440233,NA
LGA,1973-09-03T12:00:00Z,-73.8803,40.7794,75.9,73.9,93.53,NA,0,NA,30.14,NA,5.5,NA,   ,   ,   ,   ,NA,NA,NA,NA,NA,NA,NA,NA,NA,NA,NA,77.59,METAR KLGA 031200Z 00000KT 11/2SM FGDZ OVC/// BKN/// BKN/// 24/23 A3014 RMK SLP207 T02440233,NA
LGA,1973-09-03T13:00:00Z,-73.8803,40.7794,78.98,73.94,84.58,320,6,NA,30.13,1020.3,1.5,NA,OVC,SCT,   ,   ,NA,8000,NA,NA,DZ,NA,NA,NA,NA,NA,NA,82.5,METAR KLGA 031300Z 32006KT 11/2SM DZ OVC/// SCT080 26/23 A3013 RMK H4LGA8/20 SLP203 T02610233,NA
LGA,1973-09-03T13:23:00Z,-73.8803,40.7794,NA,NA,NA,60,5,NA,30.13,NA,2,NA,SCT,NA,NA,NA,9800,NA,NA,NA,NA,NA,NA,NA,NA,NA,NA,NA,KLGA 031323Z AUTO 06005KT 2SM POB000 SCT098 A3013 RMK IEM_DS3505,NA
LGA,1973-09-03T14:00:00Z,-73.8803,40.7794,83.84,71.96,67.54,50,5,NA,30.13,1020.3,2,NA,OVC,SCT,   ,   ,NA,10000,NA,NA,DZ,NA,NA,NA,NA,NA,NA,89.37,METAR KLGA 031400Z 05005KT 2SM DZ OVC/// SCT100 29/22 A3013 RMK H3LGA8/20 SLP203 T02880222,NA
LGA,1973-09-03T15:00:00Z,-73.8803,40.7794,86,73.04,65.35,60,5,NA,30.12,1020,2,NA,OVC,SCT,SCT,   ,NA,3000,10000,NA,DZ,NA,NA,NA,NA,NA,NA,93.13,METAR KLGA 031500Z 06005KT 2SM DZ OVC/// SCT030 SCT100 30/23 A3012 RMK H3/ 1130LGA8/20 SLP200 T03000228 58007,NA
LGA,1973-09-03T16:00:00Z,-73.8803,40.7794,88.88,71.96,57.5,30,8,NA,30.11,1019.6,4,NA,OVC,SCT,   ,   ,NA,4000,NA,NA,DZ,NA,NA,NA,NA,NA,NA,95.85,METAR KLGA 031600Z 03008KT 4SM DZ OVC/// SCT040 32/22 A3011 RMK H3 TWR VSBY 3 LGA8/20 SLP196 T03160222,NA
LGA,1973-09-03T17:00:00Z,-73.8803,40.7794,90.86,68,47.2,60,6,NA,30.1,1019.3,4,NA,OVC,SCT,   ,   ,NA,4000,NA,NA,DZ,NA,NA,NA,NA,NA,NA,94.92,METAR KLGA 031700Z 06006KT 4SM DZ OVC/// SCT040 33/20 A3010 RMK H3LGA8/20 SLP193 T03270200,NA
LGA,1973-09-03T18:00:00Z,-73.8803,40.7794,91.94,69.08,47.36,60,5,NA,30.1,1019.3,4,NA,SCT,   ,   ,   ,4000,NA,NA,NA,DZ,NA,NA,NA,NA,NA,NA,97.03,METAR KLGA 031800Z 06005KT 4SM DZ SCT040 33/21 A3010 RMK LGA8/20 SLP193 T03330206,NA
LGA,1973-09-03T19:00:00Z,-73.8803,40.7794,80.96,74.84,81.7,360,4,0.04,30.08,1018.6,6,NA,SCT,   ,   ,   ,4000,NA,NA,NA,DZ,NA,NA,NA,NA,NA,NA,86.67,METAR KLGA 031900Z 36004KT 6SM DZ SCT040 27/24 A3008 RMK RB13E30LGA8/20 SLP186 P0004 T02720238,NA
LGA,1973-09-03T20:00:00Z,-73.8803,40.7794,84.92,72.86,67.25,240,5,NA,30.06,1018,6,NA,SCT,SCT,   ,   ,4000,25000,NA,NA,DZ,NA,NA,NA,NA,NA,NA,91.51,METAR KLGA 032000Z 24005KT 6SM DZ SCT040 SCT250 29/23 A3006 RMK LGA8/20 SLP180 T02940227,NA
LGA,1973-09-03T21:00:00Z,-73.8803,40.7794,87.98,71.96,59.16,240,6,NA,30.04,1017.3,6,NA,SCT,SCT,   ,   ,4000,25000,NA,NA,DZ,NA,NA,NA,NA,NA,NA,94.73,METAR KLGA 032100Z 24006KT 6SM DZ SCT040 SCT250 31/22 A3004 RMK / 1202LGA8/20 SLP173 T03110222 57020,NA
LGA,1973-09-03T22:00:00Z,-73.8803,40.7794,86.9,70.88,59.03,190,14,NA,30.05,1017.6,6,NA,SCT,SCT,   ,   ,4000,25000,NA,NA,DZ,NA,NA,NA,NA,NA,NA,92.47,METAR KLGA 032200Z 19014KT 6SM DZ SCT040 SCT250 31/22 A3005 RMK LGA8/20 SLP176 T03050216,NA
LGA,1973-09-03T23:00:00Z,-73.8803,40.7794,82.94,70.88,67.03,210,8,NA,30.05,1017.6,4,NA,SCT,SCT,   ,   ,4000,25000,NA,NA,DZ,NA,NA,NA,NA,NA,NA,87.49,METAR KLGA 032300Z 21008KT 4SM DZ SCT040 SCT250 28/22 A3005 RMK LGA8/20 SLP176 T02830216,NA
LGA,1973-09-04T00:00:00Z,-73.8803,40.7794,82.04,71.96,71.59,220,8,NA,30.06,1018,4,NA,SCT,SCT,   ,   ,4000,25000,NA,NA,DZ,NA,NA,NA,NA,NA,NA,86.87,METAR KLGA 040000Z 22008KT 4SM DZ SCT040 SCT250 28/22 A3006 RMK OCNL LTGIC N SFC VSBY 4LGA8/20 SLP180 60004 T02780222,NA
LGA,1973-09-04T01:00:00Z,-73.8803,40.7794,80.96,70.88,71.48,310,7,NA,30.09,1019,4,NA,SCT,BKN,   ,   ,5000,25000,NA,NA,DZ,NA,NA,NA,NA,NA,NA,84.81,METAR KLGA 040100Z 31007KT 4SM DZ SCT050 BKN250 27/22 A3009 RMK TWR VSBY 3LGA8/20 SLP190 T02720216,NA
LGA,1973-09-04T02:00:00Z,-73.8803,40.7794,79.88,71.96,76.81,300,6,NA,30.08,1018.6,5,NA,SCT,   ,   ,   ,25000,NA,NA,NA,DZ,NA,NA,NA,NA,NA,NA,83.58,METAR KLGA 040200Z 30006KT 5SM DZ SCT250 27/22 A3008 RMK VALGA8/20 SLP186 T02660222,NA
LGA,1973-09-04T03:00:00Z,-73.8803,40.7794,80.06,69.98,71.39,280,7,NA,30.07,1018.3,5,NA,SCT,   ,   ,   ,25000,NA,NA,NA,DZ,NA,NA,NA,NA,NA,NA,83.22,METAR KLGA 040300Z 28007KT 5SM DZ SCT250 27/21 A3007 RMK / 1001LGA8/20 SLP183 T02670211 50003,NA
LGA,1973-09-04T04:00:00Z,-73.8803,40.7794,79.88,69.98,71.81,270,5,NA,30.08,1018.6,5,NA,SCT,   ,   ,   ,25000,NA,NA,NA,DZ,NA,NA,NA,NA,NA,NA,82.97,METAR KLGA 040400Z 27005KT 5SM DZ SCT250 27/21 A3008 RMK LGA8/20 SLP186 T02660211,NA
LGA,1973-09-04T05:00:00Z,-73.8803,40.7794,78.98,68.9,71.28,250,4,NA,30.08,1018.6,7,NA,SCT,SCT,   ,   ,10000,20000,NA,NA,NA,NA,NA,NA,NA,NA,NA,81.49,METAR KLGA 040500Z 25004KT 7SM SCT100 SCT200 26/20 A3008 RMK LGA8/20 SLP186 T02610205,NA
LGA,1973-09-04T06:00:00Z,-73.8803,40.7794,78.98,69.08,71.72,280,4,NA,30.07,1018.3,7,NA,CLR,   ,   ,   ,NA,NA,NA,NA,NA,NA,NA,NA,NA,NA,NA,81.52,METAR KLGA 040600Z 28004KT 7SM CLR 26/21 A3007 RMK LGA8/20 SLP183 T02610206,NA
LGA,1973-09-04T07:00:00Z,-73.8803,40.7794,77,69.98,78.96,210,4,NA,30.06,1018,6,NA,CLR,   ,   ,   ,NA,NA,NA,NA,DZ,NA,NA,NA,NA,NA,NA,78.11,METAR KLGA 040700Z 21004KT 6SM DZ CLR 25/21 A3006 RMK LGA8/20 SLP180 T02500211,NA
LGA,1973-09-04T08:00:00Z,-73.8803,40.7794,74.84,70.88,87.5,250,4,NA,30.05,1017.6,6,NA,CLR,   ,   ,   ,NA,NA,NA,NA,DZ,NA,NA,NA,NA,NA,NA,76.14,METAR KLGA 040800Z 25004KT 6SM DZ CLR 24/22 A3005 RMK LGA8/20 SLP176 T02380216,NA
LGA,1973-09-04T09:00:00Z,-73.8803,40.7794,75.92,69.08,79.37,240,4,NA,30.05,1017.6,6,NA,CLR,   ,   ,   ,NA,NA,NA,NA,DZ,NA,NA,NA,NA,NA,NA,76.94,METAR KLGA 040900Z 24004KT 6SM DZ CLR 24/21 A3005 RMK / 607LGA8/20 SLP176 T02440206,NA
LGA,1973-09-04T10:00:00Z,-73.8803,40.7794,75.92,69.98,81.85,290,4,NA,30.06,1018,6,NA,CLR,   ,   ,   ,NA,NA,NA,NA,DZ,NA,NA,NA,NA,NA,NA,77.06,METAR KLGA 041000Z 29004KT 6SM DZ CLR 24/21 A3006 RMK LGA8/20 SLP180 T02440211,NA
LGA,1973-09-04T12:00:00Z,-73.8803,40.7794,77,69.98,78.96,270,4,NA,30.08,1018.6,4,NA,CLR,   ,   ,   ,NA,NA,NA,NA,DZ,NA,NA,NA,NA,NA,NA,78.11,METAR KLGA 041200Z 27004KT 4SM DZ CLR 25/21 A3008 RMK VALGA8/20 SLP186 70004 T02500211,NA
LGA,1973-09-04T13:00:00Z,-73.8803,40.7794,79.88,70.88,74.05,310,3,NA,30.08,1018.6,4,NA,SCT,   ,   ,   ,25000,NA,NA,NA,DZ,NA,NA,NA,NA,NA,NA,83.24,METAR KLGA 041300Z 31003KT 4SM DZ SCT250 27/22 A3008 RMK VALGA8/20 SLP186 T02660216,NA
LGA,1973-09-04T14:00:00Z,-73.8803,40.7794,83.84,70.88,65.11,70,3,NA,30.09,1019,4,NA,CLR,   ,   ,   ,NA,NA,NA,NA,DZ,NA,NA,NA,NA,NA,NA,88.66,METAR KLGA 041400Z 07003KT 4SM DZ CLR 29/22 A3009 RMK FEW CU VALGA LOC/GP 22 OTS8/20 SLP190 T02880216 590/2,NA
LGA,1973-09-04T15:00:00Z,-73.8803,40.7794,86,71.06,61.12,20,4,NA,30.09,1019,4,NA,CLR,   ,   ,   ,NA,NA,NA,NA,DZ,NA,NA,NA,NA,NA,NA,91.5,METAR KLGA 041500Z 02004KT 4SM DZ CLR 30/22 A3009 RMK FEW CU /203 VALGA8/20 SLP190 8/100 T03000217,NA
LGA,1973-09-04T16:00:00Z,-73.8803,40.7794,87.98,70.88,57.04,20,6,NA,30.08,1018.6,5,NA,SCT,   ,   ,   ,4000,NA,NA,NA,DZ,NA,NA,NA,NA,NA,NA,93.79,METAR KLGA 041600Z 02006KT 5SM DZ SCT040 31/22 A3008 RMK VALGA8/20 SLP186 T03110216,NA
LGA,1973-09-04T17:00:00Z,-73.8803,40.7794,90.86,70.88,52.09,20,6,NA,30.06,1018,5,NA,SCT,   ,   ,   ,4500,NA,NA,NA,DZ,NA,NA,NA,NA,NA,NA,97.3,METAR KLGA 041700Z 02006KT 5SM DZ SCT045 33/22 A3006 RMK VALGA8/20 SLP180 T03270216,NA
LGA,1973-09-04T18:00:00Z,-73.8803,40.7794,91.94,69.98,48.84,60,5,NA,30.05,1017.6,6,NA,SCT,   ,   ,   ,5000,NA,NA,NA,DZ,NA,NA,NA,NA,NA,NA,97.8,METAR KLGA 041800Z 06005KT 6SM DZ SCT050 33/21 A3005 RMK TCU SE VALGA8/20 SLP176 60079 T03330211,NA
LGA,1973-09-04T19:00:00Z,-73.8803,40.7794,89.96,70.88,53.58,140,12,NA,30.03,1016.9,6,NA,SCT,SCT,   ,   ,5000,12000,NA,NA,DZ,NA,NA,NA,NA,NA,NA,96.2,METAR KLGA 041900Z 14012KT 6SM DZ SCT050 SCT120 32/22 A3003 RMK TCU W VALGA8/20 SLP169 T03220216,NA
LGA,1973-09-04T20:00:00Z,-73.8803,40.7794,89.96,69.98,51.96,180,8,NA,30.02,1016.6,6,NA,SCT,SCT,   ,   ,5000,12000,NA,NA,DZ,NA,NA,NA,NA,NA,NA,95.42,METAR KLGA 042000Z 18008KT 6SM DZ SCT050 SCT120 32/21 A3002 RMK TCU WLGA8/20 SLP166 T03220211,NA
LGA,1973-09-04T21:00:00Z,-73.8803,40.7794,87.08,71.06,59.05,170,10,NA,30.02,1016.6,6,NA,SCT,SCT,   ,   ,5000,20000,NA,NA,DZ,NA,NA,NA,NA,NA,NA,92.84,METAR KLGA 042100Z 17010KT 6SM DZ SCT050 SCT200 31/22 A3002 RMK TCU W 1202LGA8/20 SLP166 T03060217 56008,NA
LGA,1973-09-04T22:00:00Z,-73.8803,40.7794,84.92,71.96,65.23,200,8,NA,30.02,1016.6,4,NA,SCT,SCT,   ,   ,5000,20000,NA,NA,DZ,NA,NA,NA,NA,NA,NA,90.81,METAR KLGA 042200Z 20008KT 4SM DZ SCT050 SCT200 29/22 A3002 RMK DARK SE-SLGA8/20 SLP166 T02940222,NA
LGA,1973-09-04T23:00:00Z,-73.8803,40.7794,84.92,71.96,65.23,180,8,NA,30.03,1016.9,5,NA,SCT,   ,   ,   ,20000,NA,NA,NA,DZ,NA,NA,NA,NA,NA,NA,90.81,METAR KLGA 042300Z 18008KT 5SM DZ SCT200 29/22 A3003 RMK FEW CU ACLGA8/20 SLP169 T02940222,NA
LGA,1973-09-05T00:00:00Z,-73.8803,40.7794,82.94,73.04,72.11,160,7,NA,30.03,1016.9,5,NA,CLR,   ,   ,   ,NA,NA,NA,NA,DZ,NA,NA,NA,NA,NA,NA,88.84,METAR KLGA 050000Z 16007KT 5SM DZ CLR 28/23 A3003 RMK LGA C9/38/20 SLP169 T02830228,NA
LGA,1973-09-05T01:00:00Z,-73.8803,40.7794,81.86,73.94,76.98,190,8,NA,30.04,1017.3,5,NA,CLR,   ,   ,   ,NA,NA,NA,NA,DZ,NA,NA,NA,NA,NA,NA,87.73,METAR KLGA 050100Z 19008KT 5SM DZ CLR 28/23 A3004 RMK LGA8/20 SLP173 T02770233,NA
LGA,1973-09-05T02:00:00Z,-73.8803,40.7794,80.96,73.94,79.27,200,7,NA,30.05,1017.6,4,NA,CLR,   ,   ,   ,NA,NA,NA,NA,DZ,NA,NA,NA,NA,NA,NA,86.2,METAR KLGA 050200Z 20007KT 4SM DZ CLR 27/23 A3005 RMK VALGA8/20 SLP176 T02720233,NA
LGA,1973-09-05T03:00:00Z,-73.8803,40.7794,80.96,73.94,79.27,210,5,NA,30.05,1017.6,4,NA,CLR,   ,   ,   ,NA,NA,NA,NA,DZ,NA,NA,NA,NA,NA,NA,86.2,METAR KLGA 050300Z 21005KT 4SM DZ CLR 27/23 A3005 RMK / 107LGA8/20 SLP176 T02720233,NA
LGA,1973-09-05T04:00:00Z,-73.8803,40.7794,79.88,69.98,71.81,250,5,NA,30.05,1017.6,5,NA,CLR,   ,   ,   ,NA,NA,NA,NA,DZ,NA,NA,NA,NA,NA,NA,82.97,METAR KLGA 050400Z 25005KT 5SM DZ CLR 27/21 A3005 RMK LGA8/20 SLP176 T02660211,NA
LGA,1973-09-05T05:00:00Z,-73.8803,40.7794,80.96,69.98,69.32,220,8,NA,30.05,1017.6,5,NA,CLR,   ,   ,   ,NA,NA,NA,NA,DZ,NA,NA,NA,NA,NA,NA,84.44,METAR KLGA 050500Z 22008KT 5SM DZ CLR 27/21 A3005 RMK LGA8/20 SLP176 T02720211,NA
LGA,1973-09-05T06:00:00Z,-73.8803,40.7794,80.06,69.08,69.23,230,7,NA,30.04,1017.3,6,NA,CLR,   ,   ,   ,NA,NA,NA,NA,DZ,NA,NA,NA,NA,NA,NA,82.95,METAR KLGA 050600Z 23007KT 6SM DZ CLR 27/21 A3004 RMK WND 200V250LGA8/20 SLP173 T02670206,NA
LGA,1973-09-05T07:00:00Z,-73.8803,40.7794,79.88,68,67.1,260,8,NA,30.04,1017.3,7,NA,CLR,   ,   ,   ,NA,NA,NA,NA,NA,NA,NA,NA,NA,NA,NA,82.43,METAR KLGA 050700Z 26008KT 7SM CLR 27/20 A3004 RMK WND 240V280LGA8/20 SLP173 T02660200,NA
LGA,1973-09-05T08:00:00Z,-73.8803,40.7794,77.9,68.9,73.86,250,6,NA,30.05,1017.6,6,NA,CLR,   ,   ,   ,NA,NA,NA,NA,DZ,NA,NA,NA,NA,NA,NA,77.9,METAR KLGA 050800Z 25006KT 6SM DZ CLR 25/20 A3005 RMK LGA8/20 SLP176 T02550205,NA
LGA,1973-09-05T09:00:00Z,-73.8803,40.7794,78.08,69.08,73.88,270,3,NA,30.04,1017.3,6,NA,CLR,   ,   ,   ,NA,NA,NA,NA,DZ,NA,NA,NA,NA,NA,NA,80.26,METAR KLGA 050900Z 27003KT 6SM DZ CLR 26/21 A3004 RMK 802LGA8/20 SLP173 T02560206,NA
LGA,1973-09-05T10:00:00Z,-73.8803,40.7794,75.92,68.9,78.88,200,4,NA,30.05,1017.6,5,NA,CLR,   ,   ,   ,NA,NA,NA,NA,DZ,NA,NA,NA,NA,NA,NA,75.92,METAR KLGA 051000Z 20004KT 5SM DZ CLR 24/20 A3005 RMK LGA8/20 SLP176 T02440205,NA
LGA,1973-09-05T12:00:00Z,-73.8803,40.7794,79,71.1,76.79,220,5.04,NA,30.07,NA,10.5,NA,   ,   ,   ,   ,NA,NA,NA,NA,NA,NA,NA,NA,NA,NA,NA,81.94,METAR KLGA 051200Z 22005KT 21/2SM FUDZ OVC/// 26/22 A3007 RMK HK1 LGA8/20 SLP183 T02610217,NA
LGA,1973-09-05T13:00:00Z,-73.8803,40.7794,81,70.9,71.44,360,3.04,NA,30.07,NA,10.5,NA,   ,   ,   ,   ,NA,NA,NA,NA,NA,NA,NA,NA,NA,NA,NA,84.87,METAR KLGA 051300Z 01003KT 21/2SM FUDZ OVC/// SCT025 27/22 A3007 RMK HK1LGA8/20 SLP183 T02720216,NA
LGA,1973-09-05T14:00:00Z,-73.8803,40.7794,81,72.9,76.44,40,7.04,NA,30.08,NA,2,NA,   ,   ,   ,   ,NA,NA,NA,NA,NA,NA,NA,NA,NA,NA,NA,85.76,METAR KLGA 051400Z 04007KT 2SM FUDZ OVC/// SCT030 27/23 A3008 RMK HK2LGA8/20 SLP186 T02720227,NA
LGA,1973-09-05T15:00:00Z,-73.8803,40.7794,82.9,73.9,74.33,50,8,NA,30.08,NA,2,NA,   ,   ,   ,   ,NA,NA,NA,NA,NA,NA,NA,NA,NA,NA,NA,89.37,METAR KLGA 051500Z 05008KT 2SM FUDZ OVC/// SCT030 28/23 A3008 RMK HK3/003 1100LGA8/20 SLP186 T02830233,NA
LGA,1973-09-05T16:00:00Z,-73.8803,40.7794,81.9,74.8,79.13,70,10,NA,30.06,NA,2,NA,   ,   ,   ,   ,NA,NA,NA,NA,NA,NA,NA,NA,NA,NA,NA,88.33,METAR KLGA 051600Z 06010KT 2SM FUDZ OVC/// SCT030 28/24 A3006 RMK HK3 TCU SW-NWLGA8/20 SLP180 T02770238,NA
LGA,1973-09-05T16:19:00Z,-73.8803,40.7794,NA,NA,NA,40,12,NA,30.06,NA,2,NA,SCT,BKN,NA,NA,1000,3000,NA,NA,NA,NA,NA,NA,NA,NA,NA,NA,KLGA 051619Z AUTO 04012KT 2SM POB000 SCT010 BKN030 A3006 RMK IEM_DS3505,NA
LGA,1973-09-05T16:23:00Z,-73.8803,40.7794,NA,NA,NA,20,11,NA,30.06,NA,1.5,NA,SCT,BKN,NA,NA,1000,3000,NA,NA,NA,NA,NA,NA,NA,NA,NA,NA,KLGA 051623Z AUTO 02011KT 1 1/2SM POB000 SCT010 BKN030 A3006 RMK IEM_DS3505,NA
LGA,1973-09-05T17:00:00Z,-73.8803,40.7794,79,75.9,90.25,70,11.04,0.59,30.06,NA,2,NA,   ,   ,   ,   ,NA,NA,NA,NA,NA,NA,NA,NA,NA,NA,NA,83,METAR KLGA 051700Z 06011KT 2SM FUDZ OVC/// SCT010 SCT030 BKN045 26/24 A3006 RMK / HK2 TCU ALQDS RB24E47 PCPN58LGA8/20 SLP180 P0059 T02610244,NA
LGA,1973-09-05T18:00:00Z,-73.8803,40.7794,81,75.9,84.53,50,12,NA,30.06,NA,2,NA,   ,   ,   ,   ,NA,NA,NA,NA,NA,NA,NA,NA,NA,NA,NA,87.33,METAR KLGA 051800Z 05012KT 2SM FUDZ OVC/// SCT045 27/24 A3006 RMK / HK2 TCU WLGA8/20 SLP180 60059 T02720244,NA
LGA,1973-09-05T19:00:00Z,-73.8803,40.7794,86.9,72,61.31,180,12,NA,30.04,NA,3,NA,   ,   ,   ,   ,NA,NA,NA,NA,NA,NA,NA,NA,NA,NA,NA,93.4,METAR KLGA 051900Z 19012KT 3SM FUDZ OVC/// SCT045 31/22 A3004 RMK / HK1 TCU NWLGA8/20 SLP173 T03050222,NA
LGA,1973-09-05T20:00:00Z,-73.8803,40.7794,86,70,58.95,180,13.04,NA,30.03,NA,3,NA,   ,   ,   ,   ,NA,NA,NA,NA,NA,NA,NA,NA,NA,NA,NA,90.73,METAR KLGA 052000Z 17013KT 3SM FUDZ OVC/// SCT045 30/21 A3003 RMK HK1LGA8/20 SLP169 T03000211,NA
LGA,1973-09-05T21:00:00Z,-73.8803,40.7794,84.9,71.1,63.4,180,13.04,NA,30.03,NA,4,NA,   ,   ,   ,   ,NA,NA,NA,NA,NA,NA,NA,NA,NA,NA,NA,90.16,METAR KLGA 052100Z 17013KT 4SM FUDZ OVC/// BKN250 29/22 A3003 RMK HK1/608 1006LGA8/20 SLP169 T02940217,NA
LGA,1973-09-05T22:00:00Z,-73.8803,40.7794,81.9,72,72.01,180,15.04,NA,30.02,NA,4,NA,   ,   ,   ,   ,NA,NA,NA,NA,NA,NA,NA,NA,NA,NA,NA,86.68,METAR KLGA 052200Z 18015KT 4SM FUDZ OVC/// SCT250 28/22 A3002 RMK LGA8/20 SLP166 T02770222,NA
LGA,1973-09-05T23:00:00Z,-73.8803,40.7794,81,68.9,66.72,180,11.04,NA,30.02,NA,4,NA,   ,   ,   ,   ,NA,NA,NA,NA,NA,NA,NA,NA,NA,NA,NA,84.09,METAR KLGA 052300Z 17011KT 4SM FUDZ SCT250 27/20 A3002 RMK FEW SC WLGA8/20 SLP166 T02720205,NA
LGA,1973-09-06T00:00:00Z,-73.8803,40.7794,78.1,70,76.19,180,12,NA,30.03,NA,4,NA,   ,   ,   ,   ,NA,NA,NA,NA,NA,NA,NA,NA,NA,NA,NA,80.37,METAR KLGA 060000Z 17012KT 4SM FUDZ SCT250 26/21 A3003 RMK 003LGA8/20 SLP169 T02560211,NA
LGA,1973-09-06T01:00:00Z,-73.8803,40.7794,77.9,72,82.09,160,11.04,NA,30.05,NA,4,NA,   ,   ,   ,   ,NA,NA,NA,NA,NA,NA,NA,NA,NA,NA,NA,80.16,METAR KLGA 060100Z 16011KT 4SM FUDZ SCT250 25/22 A3005 RMK LGA8/20 SLP176 T02550222,NA
LGA,1973-09-06T02:00:00Z,-73.8803,40.7794,77.9,72,82.09,180,10,NA,30.05,NA,4,NA,   ,   ,   ,   ,NA,NA,NA,NA,NA,NA,NA,NA,NA,NA,NA,80.16,METAR KLGA 060200Z 17010KT 4SM FUDZ SCT250 25/22 A3005 RMK LGA8/20 SLP176 T02550222,NA
LGA,1973-09-06T03:00:00Z,-73.8803,40.7794,77,71.1,82.03,180,9.04,NA,30.05,NA,4,NA,   ,   ,   ,   ,NA,NA,NA,NA,NA,NA,NA,NA,NA,NA,NA,78.26,METAR KLGA 060300Z 17009KT 4SM FUDZ SCT250 25/22 A3005 RMK / 1006LGA8/20 SLP176 T02500217 51007,NA
LGA,1973-09-06T04:00:00Z,-73.8803,40.7794,75.9,70,81.96,180,11.04,NA,30.04,NA,4,NA,   ,   ,   ,   ,NA,NA,NA,NA,NA,NA,NA,NA,NA,NA,NA,77.04,METAR KLGA 060400Z 19011KT 4SM FUDZ SCT250 24/21 A3004 RMK LGA8/20 SLP173 T02440211,NA
LGA,1973-09-06T05:00:00Z,-73.8803,40.7794,74.84,69.98,84.85,190,14,NA,30.03,1016.9,5,NA,OVC,SCT,SCT,   ,NA,3000,30000,NA,DZ,NA,NA,NA,NA,NA,NA,76.01,METAR KLGA 060500Z 19014KT 5SM DZ OVC/// SCT030 SCT300 24/21 A3003 RMK H2LGA8/20 SLP169 T02380211,NA
LGA,1973-09-06T06:00:00Z,-73.8803,40.7794,75.02,71.06,87.5,210,13,NA,30.03,1016.9,5,18,OVC,   ,   ,   ,1400,NA,NA,NA,DZ,NA,NA,NA,NA,NA,NA,76.33,METAR KLGA 060600Z 21013G18KT 5SM DZ OVC014 24/22 A3003 RMK WND 190V230LGA8/20 SLP169 T02390217,NA
LGA,1973-09-06T07:00:00Z,-73.8803,40.7794,74.84,70.88,87.5,220,9,NA,30.01,1016.3,5,NA,BKN,OVC,   ,   ,1300,1800,NA,NA,DZ,NA,NA,NA,NA,NA,NA,76.14,METAR KLGA 060700Z 22009KT 5SM DZ BKN013 OVC018 24/22 A3001 RMK WND 200V240LGA8/20 SLP163 T02380216,NA
LGA,1973-09-06T08:00:00Z,-73.8803,40.7794,74.84,69.98,84.85,190,10,NA,29.98,1015.2,5,NA,SCT,   ,   ,   ,1500,NA,NA,NA,DZ,NA,NA,NA,NA,NA,NA,76.01,METAR KLGA 060800Z 19010KT 5SM DZ SCT015 24/21 A2998 RMK SLP152 T02380211,NA
LGA,1973-09-06T09:00:00Z,-73.8803,40.7794,75.02,69.98,84.34,220,12,NA,29.98,1015.2,5,NA,OVC,   ,   ,   ,1400,NA,NA,NA,DZ,NA,NA,NA,NA,NA,NA,76.19,METAR KLGA 060900Z 22012KT 5SM DZ OVC014 24/21 A2998 RMK CIG RGD WND 200V240/ SLP152 T02390211,NA
LGA,1973-09-06T11:00:00Z,-73.8803,40.7794,75.92,70.88,84.4,180,10,NA,29.96,1014.6,2.5,NA,SCT,BKN,OVC,   ,1500,1600,2000,NA,DZ,NA,NA,NA,NA,NA,NA,77.18,METAR KLGA 061100Z 18010KT 21/2SM DZ SCT015 BKN016 OVC020 24/22 A2996 RMK BINOVCLGA8/20 SLP146 T02440216,NA
LGA,1973-09-06T12:00:00Z,-73.8803,40.7794,75.9,72,87.73,200,11.04,NA,29.95,NA,10.5,NA,   ,   ,   ,   ,NA,NA,NA,NA,NA,NA,NA,NA,NA,NA,NA,77.31,METAR KLGA 061200Z 20011KT 21/2SM FGDZ BKN012 BKN019 OVC035 24/22 A2995 RMK CIG 11V13/VNALGA8/20 SLP142 70059 T02440222,NA
LGA,1973-09-06T13:00:00Z,-73.8803,40.7794,77,72,84.58,220,9.04,NA,29.93,NA,10.5,NA,   ,   ,   ,   ,NA,NA,NA,NA,NA,NA,NA,NA,NA,NA,NA,78.38,METAR KLGA 061300Z 22009KT 21/2SM FUDZ BKN013 BKN035 OVC050 25/22 A2993 RMK VNALGA8/20 SLP135 T02500222,NA
LGA,1973-09-06T14:00:00Z,-73.8803,40.7794,78.98,71.96,79.12,200,13,NA,29.92,1013.1,2.5,NA,BKN,BKN,OVC,   ,1500,3500,7000,NA,DZ,NA,NA,NA,NA,NA,NA,82.08,METAR KLGA 061400Z 20013KT 21/2SM DZ BKN015 BKN035 OVC070 26/22 A2992 RMK SFC VSBY SLP131 T02610222,NA
LGA,1973-09-06T14:07:00Z,-73.8803,40.7794,NA,NA,NA,200,14,NA,29.91,NA,3,NA,SCT,BKN,OVC,NA,1500,3400,6900,NA,NA,NA,NA,NA,NA,NA,NA,NA,KLGA 061407Z AUTO 20014KT 3SM SCT015 BKN034 OVC069 A2991 RMK IEM_DS3505,NA
LGA,1973-09-06T15:00:00Z,-73.8803,40.7794,81,71.1,71.92,220,16,NA,29.9,NA,5,NA,   ,   ,   ,   ,NA,NA,NA,NA,NA,NA,NA,NA,NA,NA,NA,84.95,METAR KLGA 061500Z 22016KT 5SM FUDZ BKN023 OVC070 27/22 A2990 RMK VA/ 157/LGA8/20 SLP125 T02720217 57017,NA
LGA,1973-09-06T16:00:00Z,-73.8803,40.7794,81.9,70.9,69.37,250,15.04,NA,29.88,NA,4,NA,   ,   ,   ,   ,NA,NA,NA,NA,NA,NA,NA,NA,NA,NA,NA,86.12,METAR KLGA 061600Z 24015KT 4SM FUDZ BKN029 OVC060 28/22 A2988 RMK LGA8/20 SLP118 T02770216,NA
LGA,1973-09-06T17:00:00Z,-73.8803,40.7794,81.9,70,67.28,230,14,NA,29.87,NA,4,NA,   ,   ,   ,   ,NA,NA,NA,NA,NA,NA,NA,NA,NA,NA,NA,85.68,METAR KLGA 061700Z 23014KT 4SM FUDZ SCT025 BKN031 OVC060 28/21 A2987 RMK LGA8/20 SLP114 T02770211,NA
LGA,1973-09-06T18:00:00Z,-73.8803,40.7794,82.9,69.1,63.16,250,13.04,NA,29.86,NA,5,NA,   ,   ,   ,   ,NA,NA,NA,NA,NA,NA,NA,NA,NA,NA,NA,86.48,METAR KLGA 061800Z 25013KT 5SM -SHRA FUDZ BKN030 OVC050 28/21 A2986 RMK DARK N LGA8/20 SLP112 T02830206,NA
LGA,1973-09-06T19:00:00Z,-73.8803,40.7794,82.9,68.9,62.72,230,12,NA,29.84,NA,6,NA,   ,   ,   ,   ,NA,NA,NA,NA,NA,NA,NA,NA,NA,NA,NA,86.38,METAR KLGA 061900Z 23012KT 6SM FUDZ SCT015 BKN030 OVC050 28/20 A2984 RMK RB1755E05LGA8/20 SLP105 T02830205 590/4,NA
LGA,1973-09-06T20:00:00Z,-73.8803,40.7794,82.9,68,60.81,250,11.04,NA,29.83,NA,6,NA,   ,   ,   ,   ,NA,NA,NA,NA,NA,NA,NA,NA,NA,NA,NA,85.94,METAR KLGA 062000Z 24011KT 6SM FUDZ SCT015 BKN035 OVC050 28/20 A2983 RMK LGA C9/48/20 SLP102 T02830200,NA
LGA,1973-09-06T21:00:00Z,-73.8803,40.7794,82.04,66.92,60.25,290,15,NA,29.83,1010.2,7,NA,SCT,OVC,   ,   ,3000,5000,NA,NA,NA,NA,NA,NA,NA,NA,NA,84.53,METAR KLGA 062100Z 29015KT 7SM SCT030 OVC050 28/19 A2983 RMK 0 15//LGA8/20 SLP102 T02780194,NA
LGA,1973-09-06T22:00:00Z,-73.8803,40.7794,81.86,68,62.9,270,10,NA,29.83,1010.2,7,NA,SCT,OVC,   ,   ,3000,4500,NA,NA,NA,NA,NA,NA,NA,NA,NA,84.76,METAR KLGA 062200Z 27010KT 7SM SCT030 OVC045 28/20 A2983 RMK LGA8/20 SLP102 T02770200,NA
LGA,1973-09-06T23:00:00Z,-73.8803,40.7794,80.96,68,64.77,260,8,NA,29.83,1010.2,5,NA,SCT,OVC,   ,   ,3000,5000,NA,NA,DZ,NA,NA,NA,NA,NA,NA,83.72,METAR KLGA 062300Z 26008KT 5SM DZ SCT030 OVC050 27/20 A2983 RMK LGA8/20 SLP102 T02720200,NA
LGA,1973-09-07T00:00:00Z,-73.8803,40.7794,80.06,68,66.7,250,8,NA,29.85,1010.8,6,NA,SCT,OVC,   ,   ,3000,5000,NA,NA,DZ,NA,NA,NA,NA,NA,NA,82.65,METAR KLGA 070000Z 25008KT 6SM DZ SCT030 OVC050 27/20 A2985 RMK VALGA8/20 SLP108 T02670200,NA
LGA,1973-09-07T01:00:00Z,-73.8803,40.7794,78.98,68,69.11,270,10,NA,29.87,1011.5,6,NA,SCT,OVC,   ,   ,7000,25000,NA,NA,DZ,NA,NA,NA,NA,NA,NA,81.32,METAR KLGA 070100Z 27010KT 6SM DZ SCT070 OVC250 26/20 A2987 RMK VALGA8/20 SLP115 T02610200,NA
LGA,1973-09-07T02:00:00Z,-73.8803,40.7794,77.9,66.92,69,270,12,NA,29.88,1011.8,6,NA,SCT,BKN,   ,   ,10000,25000,NA,NA,DZ,NA,NA,NA,NA,NA,NA,77.9,METAR KLGA 070200Z 27012KT 6SM DZ SCT100 BKN250 25/19 A2988 RMK VALGA8/20 SLP118 T02550194,NA
LGA,1973-09-07T03:00:00Z,-73.8803,40.7794,75.92,66.92,73.68,270,12,NA,29.89,1012.2,7,NA,FEW,   ,   ,   ,25000,NA,NA,NA,NA,NA,NA,NA,NA,NA,NA,75.92,METAR KLGA 070300Z 27012KT 7SM FEW250 24/19 A2989 RMK VALGA8/20 SLP122 8/001 T02440194 52014,NA
LGA,1973-09-07T04:00:00Z,-73.8803,40.7794,73.94,65.84,75.83,270,10,NA,29.9,1012.5,7,NA,SCT,SCT,   ,   ,8000,25000,NA,NA,NA,NA,NA,NA,NA,NA,NA,73.94,METAR KLGA 070400Z 27010KT 7SM SCT080 SCT250 23/19 A2990 RMK LGA8/20 SLP125 T02330188,NA
LGA,1973-09-07T05:00:00Z,-73.8803,40.7794,73.94,63.86,70.77,300,13,NA,29.9,1012.5,7,NA,CLR,   ,   ,   ,NA,NA,NA,NA,NA,NA,NA,NA,NA,NA,NA,73.94,METAR KLGA 070500Z 30013KT 7SM CLR 23/18 A2990 RMK LGA8/20 SLP125 T02330177,NA
LGA,1973-09-07T06:00:00Z,-73.8803,40.7794,71.96,62.96,73.3,300,12,NA,29.9,1012.5,7,NA,CLR,   ,   ,   ,NA,NA,NA,NA,NA,NA,NA,NA,NA,NA,NA,71.96,METAR KLGA 070600Z 30012KT 7SM CLR 22/17 A2990 RMK LGA8/20 SLP125 T02220172,NA
LGA,1973-09-07T07:00:00Z,-73.8803,40.7794,71.96,56.84,58.94,310,10,NA,29.9,1012.5,7,NA,CLR,   ,   ,   ,NA,NA,NA,NA,NA,NA,NA,NA,NA,NA,NA,71.96,METAR KLGA 070700Z 31010KT 7SM CLR 22/14 A2990 RMK LGA8/20 SLP125 T02220138,NA
LGA,1973-09-07T08:00:00Z,-73.8803,40.7794,69.98,59,68.13,300,11,NA,29.9,1012.5,7,NA,CLR,   ,   ,   ,NA,NA,NA,NA,NA,NA,NA,NA,NA,NA,NA,69.98,METAR KLGA 070800Z 30011KT 7SM CLR 21/15 A2990 RMK LGA8/20 SLP125 T02110150,NA
LGA,1973-09-07T09:00:00Z,-73.8803,40.7794,69.08,57.92,67.59,290,9,NA,29.9,1012.5,10,NA,CLR,   ,   ,   ,NA,NA,NA,NA,NA,NA,NA,NA,NA,NA,NA,69.08,METAR KLGA 070900Z 29009KT 10SM CLR 21/14 A2990 RMK 400LGA8/20 SLP125 T02060144,NA
LGA,1973-09-07T10:00:00Z,-73.8803,40.7794,68.9,55.94,63.32,300,12,NA,29.91,1012.9,10,NA,CLR,   ,   ,   ,NA,NA,NA,NA,NA,NA,NA,NA,NA,NA,NA,68.9,METAR KLGA 071000Z 30012KT 10SM CLR 20/13 A2991 RMK LGA8/20 SLP129 T02050133,NA
LGA,1973-09-07T11:00:00Z,-73.8803,40.7794,68,54.86,62.8,270,8,NA,29.95,1014.2,15,NA,CLR,   ,   ,   ,NA,NA,NA,NA,NA,NA,NA,NA,NA,NA,NA,68,METAR KLGA 071100Z 27008KT 15SM CLR 20/13 A2995 RMK WND 220V320LGA8/20 SLP142 T02000127,NA
LGA,1973-09-07T12:00:00Z,-73.8803,40.7794,69.08,55.94,62.93,290,9,NA,29.96,1014.6,15,NA,CLR,   ,   ,   ,NA,NA,NA,NA,NA,NA,NA,NA,NA,NA,NA,69.08,METAR KLGA 071200Z 29009KT 15SM CLR 21/13 A2996 RMK VA SLP146 T02060133,NA
LGA,1973-09-07T13:00:00Z,-73.8803,40.7794,70.88,54.86,56.9,290,8,NA,29.97,1014.9,15,NA,CLR,   ,   ,   ,NA,NA,NA,NA,NA,NA,NA,NA,NA,NA,NA,70.88,METAR KLGA 071300Z 29008KT 15SM CLR 22/13 A2997 RMK VA SLP149 T02160127,NA
LGA,1973-09-07T14:00:00Z,-73.8803,40.7794,72.86,55.94,55.34,300,7,NA,29.98,1015.2,15,NA,CLR,   ,   ,   ,NA,NA,NA,NA,NA,NA,NA,NA,NA,NA,NA,72.86,METAR KLGA 071400Z 30007KT 15SM CLR 23/13 A2998 RMK FEW CU/VA SLP152 T02270133,NA
LGA,1973-09-07T15:00:00Z,-73.8803,40.7794,75.02,57.02,53.52,320,10,NA,29.97,1014.9,15,NA,SCT,SCT,   ,   ,4000,8000,NA,NA,NA,NA,NA,NA,NA,NA,NA,75.02,METAR KLGA 071500Z 32010KT 15SM SCT040 SCT080 24/14 A2997 RMK / 1140/ VA SLP149 T02390139 50003,NA
LGA,1973-09-07T16:00:00Z,-73.8803,40.7794,75.92,56.84,51.6,320,6,NA,29.96,1014.5,15,NA,SCT,SCT,   ,   ,4000,6000,NA,NA,NA,NA,NA,NA,NA,NA,NA,75.92,METAR KLGA 071600Z 32006KT 15SM SCT040 SCT060 24/14 A2996 RMK / VA SLP145 T02440138,NA
LGA,1973-09-07T17:00:00Z,-73.8803,40.7794,75.92,52.88,44.67,270,15,NA,29.95,1014.2,15,NA,BKN,   ,   ,   ,5000,NA,NA,NA,NA,NA,NA,NA,NA,NA,NA,75.92,METAR KLGA 071700Z 27015KT 15SM BKN050 24/12 A2995 RMK VA SLP142 T02440116,NA
LGA,1973-09-07T18:00:00Z,-73.8803,40.7794,78.98,51.98,39.05,280,11,NA,29.93,1013.5,15,NA,BKN,   ,   ,   ,5000,NA,NA,NA,NA,NA,NA,NA,NA,NA,NA,78.98,METAR KLGA 071800Z 28011KT 15SM BKN050 26/11 A2993 RMK VA SLP135 T02610111,NA
LGA,1973-09-07T19:00:00Z,-73.8803,40.7794,77.9,53.96,43.52,290,12,NA,29.92,1013.2,15,NA,BKN,   ,   ,   ,5000,NA,NA,NA,NA,NA,NA,NA,NA,NA,NA,77.9,METAR KLGA 071900Z 29012KT 15SM BKN050 25/12 A2992 RMK VA SLP132 T02550122,NA
LGA,1973-09-07T20:00:00Z,-73.8803,40.7794,78.98,51.98,39.05,280,14,NA,29.9,1012.5,15,NA,SCT,   ,   ,   ,5000,NA,NA,NA,NA,NA,NA,NA,NA,NA,NA,78.98,METAR KLGA 072000Z 28014KT 15SM SCT050 26/11 A2990 RMK SLP125 T02610111,NA
LGA,1973-09-07T21:00:00Z,-73.8803,40.7794,78.08,51.98,40.23,280,13,NA,29.91,1012.9,15,NA,SCT,   ,   ,   ,5000,NA,NA,NA,NA,NA,NA,NA,NA,NA,NA,78.08,METAR KLGA 072100Z 28013KT 15SM SCT050 26/11 A2991 RMK SLP129 8/100 T02560111 55007,NA
LGA,1973-09-07T22:00:00Z,-73.8803,40.7794,77,52.88,43.1,290,12,NA,29.91,1012.9,15,NA,SCT,BKN,   ,   ,5000,25000,NA,NA,NA,NA,NA,NA,NA,NA,NA,77,METAR KLGA 072200Z 29012KT 15SM SCT050 BKN250 25/12 A2991 RMK SLP129 T02500116,NA
LGA,1973-09-07T23:00:00Z,-73.8803,40.7794,75.92,51.98,43.21,280,10,NA,29.92,1013.2,15,NA,SCT,BKN,   ,   ,5000,25000,NA,NA,NA,NA,NA,NA,NA,NA,NA,75.92,METAR KLGA 072300Z 28010KT 15SM SCT050 BKN250 24/11 A2992 RMK SLP132 T02440111,NA
LGA,1973-09-08T00:00:00Z,-73.8803,40.7794,75.02,51.08,43.08,270,10,NA,29.94,1013.9,15,NA,BKN,   ,   ,   ,25000,NA,NA,NA,NA,NA,NA,NA,NA,NA,NA,75.02,METAR KLGA 080000Z 27010KT 15SM BKN250 24/11 A2994 RMK VA SLP139 T02390106,NA
LGA,1973-09-08T01:00:00Z,-73.8803,40.7794,73.94,50.9,44.37,260,7,NA,29.96,1014.6,15,NA,BKN,   ,   ,   ,25000,NA,NA,NA,NA,NA,NA,NA,NA,NA,NA,73.94,METAR KLGA 080100Z 26007KT 15SM BKN250 23/11 A2996 RMK VA SLP146 T02330105,NA
LGA,1973-09-08T02:00:00Z,-73.8803,40.7794,73.94,50,42.91,250,13,NA,29.97,1014.9,15,NA,SCT,   ,   ,   ,25000,NA,NA,NA,NA,NA,NA,NA,NA,NA,NA,73.94,METAR KLGA 080200Z 25013KT 15SM SCT250 23/10 A2997 RMK VA SLP149 T02330100,NA
LGA,1973-09-08T03:00:00Z,-73.8803,40.7794,73.04,50,44.23,260,10,NA,29.98,1015.2,15,NA,FEW,   ,   ,   ,25000,NA,NA,NA,NA,NA,NA,NA,NA,NA,NA,73.04,METAR KLGA 080300Z 26010KT 15SM FEW250 23/10 A2998 RMK / VA SLP152 8/001 T02280100 52014,NA
LGA,1973-09-08T04:00:00Z,-73.8803,40.7794,71.96,51.98,49.36,310,10,NA,29.99,1015.6,15,NA,CLR,   ,   ,   ,NA,NA,NA,NA,NA,NA,NA,NA,NA,NA,NA,71.96,METAR KLGA 080400Z 31010KT 15SM CLR 22/11 A2999 RMK SLP156 T02220111,NA
LGA,1973-09-08T05:00:00Z,-73.8803,40.7794,69.98,52.88,54.58,300,12,NA,30,1015.9,15,NA,CLR,   ,   ,   ,NA,NA,NA,NA,NA,NA,NA,NA,NA,NA,NA,69.98,METAR KLGA 080500Z 30012KT 15SM CLR 21/12 A3000 RMK SLP159 T02110116,NA
LGA,1973-09-08T06:00:00Z,-73.8803,40.7794,68,51.98,56.51,300,12,NA,30,1015.9,15,NA,SCT,   ,   ,   ,25000,NA,NA,NA,NA,NA,NA,NA,NA,NA,NA,68,METAR KLGA 080600Z 30012KT 15SM SCT250 20/11 A3000 RMK SLP159 T02000111,NA
LGA,1973-09-08T07:00:00Z,-73.8803,40.7794,66.92,51.98,58.65,290,11,NA,30.01,1016.3,15,NA,SCT,   ,   ,   ,25000,NA,NA,NA,NA,NA,NA,NA,NA,NA,NA,66.92,METAR KLGA 080700Z 29011KT 15SM SCT250 19/11 A3001 RMK SLP163 T01940111,NA
LGA,1973-09-08T08:00:00Z,-73.8803,40.7794,65.84,51.98,60.89,290,12,NA,30.01,1016.3,15,NA,SCT,   ,   ,   ,25000,NA,NA,NA,NA,NA,NA,NA,NA,NA,NA,65.84,METAR KLGA 080800Z 29012KT 15SM SCT250 19/11 A3001 RMK SLP163 T01880111,NA
LGA,1973-09-08T09:00:00Z,-73.8803,40.7794,64.94,51.08,60.77,310,10,NA,30.01,1016.3,15,NA,FEW,   ,   ,   ,25000,NA,NA,NA,NA,NA,NA,NA,NA,NA,NA,64.94,METAR KLGA 080900Z 31010KT 15SM FEW250 18/11 A3001 RMK / SLP163 8/001 T01830106 51003,NA
LGA,1973-09-08T10:00:00Z,-73.8803,40.7794,63.86,51.98,65.25,290,9,NA,30.03,1016.9,15,NA,SCT,   ,   ,   ,25000,NA,NA,NA,NA,NA,NA,NA,NA,NA,NA,63.86,METAR KLGA 081000Z 29009KT 15SM SCT250 18/11 A3003 RMK VA SLP169 T01770111,NA
LGA,1973-09-08T11:00:00Z,-73.8803,40.7794,63.86,50.9,62.69,300,8,NA,30.04,1017.3,15,NA,SCT,BKN,   ,   ,16000,25000,NA,NA,NA,NA,NA,NA,NA,NA,NA,63.86,METAR KLGA 081100Z 30008KT 15SM SCT160 BKN250 18/11 A3004 RMK VA SLP173 T01770105,NA
LGA,1973-09-08T12:00:00Z,-73.8803,40.7794,64.04,51.98,64.84,270,6,NA,30.05,1017.2,15,NA,SCT,OVC,   ,   ,17000,25000,NA,NA,NA,NA,NA,NA,NA,NA,NA,64.04,METAR KLGA 081200Z 27006KT 15SM SCT170 OVC250 18/11 A3005 RMK BINOVC VA SLP172 T01780111,NA
LGA,1973-09-08T13:00:00Z,-73.8803,40.7794,68,51.98,56.51,280,7,NA,30.06,1018,15,NA,SCT,BKN,   ,   ,15000,25000,NA,NA,NA,NA,NA,NA,NA,NA,NA,68,METAR KLGA 081300Z 28007KT 15SM SCT150 BKN250 20/11 A3006 RMK VA SLP180 T02000111,NA
LGA,1973-09-08T14:00:00Z,-73.8803,40.7794,70.88,47.84,43.89,280,11,NA,30.07,1018.3,15,NA,SCT,BKN,   ,   ,15000,25000,NA,NA,NA,NA,NA,NA,NA,NA,NA,69.73,METAR KLGA 081400Z 28011KT 15SM SCT150 BKN250 22/09 A3007 RMK VA SLP183 T02160088,NA
LGA,1973-09-08T15:00:00Z,-73.8803,40.7794,73.04,46.94,39.44,280,12,NA,30.06,1018,15,NA,BKN,   ,   ,   ,25000,NA,NA,NA,NA,NA,NA,NA,NA,NA,NA,71.9,METAR KLGA 081500Z 28012KT 15SM BKN250 23/08 A3006 RMK FEW CU/003 111111 SLP180 8/108 T02280083,NA
LGA,1973-09-08T16:00:00Z,-73.8803,40.7794,72.86,47.84,41.05,270,14,NA,30.05,1017.6,15,NA,BKN,   ,   ,   ,25000,NA,NA,NA,NA,NA,NA,NA,NA,NA,NA,71.78,METAR KLGA 081600Z 27014KT 15SM BKN250 23/09 A3005 RMK FEW CU/VA SLP176 T02270088,NA
LGA,1973-09-08T17:00:00Z,-73.8803,40.7794,73.94,48.92,41.21,300,13,NA,30.03,1016.9,15,NA,SCT,BKN,   ,   ,5000,25000,NA,NA,NA,NA,NA,NA,NA,NA,NA,73.94,METAR KLGA 081700Z 30013KT 15SM SCT050 BKN250 23/09 A3003 RMK VA SLP169 T02330094,NA
LGA,1973-09-08T18:00:00Z,-73.8803,40.7794,75.92,48.92,38.57,290,14,NA,30.01,1016.3,15,NA,SCT,BKN,   ,   ,5000,25000,NA,NA,NA,NA,NA,NA,NA,NA,NA,75.92,METAR KLGA 081800Z 29014KT 15SM SCT050 BKN250 24/09 A3001 RMK / VA SLP163 T02440094,NA
LGA,1973-09-08T19:00:00Z,-73.8803,40.7794,77,47.84,35.74,310,11,NA,30,1015.9,15,NA,SCT,BKN,   ,   ,5000,25000,NA,NA,NA,NA,NA,NA,NA,NA,NA,77,METAR KLGA 081900Z 31011KT 15SM SCT050 BKN250 25/09 A3000 RMK / VA SLP159 T02500088,NA
LGA,1973-09-08T21:00:00Z,-73.8803,40.7794,75.02,46.94,36.9,320,13,NA,29.98,1015.2,15,NA,SCT,BKN,   ,   ,5000,25000,NA,NA,NA,NA,NA,NA,NA,NA,NA,73.96,METAR KLGA 082100Z 32013KT 15SM SCT050 BKN250 24/08 A2998 RMK / 0 VA SLP152 8/101 T02390083,NA
LGA,1973-09-08T22:00:00Z,-73.8803,40.7794,73.94,48.92,41.21,300,15,NA,30,1015.9,15,NA,SCT,OVC,   ,   ,5000,25000,NA,NA,NA,NA,NA,NA,NA,NA,NA,73.94,METAR KLGA 082200Z 30015KT 15SM SCT050 OVC250 23/09 A3000 RMK VA SLP159 T02330094,NA
LGA,1973-09-08T23:00:00Z,-73.8803,40.7794,71.96,46.94,40.9,330,16,NA,30.01,1016.3,15,NA,SCT,BKN,   ,   ,5000,25000,NA,NA,NA,NA,NA,NA,NA,NA,NA,70.78,METAR KLGA 082300Z 33016KT 15SM SCT050 BKN250 22/08 A3001 RMK VA SLP163 T02220083,NA
LGA,1973-09-09T00:00:00Z,-73.8803,40.7794,71.06,48.92,45.43,320,13,NA,30.03,1016.9,15,NA,SCT,   ,   ,   ,25000,NA,NA,NA,NA,NA,NA,NA,NA,NA,NA,70,METAR KLGA 090000Z 32013KT 15SM SCT250 22/09 A3003 RMK VA SLP169 T02170094,NA
LGA,1973-09-09T01:00:00Z,-73.8803,40.7794,68.9,48.92,48.9,320,12,NA,30.05,1017.6,15,NA,SCT,   ,   ,   ,25000,NA,NA,NA,NA,NA,NA,NA,NA,NA,NA,68.9,METAR KLGA 090100Z 32012KT 15SM SCT250 20/09 A3005 RMK LGA DME OTS SLP176 T02050094 590/5,NA
LGA,1973-09-09T02:00:00Z,-73.8803,40.7794,68,47.84,48.44,330,9,NA,30.06,1018,15,NA,SCT,   ,   ,   ,25000,NA,NA,NA,NA,NA,NA,NA,NA,NA,NA,68,METAR KLGA 090200Z 33009KT 15SM SCT250 20/09 A3006 RMK VA SLP180 T02000088,NA
LGA,1973-09-09T03:00:00Z,-73.8803,40.7794,68,48.02,48.77,330,9,NA,30.07,1018.3,15,NA,SCT,   ,   ,   ,25000,NA,NA,NA,NA,NA,NA,NA,NA,NA,NA,68,METAR KLGA 090300Z 33009KT 15SM SCT250 20/09 A3007 RMK / VA SLP183 8/001 T02000089 51015,NA
LGA,1973-09-09T04:00:00Z,-73.8803,40.7794,66.92,46.94,48.6,360,8,NA,30.07,1018.3,15,NA,SCT,   ,   ,   ,25000,NA,NA,NA,NA,NA,NA,NA,NA,NA,NA,66.92,METAR KLGA 090400Z 36008KT 15SM SCT250 19/08 A3007 RMK SLP183 T01940083,NA
LGA,1973-09-09T05:00:00Z,-73.8803,40.7794,66.92,47.84,50.28,330,8,NA,30.07,1018.3,15,NA,SCT,OVC,   ,   ,20000,30000,NA,NA,NA,NA,NA,NA,NA,NA,NA,66.92,METAR KLGA 090500Z 33008KT 15SM SCT200 OVC300 19/09 A3007 RMK SLP183 T01940088,NA
LGA,1973-09-09T06:00:00Z,-73.8803,40.7794,64.94,48.02,54.22,350,7,NA,30.07,1018.3,15,NA,SCT,BKN,   ,   ,20000,25000,NA,NA,NA,NA,NA,NA,NA,NA,NA,64.94,METAR KLGA 090600Z 35007KT 15SM SCT200 BKN250 18/09 A3007 RMK WND 320V020 SLP183 T01830089,NA
LGA,1973-09-09T07:00:00Z,-73.8803,40.7794,63.86,47.84,55.93,340,8,NA,30.07,1018.3,15,NA,SCT,BKN,   ,   ,20000,25000,NA,NA,NA,NA,NA,NA,NA,NA,NA,63.86,METAR KLGA 090700Z 34008KT 15SM SCT200 BKN250 18/09 A3007 RMK WND320V360 SLP183 T01770088,NA
LGA,1973-09-09T08:00:00Z,-73.8803,40.7794,63.86,45.86,51.9,340,6,NA,30.06,1018,15,NA,SCT,BKN,   ,   ,15000,25000,NA,NA,NA,NA,NA,NA,NA,NA,NA,63.86,METAR KLGA 090800Z 34006KT 15SM SCT150 BKN250 18/08 A3006 RMK SLP180 T01770077,NA
LGA,1973-09-09T09:00:00Z,-73.8803,40.7794,62.96,48.02,58.12,350,9,NA,30.06,1018,15,NA,SCT,BKN,OVC,   ,3500,15000,25000,NA,NA,NA,NA,NA,NA,NA,NA,62.96,METAR KLGA 090900Z 35009KT 15SM SCT035 BKN150 OVC250 17/09 A3006 RMK BINOVC SLP180 8/131 T01720089 56005,NA
LGA,1973-09-09T10:00:00Z,-73.8803,40.7794,61.88,48.92,62.44,310,4,NA,30.07,1018.3,15,NA,BKN,   ,   ,   ,12000,NA,NA,NA,NA,NA,NA,NA,NA,NA,NA,61.88,METAR KLGA 091000Z 31004KT 15SM BKN120 17/09 A3007 RMK VA SLP183 T01660094,NA
LGA,1973-09-09T11:00:00Z,-73.8803,40.7794,61.88,48.92,62.44,320,8,NA,30.08,1018.6,15,NA,BKN,OVC,   ,   ,8000,15000,NA,NA,NA,NA,NA,NA,NA,NA,NA,61.88,METAR KLGA 091100Z 32008KT 15SM BKN080 OVC150 17/09 A3008 RMK BINOVC WND 300V340 VA SLP186 T01660094,NA
LGA,1973-09-09T12:00:00Z,-73.8803,40.7794,62.96,50,62.58,330,9,NA,30.08,1018.6,15,NA,SCT,BKN,   ,   ,8000,15000,NA,NA,NA,NA,NA,NA,NA,NA,NA,62.96,METAR KLGA 091200Z 33009KT 15SM SCT080 BKN150 17/10 A3008 RMK VA SLP186 T01720100,NA
LGA,1973-09-09T13:00:00Z,-73.8803,40.7794,64.94,50,58.39,320,11,NA,30.08,1018.6,15,NA,BKN,   ,   ,   ,15000,NA,NA,NA,NA,NA,NA,NA,NA,NA,NA,64.94,METAR KLGA 091300Z 32011KT 15SM BKN150 18/10 A3008 RMK VA SLP186 T01830100,NA
LGA,1973-09-09T14:00:00Z,-73.8803,40.7794,66.92,50,54.51,330,8,NA,30.08,1018.6,15,NA,BKN,   ,   ,   ,15000,NA,NA,NA,NA,NA,NA,NA,NA,NA,NA,66.92,METAR KLGA 091400Z 33008KT 15SM BKN150 19/10 A3008 RMK VA SLP186 T01940100,NA
LGA,1973-09-09T15:00:00Z,-73.8803,40.7794,68,48.02,48.77,320,10,NA,30.06,1018,15,NA,SCT,SCT,   ,   ,15000,25000,NA,NA,NA,NA,NA,NA,NA,NA,NA,68,METAR KLGA 091500Z 32010KT 15SM SCT150 SCT250 20/09 A3006 RMK FEW CU/807 VA SLP180 8/131 T02000089,NA
LGA,1973-09-09T16:00:00Z,-73.8803,40.7794,69.98,45.86,42,330,10,NA,30.05,1017.6,15,NA,SCT,SCT,   ,   ,15000,25000,NA,NA,NA,NA,NA,NA,NA,NA,NA,69.98,METAR KLGA 091600Z 33010KT 15SM SCT150 SCT250 21/08 A3005 RMK .MISG SLP176 T02110077,NA
LGA,1973-09-09T17:00:00Z,-73.8803,40.7794,71.96,45.86,39.27,310,8,NA,30.03,1016.9,15,NA,SCT,SCT,   ,   ,14000,25000,NA,NA,NA,NA,NA,NA,NA,NA,NA,70.7,METAR KLGA 091700Z 31008KT 15SM SCT140 SCT250 22/08 A3003 RMK FEW CU VA SLP169 T02220077,NA
LGA,1973-09-09T18:00:00Z,-73.8803,40.7794,73.04,46.94,39.44,270,11,NA,30.01,1016.3,15,NA,SCT,SCT,   ,   ,14000,25000,NA,NA,NA,NA,NA,NA,NA,NA,NA,71.9,METAR KLGA 091800Z 27011KT 15SM SCT140 SCT250 23/08 A3001 RMK VA SLP163 T02280083,NA
LGA,1973-09-09T19:00:00Z,-73.8803,40.7794,73.94,45.86,36.73,310,11,NA,29.98,1015.2,15,NA,SCT,BKN,   ,   ,14000,25000,NA,NA,NA,NA,NA,NA,NA,NA,NA,72.76,METAR KLGA 091900Z 31011KT 15SM SCT140 BKN250 23/08 A2998 RMK SLP152 T02330077,NA
LGA,1973-09-09T20:00:00Z,-73.8803,40.7794,72.86,44.96,36.81,300,12,NA,29.97,1014.9,15,NA,SCT,BKN,   ,   ,14000,25000,NA,NA,NA,NA,NA,NA,NA,NA,NA,71.58,METAR KLGA 092000Z 30012KT 15SM SCT140 BKN250 23/07 A2997 RMK SLP149 T02270072,NA
LGA,1973-09-09T21:00:00Z,-73.8803,40.7794,71.96,48.02,42.6,280,8,NA,29.96,1014.6,15,NA,BKN,BKN,   ,   ,14000,25000,NA,NA,NA,NA,NA,NA,NA,NA,NA,70.86,METAR KLGA 092100Z 28008KT 15SM BKN140 BKN250 22/09 A2996 RMK SLP146 8/028 T02220089 57017,NA
LGA,1973-09-09T22:00:00Z,-73.8803,40.7794,70.88,46.94,42.43,280,9,NA,29.95,1014.2,15,NA,BKN,BKN,   ,   ,14000,25000,NA,NA,NA,NA,NA,NA,NA,NA,NA,69.66,METAR KLGA 092200Z 28009KT 15SM BKN140 BKN250 22/08 A2995 RMK SLP142 T02160083,NA
LGA,1973-09-09T23:00:00Z,-73.8803,40.7794,69.98,47.84,45.26,310,9,NA,29.95,1014.2,15,NA,SCT,BKN,   ,   ,14000,25000,NA,NA,NA,NA,NA,NA,NA,NA,NA,69.98,METAR KLGA 092300Z 31009KT 15SM SCT140 BKN250 21/09 A2995 RMK SLP142 T02110088,NA
LGA,1973-09-10T00:00:00Z,-73.8803,40.7794,68,46.94,46.83,340,11,NA,29.96,1014.6,15,NA,SCT,BKN,   ,   ,14000,25000,NA,NA,NA,NA,NA,NA,NA,NA,NA,68,METAR KLGA 100000Z 34011KT 15SM SCT140 BKN250 20/08 A2996 RMK VA SLP146 T02000083,NA
LGA,1973-09-10T01:00:00Z,-73.8803,40.7794,66.92,46.94,48.6,320,12,NA,29.99,1015.6,15,NA,BKN,   ,   ,   ,25000,NA,NA,NA,NA,NA,NA,NA,NA,NA,NA,66.92,METAR KLGA 100100Z 32012KT 15SM BKN250 19/08 A2999 RMK SLP156 T01940083,NA
LGA,1973-09-10T02:00:00Z,-73.8803,40.7794,65.84,46.94,50.46,320,11,NA,30,1015.9,15,NA,SCT,   ,   ,   ,25000,NA,NA,NA,NA,NA,NA,NA,NA,NA,NA,65.84,METAR KLGA 100200Z 32011KT 15SM SCT250 19/08 A3000 RMK VA SLP159 T01880083,NA
LGA,1973-09-10T03:00:00Z,-73.8803,40.7794,64.04,46.94,53.73,340,12,NA,30.01,1016.3,15,NA,FEW,   ,   ,   ,25000,NA,NA,NA,NA,NA,NA,NA,NA,NA,NA,64.04,METAR KLGA 100300Z 34012KT 15SM FEW250 18/08 A3001 RMK / VA SLP163 8/001 T01780083 52017,NA
LGA,1973-09-10T04:00:00Z,-73.8803,40.7794,61.88,45.86,55.65,20,13,NA,30.03,1016.9,15,NA,CLR,   ,   ,   ,NA,NA,NA,NA,NA,NA,NA,NA,NA,NA,NA,61.88,METAR KLGA 100400Z 02013KT 15SM CLR 17/08 A3003 RMK SLP169 T01660077,NA
LGA,1973-09-10T05:00:00Z,-73.8803,40.7794,59,44.96,59.58,20,13,NA,30.03,1016.9,15,NA,CLR,   ,   ,   ,NA,NA,NA,NA,NA,NA,NA,NA,NA,NA,NA,59,METAR KLGA 100500Z 02013KT 15SM CLR 15/07 A3003 RMK SLP169 T01500072,NA
LGA,1973-09-10T06:00:00Z,-73.8803,40.7794,57.02,44.96,63.97,20,10,NA,30.03,1016.9,15,NA,CLR,   ,   ,   ,NA,NA,NA,NA,NA,NA,NA,NA,NA,NA,NA,57.02,METAR KLGA 100600Z 02010KT 15SM CLR 14/07 A3003 RMK WND 350V040 SLP169 T01390072,NA
LGA,1973-09-10T07:00:00Z,-73.8803,40.7794,55.94,42.98,61.67,40,10,NA,30.03,1016.9,15,NA,CLR,   ,   ,   ,NA,NA,NA,NA,NA,NA,NA,NA,NA,NA,NA,55.94,METAR KLGA 100700Z 04010KT 15SM CLR 13/06 A3003 RMK WND 020V060 SLP169 T01330061,NA
LGA,1973-09-10T08:00:00Z,-73.8803,40.7794,54.86,41,59.43,10,11,NA,30.03,1016.9,15,NA,CLR,   ,   ,   ,NA,NA,NA,NA,NA,NA,NA,NA,NA,NA,NA,54.86,METAR KLGA 100800Z 01011KT 15SM CLR 13/05 A3003 RMK SLP169 T01270050,NA
LGA,1973-09-10T09:00:00Z,-73.8803,40.7794,53.96,41,61.41,10,9,NA,30.03,1016.9,15,NA,CLR,   ,   ,   ,NA,NA,NA,NA,NA,NA,NA,NA,NA,NA,NA,53.96,METAR KLGA 100900Z 01009KT 15SM CLR 12/05 A3003 RMK / Y SLP169 T01220050 58002,NA
LGA,1973-09-10T10:00:00Z,-73.8803,40.7794,54.86,41,59.43,350,12,NA,30.03,1016.9,15,NA,CLR,   ,   ,   ,NA,NA,NA,NA,NA,NA,NA,NA,NA,NA,NA,54.86,METAR KLGA 101000Z 35012KT 15SM CLR 13/05 A3003 RMK WND330V010 VA SLP169 T01270050,NA
LGA,1973-09-10T11:00:00Z,-73.8803,40.7794,54.86,41.9,61.53,360,8,NA,30.04,1017.3,15,NA,CLR,   ,   ,   ,NA,NA,NA,NA,NA,NA,NA,NA,NA,NA,NA,54.86,METAR KLGA 101100Z 36008KT 15SM CLR 13/06 A3004 RMK VA SLP173 T01270055,NA
LGA,1973-09-10T12:00:00Z,-73.8803,40.7794,57.02,41,54.95,10,10,NA,30.05,1017.6,15,NA,CLR,   ,   ,   ,NA,NA,NA,NA,NA,NA,NA,NA,NA,NA,NA,57.02,METAR KLGA 101200Z 01010KT 15SM CLR 14/05 A3005 RMK / FEW CI SWVA SLP176 T01390050,NA
LGA,1973-09-10T13:00:00Z,-73.8803,40.7794,59.9,39.92,47.53,360,9,NA,30.04,1017.3,15,NA,CLR,   ,   ,   ,NA,NA,NA,NA,NA,NA,NA,NA,NA,NA,NA,59.9,METAR KLGA 101300Z 36009KT 15SM CLR 16/04 A3004 RMK FEW CI S VA SLP173 T01550044,NA
LGA,1973-09-10T14:00:00Z,-73.8803,40.7794,61.88,38.84,42.48,20,5,NA,30.05,1017.6,15,NA,CLR,   ,   ,   ,NA,NA,NA,NA,NA,NA,NA,NA,NA,NA,NA,61.88,METAR KLGA 101400Z 02005KT 15SM CLR 17/04 A3005 RMK FEW CI S VA SLP176 T01660038,NA
LGA,1973-09-10T15:00:00Z,-73.8803,40.7794,64.94,39.92,39.79,20,7,NA,30.03,1016.9,15,NA,CLR,   ,   ,   ,NA,NA,NA,NA,NA,NA,NA,NA,NA,NA,NA,64.94,METAR KLGA 101500Z 02007KT 15SM CLR 18/04 A3003 RMK FEW CI/ VA SLP169 8/001 T01830044 58007,NA
LGA,1973-09-10T16:00:00Z,-73.8803,40.7794,65.84,41,40.21,10,6,NA,30.01,1016.3,15,NA,CLR,   ,   ,   ,NA,NA,NA,NA,NA,NA,NA,NA,NA,NA,NA,65.84,METAR KLGA 101600Z 01006KT 15SM CLR 19/05 A3001 RMK FEW CI/ VA SLP163 T01880050,NA
LGA,1973-09-10T17:00:00Z,-73.8803,40.7794,66.92,41,38.74,10,5,NA,29.99,1015.6,15,NA,SCT,   ,   ,   ,25000,NA,NA,NA,NA,NA,NA,NA,NA,NA,NA,66.92,METAR KLGA 101700Z 01005KT 15SM SCT250 19/05 A2999 RMK / VA SLP156 T01940050,NA
LGA,1973-09-10T18:00:00Z,-73.8803,40.7794,69.08,39.02,33.3,120,4,NA,29.97,1014.9,15,NA,FEW,   ,   ,   ,25000,NA,NA,NA,NA,NA,NA,NA,NA,NA,NA,69.08,METAR KLGA 101800Z 12004KT 15SM FEW250 21/04 A2997 RMK / VA SLP149 T02060039,NA
LGA,1973-09-10T19:00:00Z,-73.8803,40.7794,70.88,41,33.82,360,5,NA,29.93,1013.5,15,NA,SCT,   ,   ,   ,25000,NA,NA,NA,NA,NA,NA,NA,NA,NA,NA,69.26,METAR KLGA 101900Z 36005KT 15SM SCT250 22/05 A2993 RMK / VA SLP135 T02160050,NA
LGA,1973-09-10T20:00:00Z,-73.8803,40.7794,72.86,39.92,30.33,300,6,NA,29.91,1012.9,15,NA,SCT,   ,   ,   ,25000,NA,NA,NA,NA,NA,NA,NA,NA,NA,NA,71.27,METAR KLGA 102000Z 30006KT 15SM SCT250 23/04 A2991 RMK VA SLP129 T02270044,NA
LGA,1973-09-10T21:00:00Z,-73.8803,40.7794,73.04,42.08,32.77,260,7,NA,29.89,1012.2,15,NA,CLR,   ,   ,   ,NA,NA,NA,NA,NA,NA,NA,NA,NA,NA,NA,71.58,METAR KLGA 102100Z 26007KT 15SM CLR 23/06 A2989 RMK / VA SLP122 T02280056 57025,NA
LGA,1973-09-10T22:00:00Z,-73.8803,40.7794,70.88,45.86,40.73,180,15,NA,29.87,1011.5,15,NA,SCT,   ,   ,   ,25000,NA,NA,NA,NA,NA,NA,NA,NA,NA,NA,69.58,METAR KLGA 102200Z 18015KT 15SM SCT250 22/08 A2987 RMK VA SLP115 T02160077,NA
LGA,1973-09-10T23:00:00Z,-73.8803,40.7794,68,48.92,50.44,180,13,NA,29.86,1011.2,15,NA,SCT,   ,   ,   ,25000,NA,NA,NA,NA,NA,NA,NA,NA,NA,NA,68,METAR KLGA 102300Z 18013KT 15SM SCT250 20/09 A2986 RMK VA SLP112 T02000094,NA
LGA,1973-09-11T00:00:00Z,-73.8803,40.7794,66.02,50,56.23,190,13,NA,29.87,1011.5,15,NA,CLR,   ,   ,   ,NA,NA,NA,NA,NA,NA,NA,NA,NA,NA,NA,66.02,METAR KLGA 110000Z 19013KT 15SM CLR 19/10 A2987 RMK VA SLP115 T01890100,NA
LGA,1973-09-11T01:00:00Z,-73.8803,40.7794,66.92,50.9,56.36,180,10,NA,29.88,1011.9,15,NA,CLR,   ,   ,   ,NA,NA,NA,NA,NA,NA,NA,NA,NA,NA,NA,66.92,METAR KLGA 110100Z 18010KT 15SM CLR 19/11 A2988 RMK SLP119 T01940105,NA
LGA,1973-09-11T02:00:00Z,-73.8803,40.7794,64.94,50.9,60.37,190,12,NA,29.88,1011.9,15,NA,CLR,   ,   ,   ,NA,NA,NA,NA,NA,NA,NA,NA,NA,NA,NA,64.94,METAR KLGA 110200Z 19012KT 15SM CLR 18/11 A2988 RMK SLP119 T01830105,NA
LGA,1973-09-11T03:00:00Z,-73.8803,40.7794,64.94,51.98,62.83,200,12,NA,29.86,1011.2,15,NA,CLR,   ,   ,   ,NA,NA,NA,NA,NA,NA,NA,NA,NA,NA,NA,64.94,METAR KLGA 110300Z 20012KT 15SM CLR 18/11 A2986 RMK VA SLP112 T01830111,NA
LGA,1973-09-11T04:00:00Z,-73.8803,40.7794,57.92,50,74.86,190,5,NA,29.86,1011.2,15,NA,CLR,   ,   ,   ,NA,NA,NA,NA,NA,NA,NA,NA,NA,NA,NA,57.92,METAR KLGA 110400Z 19005KT 15SM CLR 14/10 A2986 RMK VA SLP112 T01440100,NA
LGA,1973-09-11T05:00:00Z,-73.8803,40.7794,64.94,50,58.39,230,9,NA,29.82,1009.8,10,NA,CLR,   ,   ,   ,NA,NA,NA,NA,NA,NA,NA,NA,NA,NA,NA,64.94,METAR KLGA 110500Z 23009KT 10SM CLR 18/10 A2982 RMK WND210V250 SLP098 T01830100,NA
LGA,1973-09-11T06:00:00Z,-73.8803,40.7794,64.04,51.08,62.71,240,12,NA,29.8,1009.1,10,NA,CLR,   ,   ,   ,NA,NA,NA,NA,NA,NA,NA,NA,NA,NA,NA,64.04,METAR KLGA 110600Z 24012KT 10SM CLR 18/11 A2980 RMK VA WND220V260 SLP091 T01780106,NA
LGA,1973-09-11T07:00:00Z,-73.8803,40.7794,62.96,50.9,64.7,230,12,NA,29.8,1009.1,10,NA,CLR,   ,   ,   ,NA,NA,NA,NA,NA,NA,NA,NA,NA,NA,NA,62.96,METAR KLGA 110700Z 23012KT 10SM CLR 17/11 A2980 RMK WND220V250 SLP091 T01720105,NA
LGA,1973-09-11T08:00:00Z,-73.8803,40.7794,62.96,50.9,64.7,240,10,NA,29.77,1008.1,10,NA,CLR,   ,   ,   ,NA,NA,NA,NA,NA,NA,NA,NA,NA,NA,NA,62.96,METAR KLGA 110800Z 24010KT 10SM CLR 17/11 A2977 RMK VA SLP081 T01720105,NA
LGA,1973-09-11T09:00:00Z,-73.8803,40.7794,62.06,51.08,67.24,230,12,NA,29.76,1007.8,10,NA,CLR,   ,   ,   ,NA,NA,NA,NA,NA,NA,NA,NA,NA,NA,NA,62.06,METAR KLGA 110900Z 23012KT 10SM CLR 17/11 A2976 RMK WND 210V250/ SLP078 T01670106 56014,NA
LGA,1973-09-11T10:00:00Z,-73.8803,40.7794,61.88,50.9,67.21,240,12,NA,29.76,1007.8,15,NA,CLR,   ,   ,   ,NA,NA,NA,NA,NA,NA,NA,NA,NA,NA,NA,61.88,METAR KLGA 111000Z 24012KT 15SM CLR 17/11 A2976 RMK WND220V260 VA SLP078 T01660105,NA
LGA,1973-09-11T11:00:00Z,-73.8803,40.7794,60.98,51.98,72.22,250,9,NA,29.76,1007.8,10,NA,CLR,   ,   ,   ,NA,NA,NA,NA,NA,NA,NA,NA,NA,NA,NA,60.98,METAR KLGA 111100Z 25009KT 10SM CLR 16/11 A2976 RMK VA SLP078 T01610111,NA
LGA,1973-09-11T12:00:00Z,-73.8803,40.7794,62.96,51.08,65.14,240,14,NA,29.75,1007.5,10,NA,FEW,   ,   ,   ,25000,NA,NA,NA,NA,NA,NA,NA,NA,NA,NA,62.96,METAR KLGA 111200Z 24014KT 10SM FEW250 17/11 A2975 RMK SLP075 T01720106,NA
LGA,1973-09-11T13:00:00Z,-73.8803,40.7794,66.92,51.98,58.65,220,12,NA,29.73,1006.8,10,NA,CLR,   ,   ,   ,NA,NA,NA,NA,NA,NA,NA,NA,NA,NA,NA,66.92,METAR KLGA 111300Z 22012KT 10SM CLR 19/11 A2973 RMK SLP068 T01940111,NA
LGA,1973-09-11T14:00:00Z,-73.8803,40.7794,70.88,50.9,49.2,230,13,NA,29.73,1006.8,10,NA,CLR,   ,   ,   ,NA,NA,NA,NA,NA,NA,NA,NA,NA,NA,NA,70.88,METAR KLGA 111400Z 23013KT 10SM CLR 22/11 A2973 RMK SLP068 T02160105,NA
LGA,1973-09-11T15:00:00Z,-73.8803,40.7794,75.02,53.06,46.34,240,12,NA,29.71,1006.1,10,NA,CLR,   ,   ,   ,NA,NA,NA,NA,NA,NA,NA,NA,NA,NA,NA,75.02,METAR KLGA 111500Z 24012KT 10SM CLR 24/12 A2971 RMK SLP061 T02390117 58014,NA
LGA,1973-09-11T16:00:00Z,-73.8803,40.7794,77,53.96,44.84,230,14,NA,29.69,1005.4,10,NA,CLR,   ,   ,   ,NA,NA,NA,NA,NA,NA,NA,NA,NA,NA,NA,77,METAR KLGA 111600Z 23014KT 10SM CLR 25/12 A2969 RMK SLP054 T02500122,NA
LGA,1973-09-11T17:00:00Z,-73.8803,40.7794,78.98,55.94,45.14,270,11,NA,29.66,1004.4,10,NA,CLR,   ,   ,   ,NA,NA,NA,NA,NA,NA,NA,NA,NA,NA,NA,78.98,METAR KLGA 111700Z 27011KT 10SM CLR 26/13 A2966 RMK SLP044 T02610133,NA
LGA,1973-09-11T18:00:00Z,-73.8803,40.7794,80.06,55.94,43.56,280,14,NA,29.64,1003.7,10,NA,SCT,   ,   ,   ,5000,NA,NA,NA,NA,NA,NA,NA,NA,NA,NA,80.27,METAR KLGA 111800Z 28014KT 10SM SCT050 27/13 A2964 RMK SLP037 T02670133,NA
LGA,1973-09-11T19:00:00Z,-73.8803,40.7794,79.88,56.84,45.27,250,12,NA,29.62,1003.1,10,NA,BKN,   ,   ,   ,5000,NA,NA,NA,NA,NA,NA,NA,NA,NA,NA,79.88,METAR KLGA 111900Z 25012KT 10SM BKN050 27/14 A2962 RMK SLP031 T02660138,NA
LGA,1973-09-11T20:00:00Z,-73.8803,40.7794,79.88,56.84,45.27,250,11,NA,29.61,1002.7,10,NA,BKN,   ,   ,   ,5000,NA,NA,NA,NA,NA,NA,NA,NA,NA,NA,79.88,METAR KLGA 112000Z 25011KT 10SM BKN050 27/14 A2961 RMK VA SLP027 T02660138,NA
LGA,1973-09-11T21:00:00Z,-73.8803,40.7794,80.96,57.02,43.99,270,14,NA,29.61,1002.7,10,NA,BKN,BKN,   ,   ,5000,12000,NA,NA,NA,NA,NA,NA,NA,NA,NA,81.02,METAR KLGA 112100Z 27014KT 10SM BKN050 BKN120 27/14 A2961 RMK 2 VA SLP027 8/150 T02720139,NA
LGA,1973-09-11T22:00:00Z,-73.8803,40.7794,78.98,56.84,46.63,270,13,NA,29.6,1002.4,10,NA,SCT,SCT,   ,   ,5000,25000,NA,NA,NA,NA,NA,NA,NA,NA,NA,78.98,METAR KLGA 112200Z 27013KT 10SM SCT050 SCT250 26/14 A2960 RMK VA SLP024 T02610138,NA
LGA,1973-09-11T23:00:00Z,-73.8803,40.7794,77.9,56.84,48.32,250,13,NA,29.61,1002.7,10,NA,SCT,BKN,   ,   ,5000,25000,NA,NA,NA,NA,NA,NA,NA,NA,NA,77.9,METAR KLGA 112300Z 25013KT 10SM SCT050 BKN250 25/14 A2961 RMK SLP027 T02550138,NA
LGA,1973-09-12T00:00:00Z,-73.8803,40.7794,77,57.92,51.76,260,12,NA,29.62,1003.1,10,NA,SCT,BKN,BKN,   ,5000,12000,25000,NA,NA,NA,NA,NA,NA,NA,NA,77,METAR KLGA 120000Z 26012KT 10SM SCT050 BKN120 BKN250 25/14 A2962 RMK SLP031 T02500144,NA
LGA,1973-09-12T01:00:00Z,-73.8803,40.7794,75.92,57.92,53.65,260,12,NA,29.64,1003.7,10,NA,BKN,BKN,   ,   ,10000,25000,NA,NA,NA,NA,NA,NA,NA,NA,NA,75.92,METAR KLGA 120100Z 26012KT 10SM BKN100 BKN250 24/14 A2964 RMK SLP037 T02440144,NA
LGA,1973-09-12T02:00:00Z,-73.8803,40.7794,74.84,57.92,55.62,260,14,NA,29.65,1004.1,10,NA,SCT,BKN,   ,   ,4000,10000,NA,NA,NA,NA,NA,NA,NA,NA,NA,74.84,METAR KLGA 120200Z 26014KT 10SM SCT040 BKN100 24/14 A2965 RMK SLP041 T02380144,NA
LGA,1973-09-12T03:00:00Z,-73.8803,40.7794,73.94,57.92,57.32,250,8,NA,29.66,1004.4,10,NA,SCT,   ,   ,   ,10000,NA,NA,NA,NA,NA,NA,NA,NA,NA,NA,73.94,METAR KLGA 120300Z 25008KT 10SM SCT100 23/14 A2966 RMK SLP044 8/050 T02330144 51014,NA
LGA,1973-09-12T04:00:00Z,-73.8803,40.7794,73.94,57.92,57.32,300,12,NA,29.67,1004.7,10,NA,SCT,   ,   ,   ,5000,NA,NA,NA,NA,NA,NA,NA,NA,NA,NA,73.94,METAR KLGA 120400Z 30012KT 10SM SCT050 23/14 A2967 RMK SLP047 T02330144,NA
LGA,1973-09-12T05:00:00Z,-73.8803,40.7794,70.88,57.92,63.56,320,8,NA,29.68,1005.1,12,NA,OVC,NA,NA,NA,6900,NA,NA,NA,NA,NA,NA,NA,NA,NA,NA,70.88,KLGA 120500Z AUTO 32008KT 12SM OVC069 22/14 A2968 RMK SLP051 T02160144 IEM_DS3505,NA
LGA,1973-09-12T06:00:00Z,-73.8803,40.7794,71.06,53.96,54.73,330,12,NA,29.69,1005.4,10,NA,BKN,   ,   ,   ,7000,NA,NA,NA,NA,NA,NA,NA,NA,NA,NA,71.06,METAR KLGA 120600Z 33012KT 10SM BKN070 22/12 A2969 RMK WND310V360/ MOON VSB THRU CLDS SLP054 T02170122,NA
LGA,1973-09-12T07:00:00Z,-73.8803,40.7794,68.9,54.86,60.88,330,10,NA,29.69,1005.4,10,NA,SCT,   ,   ,   ,8000,NA,NA,NA,NA,NA,NA,NA,NA,NA,NA,68.9,METAR KLGA 120700Z 33010KT 10SM SCT080 20/13 A2969 RMK WND310V350 SLP054 T02050127,NA
LGA,1973-09-12T08:00:00Z,-73.8803,40.7794,65.84,54.86,67.67,320,10,NA,29.71,1006.1,15,NA,CLR,   ,   ,   ,NA,NA,NA,NA,NA,NA,NA,NA,NA,NA,NA,65.84,METAR KLGA 120800Z 32010KT 15SM CLR 19/13 A2971 RMK WND290V350 SLP061 T01880127,NA
LGA,1973-09-12T09:00:00Z,-73.8803,40.7794,64.94,50,58.39,320,12,NA,29.73,1006.8,15,NA,SCT,   ,   ,   ,7000,NA,NA,NA,NA,NA,NA,NA,NA,NA,NA,64.94,METAR KLGA 120900Z 32012KT 15SM SCT070 18/10 A2973 RMK WND 300V340 SLP068 T01830100,NA
LGA,1973-09-12T10:00:00Z,-73.8803,40.7794,62.96,50,62.58,330,17,NA,29.75,1007.5,15,NA,SCT,   ,   ,   ,10000,NA,NA,NA,NA,NA,NA,NA,NA,NA,NA,62.96,METAR KLGA 121000Z 33017KT 15SM SCT100 17/10 A2975 RMK WND 300V360 VA SLP075 T01720100,NA
LGA,1973-09-12T11:00:00Z,-73.8803,40.7794,62.96,48.92,60.11,320,15,NA,29.77,1008.1,15,NA,SCT,   ,   ,   ,25000,NA,NA,NA,NA,NA,NA,NA,NA,NA,NA,62.96,METAR KLGA 121100Z 32015KT 15SM SCT250 17/09 A2977 RMK VA SLP081 T01720094,NA
LGA,1973-09-12T12:00:00Z,-73.8803,40.7794,62.96,46.94,55.8,310,14,NA,29.8,1009.1,15,NA,SCT,   ,   ,   ,25000,NA,NA,NA,NA,NA,NA,NA,NA,NA,NA,62.96,METAR KLGA 121200Z 31014KT 15SM SCT250 17/08 A2980 RMK VA SLP091 T01720083,NA
LGA,1973-09-12T13:00:00Z,-73.8803,40.7794,64.94,46.94,52.06,310,13,NA,29.82,1009.8,15,NA,CLR,   ,   ,   ,NA,NA,NA,NA,NA,NA,NA,NA,NA,NA,NA,64.94,METAR KLGA 121300Z 31013KT 15SM CLR 18/08 A2982 RMK FEW CIVA SLP098 T01830083,NA
LGA,1973-09-12T14:00:00Z,-73.8803,40.7794,66.92,42.98,41.81,310,12,NA,29.83,1010.2,15,NA,CLR,   ,   ,   ,NA,NA,NA,NA,NA,NA,NA,NA,NA,NA,NA,66.92,METAR KLGA 121400Z 31012KT 15SM CLR 19/06 A2983 RMK VA SLP102 T01940061,NA
LGA,1973-09-12T15:00:00Z,-73.8803,40.7794,69.08,42.08,37.49,310,13,NA,29.83,1010.2,15,NA,CLR,   ,   ,   ,NA,NA,NA,NA,NA,NA,NA,NA,NA,NA,NA,69.08,METAR KLGA 121500Z 31013KT 15SM CLR 21/06 A2983 RMK / 110VA SLP102 T02060056,NA
LGA,1973-09-12T16:00:00Z,-73.8803,40.7794,70.88,42.98,36.5,300,13,NA,29.83,1010.1,15,NA,CLR,   ,   ,   ,NA,NA,NA,NA,NA,NA,NA,NA,NA,NA,NA,69.38,METAR KLGA 121600Z 30013KT 15SM CLR 22/06 A2983 RMK FEW CU N VA SLP101 T02160061,NA
LGA,1973-09-12T17:00:00Z,-73.8803,40.7794,72.86,41.9,32.74,300,12,NA,29.83,1010.2,15,NA,CLR,   ,   ,   ,NA,NA,NA,NA,NA,NA,NA,NA,NA,NA,NA,71.38,METAR KLGA 121700Z 30012KT 15SM CLR 23/06 A2983 RMK FEW CU N VA SLP102 T02270055,NA
LGA,1973-09-12T18:00:00Z,-73.8803,40.7794,73.94,39.92,29.24,310,12,NA,29.84,1010.5,15,NA,CLR,   ,   ,   ,NA,NA,NA,NA,NA,NA,NA,NA,NA,NA,NA,72.41,METAR KLGA 121800Z 31012KT 15SM CLR/// 23/04 A2984 RMK FEW CU N VA SLP105 T02330044,NA
LGA,1973-09-12T19:00:00Z,-73.8803,40.7794,74.84,41.9,30.64,320,13,NA,29.84,1010.5,15,NA,CLR,   ,   ,   ,NA,NA,NA,NA,NA,NA,NA,NA,NA,NA,NA,73.46,METAR KLGA 121900Z 32013KT 15SM CLR 24/06 A2984 RMK FEW CU N VA SLP105 T02380055,NA
LGA,1973-09-12T20:00:00Z,-73.8803,40.7794,72.86,38.84,29.08,270,18,NA,29.84,1010.5,15,NA,SCT,   ,   ,   ,4000,NA,NA,NA,NA,NA,NA,NA,NA,NA,NA,71.21,METAR KLGA 122000Z 27018KT 15SM SCT040 23/04 A2984 RMK VA SLP105 T02270038,NA
LGA,1973-09-12T21:00:00Z,-73.8803,40.7794,75.02,41,29.41,290,16,NA,29.85,1010.8,15,NA,SCT,   ,   ,   ,4000,NA,NA,NA,NA,NA,NA,NA,NA,NA,NA,73.6,METAR KLGA 122100Z 29016KT 15SM SCT040 24/05 A2985 RMK VA SLP108 8/100 T02390050 53005,NA
LGA,1973-09-12T22:00:00Z,-73.8803,40.7794,72.86,42.98,34.13,280,13,NA,29.88,1011.9,15,NA,SCT,   ,   ,   ,4000,NA,NA,NA,NA,NA,NA,NA,NA,NA,NA,71.45,METAR KLGA 122200Z 28013KT 15SM SCT040 23/06 A2988 RMK VA SLP119 T02270061,NA
LGA,1973-09-12T23:00:00Z,-73.8803,40.7794,71.96,44.96,37.95,320,12,NA,29.9,1012.5,15,NA,SCT,   ,   ,   ,4000,NA,NA,NA,NA,NA,NA,NA,NA,NA,NA,70.64,METAR KLGA 122300Z 32012KT 15SM SCT040 22/07 A2990 RMK VA SLP125 T02220072,NA
LGA,1973-09-13T00:00:00Z,-73.8803,40.7794,69.98,44.06,39.22,330,11,NA,29.94,1013.9,15,NA,SCT,   ,   ,   ,4000,NA,NA,NA,NA,NA,NA,NA,NA,NA,NA,69.98,METAR KLGA 130000Z 33011KT 15SM SCT040 21/07 A2994 RMK VA SLP139 T02110067,NA
LGA,1973-09-13T01:00:00Z,-73.8803,40.7794,68,43.88,41.69,320,12,NA,29.99,1015.6,15,NA,SCT,SCT,   ,   ,4500,10000,NA,NA,NA,NA,NA,NA,NA,NA,NA,68,METAR KLGA 130100Z 32012KT 15SM SCT045 SCT100 20/07 A2999 RMK VA SLP156 T02000066,NA
LGA,1973-09-13T02:00:00Z,-73.8803,40.7794,66.92,42.98,41.81,350,10,NA,30.02,1016.6,15,NA,CLR,   ,   ,   ,NA,NA,NA,NA,NA,NA,NA,NA,NA,NA,NA,66.92,METAR KLGA 130200Z 35010KT 15SM CLR 19/06 A3002 RMK FEW SC E SLP166 T01940061,NA
LGA,1973-09-13T03:00:00Z,-73.8803,40.7794,66.02,44.06,44.95,360,8,NA,30.04,1017.3,15,NA,CLR,   ,   ,   ,NA,NA,NA,NA,NA,NA,NA,NA,NA,NA,NA,66.02,METAR KLGA 130300Z 36008KT 15SM CLR 19/07 A3004 RMK / FEW AC S/ SLP173 8/030 T01890067 51034,NA
LGA,1973-09-13T04:00:00Z,-73.8803,40.7794,63.86,45.86,51.9,10,5,NA,30.05,1017.6,15,NA,CLR,   ,   ,   ,NA,NA,NA,NA,NA,NA,NA,NA,NA,NA,NA,63.86,METAR KLGA 130400Z 01005KT 15SM CLR 18/08 A3005 RMK FEW AC SE VA SLP176 T01770077,NA
LGA,1973-09-13T05:00:00Z,-73.8803,40.7794,63.86,43.88,48.14,330,6,NA,30.07,1018.3,15,NA,CLR,   ,   ,   ,NA,NA,NA,NA,NA,NA,NA,NA,NA,NA,NA,63.86,METAR KLGA 130500Z 33006KT 15SM CLR 18/07 A3007 RMK SLP183 T01770066,NA
LGA,1973-09-13T06:00:00Z,-73.8803,40.7794,64.04,44.96,49.85,340,4,NA,30.09,1019,15,NA,CLR,   ,   ,   ,NA,NA,NA,NA,NA,NA,NA,NA,NA,NA,NA,64.04,METAR KLGA 130600Z 34004KT 15SM CLR 18/07 A3009 RMK SLP190 T01780072,NA
LGA,1973-09-13T07:00:00Z,-73.8803,40.7794,62.96,43.88,49.68,310,5,NA,30.09,1019,15,NA,CLR,   ,   ,   ,NA,NA,NA,NA,NA,NA,NA,NA,NA,NA,NA,62.96,METAR KLGA 130700Z 31005KT 15SM CLR 17/07 A3009 RMK SLP190 T01720066,NA
LGA,1973-09-13T08:00:00Z,-73.8803,40.7794,60.98,44.96,55.52,250,4,NA,30.1,1019.3,15,NA,CLR,   ,   ,   ,NA,NA,NA,NA,NA,NA,NA,NA,NA,NA,NA,60.98,METAR KLGA 130800Z 25004KT 15SM CLR 16/07 A3010 RMK SLP193 T01610072,NA
LGA,1973-09-13T09:00:00Z,-73.8803,40.7794,60.98,46.04,57.84,0,0,NA,30.11,1019.6,15,NA,CLR,   ,   ,   ,NA,NA,NA,NA,NA,NA,NA,NA,NA,NA,NA,60.98,METAR KLGA 130900Z 00000KT 15SM CLR 16/08 A3011 RMK / SLP196 T01610078 53008,NA
LGA,1973-09-13T10:00:00Z,-73.8803,40.7794,56.84,44.96,64.39,230,4,NA,30.13,1020.3,10,NA,CLR,   ,   ,   ,NA,NA,NA,NA,NA,NA,NA,NA,NA,NA,NA,56.84,METAR KLGA 131000Z 23004KT 10SM CLR 14/07 A3013 RMK FEW AC W SLP203 T01380072,NA
LGA,1973-09-13T11:00:00Z,-73.8803,40.7794,59,45.86,61.65,260,4,NA,30.15,1021,15,NA,SCT,   ,   ,   ,25000,NA,NA,NA,NA,NA,NA,NA,NA,NA,NA,59,METAR KLGA 131100Z 26004KT 15SM SCT250 15/08 A3015 RMK VA SLP210 T01500077,NA
LGA,1973-09-13T12:00:00Z,-73.8803,40.7794,62.06,46.94,57.6,280,5,NA,30.16,1021.3,15,NA,FEW,   ,   ,   ,25000,NA,NA,NA,NA,NA,NA,NA,NA,NA,NA,62.06,METAR KLGA 131200Z 28005KT 15SM FEW250 17/08 A3016 RMK VA SLP213 T01670083,NA
LGA,1973-09-13T13:00:00Z,-73.8803,40.7794,64.94,45.86,49.98,280,6,NA,30.18,1022,15,NA,SCT,   ,   ,   ,25000,NA,NA,NA,NA,NA,NA,NA,NA,NA,NA,64.94,METAR KLGA 131300Z 28006KT 15SM SCT250 18/08 A3018 RMK VA SLP220 T01830077,NA
LGA,1973-09-13T14:00:00Z,-73.8803,40.7794,68,44.96,43.44,310,6,NA,30.2,1022.7,15,NA,BKN,   ,   ,   ,25000,NA,NA,NA,NA,NA,NA,NA,NA,NA,NA,68,METAR KLGA 131400Z 31006KT 15SM BKN250 20/07 A3020 RMK VA SLP227 T02000072,NA
LGA,1973-09-13T15:00:00Z,-73.8803,40.7794,69.98,46.04,42.29,320,6,NA,30.21,1023,10,NA,BKN,   ,   ,   ,25000,NA,NA,NA,NA,NA,NA,NA,NA,NA,NA,69.98,METAR KLGA 131500Z 32006KT 10SM BKN250 21/08 A3021 RMK VA SLP230 8/001 T02110078 51017,NA
LGA,1973-09-13T16:00:00Z,-73.8803,40.7794,73.94,43.88,34.07,270,8,NA,30.21,1023,15,NA,BKN,   ,   ,   ,25000,NA,NA,NA,NA,NA,NA,NA,NA,NA,NA,72.64,METAR KLGA 131600Z 27008KT 15SM BKN250 23/07 A3021 RMK FEW CU VA SLP230 T02330066,NA
LGA,1973-09-13T17:00:00Z,-73.8803,40.7794,73.94,42.98,32.91,240,7,NA,30.19,1022.4,15,NA,OVC,   ,   ,   ,25000,NA,NA,NA,NA,NA,NA,NA,NA,NA,NA,72.58,METAR KLGA 131700Z 24007KT 15SM OVC250 23/06 A3019 RMK FEW CU VA SLP224 T02330061,NA
LGA,1973-09-13T18:00:00Z,-73.8803,40.7794,75.92,42.08,29.76,260,12,NA,30.18,1022,15,NA,BKN,   ,   ,   ,25000,NA,NA,NA,NA,NA,NA,NA,NA,NA,NA,74.61,METAR KLGA 131800Z 26012KT 15SM BKN250 24/06 A3018 RMK FEW CU VA SLP220 T02440056,NA
LGA,1973-09-13T19:00:00Z,-73.8803,40.7794,77,41.9,28.51,300,10,NA,30.17,1021.7,15,NA,SCT,BKN,   ,   ,5000,25000,NA,NA,NA,NA,NA,NA,NA,NA,NA,75.74,METAR KLGA 131900Z 30010KT 15SM SCT050 BKN250 25/06 A3017 RMK VA SLP217 T02500055,NA
LGA,1973-09-13T20:00:00Z,-73.8803,40.7794,75.92,41.9,29.55,290,9,NA,30.16,1021.3,15,NA,BKN,   ,   ,   ,25000,NA,NA,NA,NA,NA,NA,NA,NA,NA,NA,74.6,METAR KLGA 132000Z 29009KT 15SM BKN250 24/06 A3016 RMK / VA SLP213 T02440055,NA
LGA,1973-09-13T21:00:00Z,-73.8803,40.7794,75.92,44.06,32.1,240,6,NA,30.16,1021.3,15,NA,SCT,BKN,   ,   ,5000,25000,NA,NA,NA,NA,NA,NA,NA,NA,NA,74.72,METAR KLGA 132100Z 24006KT 15SM SCT050 BKN250 24/07 A3016 RMK / 1106/ VA SLP213 T02440067 56007,NA
LGA,1973-09-13T22:00:00Z,-73.8803,40.7794,72.86,47.84,41.05,160,15,NA,30.16,1021.3,15,NA,SCT,SCT,BKN,   ,6000,12000,20000,NA,NA,NA,NA,NA,NA,NA,NA,71.78,METAR KLGA 132200Z 16015KT 15SM SCT060 SCT120 BKN200 23/09 A3016 RMK / VA SLP213 T02270088,NA
LGA,1973-09-13T23:00:00Z,-73.8803,40.7794,70.88,48.92,45.71,200,14,NA,30.17,1021.7,15,NA,SCT,BKN,   ,   ,8000,20000,NA,NA,NA,NA,NA,NA,NA,NA,NA,69.82,METAR KLGA 132300Z 20014KT 15SM SCT080 BKN200 22/09 A3017 RMK SLP217 T02160094,NA
LGA,1973-09-14T00:00:00Z,-73.8803,40.7794,69.08,48.92,48.6,180,12,NA,30.16,1021.3,15,NA,SCT,BKN,   ,   ,10000,20000,NA,NA,NA,NA,NA,NA,NA,NA,NA,69.08,METAR KLGA 140000Z 18012KT 15SM SCT100 BKN200 21/09 A3016 RMK SLP213 T02060094,NA
LGA,1973-09-14T01:00:00Z,-73.8803,40.7794,68.9,50,50.91,200,12,NA,30.19,1022.4,15,NA,SCT,BKN,   ,   ,10000,20000,NA,NA,NA,NA,NA,NA,NA,NA,NA,68.9,METAR KLGA 140100Z 20012KT 15SM SCT100 BKN200 20/10 A3019 RMK SLP224 T02050100,NA
LGA,1973-09-14T02:00:00Z,-73.8803,40.7794,66.92,50,54.51,200,8,NA,30.17,1021.7,15,NA,SCT,BKN,   ,   ,10000,20000,NA,NA,NA,NA,NA,NA,NA,NA,NA,66.92,METAR KLGA 140200Z 20008KT 15SM SCT100 BKN200 19/10 A3017 RMK VA SLP217 T01940100,NA
LGA,1973-09-14T03:00:00Z,-73.8803,40.7794,66.92,51.08,56.73,210,7,NA,30.18,1022,15,NA,SCT,BKN,   ,   ,10000,20000,NA,NA,NA,NA,NA,NA,NA,NA,NA,66.92,METAR KLGA 140300Z 21007KT 15SM SCT100 BKN200 19/11 A3018 RMK / SLP220 8/036 T01940106 50007,NA
LGA,1973-09-14T04:00:00Z,-73.8803,40.7794,68,52.88,58.41,200,5,NA,30.18,1022,15,NA,BKN,BKN,OVC,   ,5000,10000,20000,NA,NA,NA,NA,NA,NA,NA,NA,68,METAR KLGA 140400Z 20005KT 15SM BKN050 BKN100 OVC200 20/12 A3018 RMK SLP220 T02000116,NA
LGA,1973-09-14T05:00:00Z,-73.8803,40.7794,68,52.88,58.41,190,5,NA,30.19,1022.4,15,NA,BKN,BKN,OVC,   ,5000,10000,20000,NA,NA,NA,NA,NA,NA,NA,NA,68,METAR KLGA 140500Z 19005KT 15SM BKN050 BKN100 OVC200 20/12 A3019 RMK SLP224 T02000116,NA
LGA,1973-09-14T06:00:00Z,-73.8803,40.7794,68,53.96,60.77,160,5,NA,30.17,1021.7,10,NA,BKN,BKN,   ,   ,7000,10000,NA,NA,NA,NA,NA,NA,NA,NA,NA,68,METAR KLGA 140600Z 16005KT 10SM BKN070 BKN100 20/12 A3017 RMK SLP217 T02000122,NA
LGA,1973-09-14T07:00:00Z,-73.8803,40.7794,68,55.94,65.31,140,7,NA,30.16,1021.3,10,NA,SCT,BKN,BKN,   ,5000,7000,12000,NA,NA,NA,NA,NA,NA,NA,NA,68,METAR KLGA 140700Z 14007KT 10SM SCT050 BKN070 BKN120 20/13 A3016 RMK SLP213 T02000133,NA
LGA,1973-09-14T08:00:00Z,-73.8803,40.7794,68,57.92,70.15,90,6,NA,30.15,1021,10,NA,BKN,OVC,   ,   ,5000,10000,NA,NA,NA,NA,NA,NA,NA,NA,NA,68,METAR KLGA 140800Z 09006KT 10SM BKN050 OVC100 20/14 A3015 RMK SLP210 T02000144,NA
LGA,1973-09-14T09:00:00Z,-73.8803,40.7794,66.92,57.92,72.81,80,9,NA,30.13,1020.3,10,NA,BKN,OVC,   ,   ,4900,10000,NA,NA,NA,NA,NA,NA,NA,NA,NA,66.92,METAR KLGA 140900Z 08009KT 10SM BKN049 OVC100 19/14 A3013 RMK / SLP203 8/57/ T01940144 58015,NA
LGA,1973-09-14T10:00:00Z,-73.8803,40.7794,68,59,72.92,90,7,NA,30.11,1019.6,10,NA,OVC,   ,   ,   ,5000,NA,NA,NA,NA,NA,NA,NA,NA,NA,NA,68,METAR KLGA 141000Z 09007KT 10SM OVC050 20/15 A3011 RMK VA SLP196 T02000150,NA
LGA,1973-09-14T11:00:00Z,-73.8803,40.7794,68,57.92,70.15,130,10,NA,30.09,1019,10,NA,SCT,OVC,   ,   ,5000,12000,NA,NA,NA,NA,NA,NA,NA,NA,NA,68,METAR KLGA 141100Z 13010KT 10SM SCT050 OVC120 20/14 A3009 RMK VA SLP190 T02000144,NA
LGA,1973-09-14T12:00:00Z,-73.8803,40.7794,69.08,57.92,67.59,90,9,NA,30.08,1018.6,10,NA,BKN,OVC,   ,   ,5000,12000,NA,NA,NA,NA,NA,NA,NA,NA,NA,69.08,METAR KLGA 141200Z 09009KT 10SM BKN050 OVC120 21/14 A3008 RMK SLP186 T02060144,NA
LGA,1973-09-14T13:00:00Z,-73.8803,40.7794,68.9,57.92,68.01,130,10,NA,30.06,1018,10,NA,BKN,OVC,   ,   ,5000,12000,NA,NA,NA,NA,NA,NA,NA,NA,NA,68.9,METAR KLGA 141300Z 13010KT 10SM BKN050 OVC120 20/14 A3006 RMK SLP180 T02050144,NA
LGA,1973-09-14T14:00:00Z,-73.8803,40.7794,70.88,59,66.07,120,9,NA,30.06,1018,8,NA,BKN,OVC,   ,   ,5000,10000,NA,NA,-RA,NA,NA,NA,NA,NA,NA,70.88,METAR KLGA 141400Z 12009KT 8SM -RA BKN050 OVC100 22/15 A3006 RMK RB40LGA DME OTS SLP180 T02160150 590/6,NA
LGA,1973-09-14T15:00:00Z,-73.8803,40.7794,69.98,60.98,73.11,120,10,0.01,30.05,1017.6,8,NA,SCT,BKN,OVC,   ,3000,5000,10000,NA,-RA,NA,NA,NA,NA,NA,NA,69.98,METAR KLGA 141500Z 12010KT 8SM -RA SCT030 BKN050 OVC100 21/16 A3005 RMK SLP176 P0001 8/5// T02110161 57010,NA
LGA,1973-09-14T16:00:00Z,-73.8803,40.7794,70.88,59.9,68.23,110,10,NA,30.03,1016.9,10,NA,SCT,BKN,OVC,   ,3000,5000,10000,NA,NA,NA,NA,NA,NA,NA,NA,70.88,METAR KLGA 141600Z 11010KT 10SM SCT030 BKN050 OVC100 22/16 A3003 RMK RE25 VA SLP169 T02160155,NA
LGA,1973-09-14T17:00:00Z,-73.8803,40.7794,69.98,61.88,75.48,120,10,0.01,30.01,1016.3,8,NA,BKN,OVC,   ,   ,3700,7000,NA,NA,-RA,NA,NA,NA,NA,NA,NA,69.98,METAR KLGA 141700Z 12010KT 8SM -RA BKN037 OVC070 21/17 A3001 RMK RB01 VA SLP163 P0001 T02110166,NA
LGA,1973-09-14T18:00:00Z,-73.8803,40.7794,69.98,62.96,78.41,100,9,NA,29.98,1015.2,8,NA,SCT,OVC,   ,   ,3500,7000,NA,NA,-RA,NA,NA,NA,NA,NA,NA,69.98,METAR KLGA 141800Z 10009KT 8SM -RA SCT035 OVC070 21/17 A2998 RMK SLP152 60001 T02110172,NA
LGA,1973-09-14T19:00:00Z,-73.8803,40.7794,69.98,60.98,73.11,120,10,NA,29.95,1014.2,8,NA,SCT,OVC,   ,   ,2500,6000,NA,NA,-RA,NA,NA,NA,NA,NA,NA,69.98,METAR KLGA 141900Z 12010KT 8SM -RA SCT025 OVC060 21/16 A2995 RMK SLP142 T02110161,NA
LGA,1973-09-14T20:00:00Z,-73.8803,40.7794,68,61.88,80.78,100,12,0.04,29.94,1013.9,6,NA,SCT,BKN,OVC,   ,1800,3300,5000,NA,-RA,NA,NA,NA,NA,NA,NA,68,METAR KLGA 142000Z 10012KT 6SM -RA SCT018 BKN033 OVC050 20/17 A2994 RMK SLP139 P0004 T02000166,NA
LGA,1973-09-14T21:00:00Z,-73.8803,40.7794,66.02,62.96,89.86,110,13,0.07,29.92,1013.2,4,NA,SCT,BKN,OVC,   ,1600,2400,3500,NA,-RA FG,NA,NA,NA,NA,NA,NA,66.02,METAR KLGA 142100Z 11013KT 4SM -RA FG SCT016 BKN024 OVC035 19/17 A2992 RMK / SLP132 P0007 8/52/ T01890172 50009,NA
LGA,1973-09-14T22:00:00Z,-73.8803,40.7794,64.94,61.88,89.82,90,15,0.05,29.88,1011.9,4,NA,SCT,BKN,OVC,   ,800,1200,3000,NA,-RA FG,NA,NA,NA,NA,NA,NA,64.94,METAR KLGA 142200Z 09015KT 4SM -RA FG SCT008 BKN012 OVC030 18/17 A2988 RMK LGA9/7 SLP119 P0005 T01830166,NA
LGA,1973-09-14T23:05:00Z,-73.8803,40.7794,NA,NA,NA,80,14,NA,29.87,NA,2.5,NA,SCT,BKN,OVC,NA,700,900,2500,NA,NA,NA,NA,NA,NA,NA,NA,NA,KLGA 142305Z AUTO 08014KT 2 1/2SM SCT007 BKN009 OVC025 A2987 RMK IEM_DS3505,NA
LGA,1973-09-15T00:00:00Z,-73.8803,40.7794,62.96,60.98,93.25,70,17,0.2,29.84,1010.5,3,NA,SCT,BKN,OVC,   ,700,900,1800,NA,RA FG,NA,NA,NA,NA,NA,NA,62.96,METAR KLGA 150000Z 07017KT 3SM RA FG SCT007 BKN009 OVC018 17/16 A2984 RMK CIG 8V10 SLP105 P0020 T01720161,NA
LGA,1973-09-15T01:00:00Z,-73.8803,40.7794,62.96,59.9,89.73,60,14,0.12,29.85,1010.8,4,NA,SCT,BKN,OVC,   ,700,900,1800,NA,RA FG,NA,NA,NA,NA,NA,NA,62.96,METAR KLGA 150100Z 06014KT 4SM RA FG SCT007 BKN009 OVC018 17/16 A2985 RMK CIG8V10 SLP108 P0012 T01720155,NA
LGA,1973-09-15T02:00:00Z,-73.8803,40.7794,61.88,60.98,96.86,80,14,0.16,29.82,1009.8,4,NA,SCT,BKN,OVC,   ,700,900,2000,NA,-RA FG,NA,NA,NA,NA,NA,NA,61.88,METAR KLGA 150200Z 08014KT 4SM -RA FG SCT007 BKN009 OVC020 17/16 A2982 RMK SLP098 P0016 T01660161,NA
LGA,1973-09-15T03:00:00Z,-73.8803,40.7794,60.98,59,93.19,70,18,0.11,29.81,1009.5,4,NA,SCT,OVC,   ,   ,800,1200,NA,NA,-RA FG,NA,NA,NA,NA,NA,NA,60.98,METAR KLGA 150300Z 07018KT 4SM -RA FG SCT008 OVC012 16/15 A2981 RMK / SLP095 P0011 8/7// T01610150 58010,NA
LGA,1973-09-15T04:00:00Z,-73.8803,40.7794,60.98,59.9,96.23,50,19,0.15,29.8,1009.1,4,NA,SCT,OVC,   ,   ,900,1400,NA,NA,-RA FG,NA,NA,NA,NA,NA,NA,60.98,METAR KLGA 150400Z 05019KT 4SM -RA FG SCT009 OVC014 16/16 A2980 RMK SLP091 P0015 T01610155,NA
LGA,1973-09-15T05:00:00Z,-73.8803,40.7794,59.9,59,96.84,50,18,0.15,29.79,1008.8,4,NA,SCT,OVC,   ,   ,500,1100,NA,NA,-RA FG,NA,NA,NA,NA,NA,NA,59.9,METAR KLGA 150500Z 05018KT 4SM -RA FG SCT005 OVC011 16/15 A2979 RMK SLP088 P0015 T01550150,NA
LGA,1973-09-15T06:00:00Z,-73.8803,40.7794,60.08,57.92,92.56,40,20,0.02,29.77,1008.1,7,NA,SCT,OVC,   ,   ,600,1300,NA,NA,-RA,NA,NA,NA,NA,NA,NA,60.08,METAR KLGA 150600Z 04020KT 7SM -RA SCT006 OVC013 16/14 A2977 RMK SLP081 P0002 60075 T01560144,NA
LGA,1973-09-15T07:00:00Z,-73.8803,40.7794,57.92,54.86,89.52,20,15,0.01,29.77,1008.1,7,NA,SCT,OVC,   ,   ,600,1000,NA,NA,NA,NA,NA,NA,NA,NA,NA,57.92,METAR KLGA 150700Z 02015KT 7SM SCT006 OVC010 14/13 A2977 RMK RE06 SLP081 P0001 T01440127,NA
LGA,1973-09-15T08:00:00Z,-73.8803,40.7794,57.92,54.86,89.52,20,13,NA,29.75,1007.5,8,NA,SCT,OVC,   ,   ,900,1400,NA,NA,NA,NA,NA,NA,NA,NA,NA,57.92,METAR KLGA 150800Z 02013KT 8SM SCT009 OVC014 14/13 A2975 RMK SLP075 T01440127,NA
LGA,1973-09-15T09:00:00Z,-73.8803,40.7794,57.92,55.04,90.11,360,13,NA,29.77,1008.1,8,NA,OVC,   ,   ,   ,1600,NA,NA,NA,NA,NA,NA,NA,NA,NA,NA,57.92,METAR KLGA 150900Z 36013KT 8SM OVC016 14/13 A2977 RMK / LGB MU4HK 149/65/53/0000/997/SFC VSBY 3/ 000 15//LGB7/15 SLP081 8/5// T01440128 55000,NA
LGA,1973-09-15T10:00:00Z,-73.8803,40.7794,57.92,54.86,89.52,10,11,NA,29.8,1009.1,10,NA,BKN,OVC,   ,   ,1800,3000,NA,NA,NA,NA,NA,NA,NA,NA,NA,57.92,METAR KLGA 151000Z 01011KT 10SM BKN018 OVC030 14/13 A2980 RMK VA SLP091 T01440127,NA
LGA,1973-09-15T11:00:00Z,-73.8803,40.7794,59,54.86,86.12,10,12,NA,29.82,1009.8,10,NA,BKN,OVC,   ,   ,2000,3000,NA,NA,NA,NA,NA,NA,NA,NA,NA,59,METAR KLGA 151100Z 01012KT 10SM BKN020 OVC030 15/13 A2982 RMK VA SLP098 T01500127,NA
LGA,1973-09-15T12:00:00Z,-73.8803,40.7794,60.08,55.04,83.41,10,10,NA,29.84,1010.5,15,NA,SCT,OVC,   ,   ,2000,3000,NA,NA,NA,NA,NA,NA,NA,NA,NA,60.08,METAR KLGA 151200Z 01010KT 15SM SCT020 OVC030 16/13 A2984 RMK BINOVC SLP105 60001 70118 T01560128,NA
LGA,1973-09-15T13:00:00Z,-73.8803,40.7794,60.98,55.94,83.47,10,10,NA,29.86,1011.2,15,NA,BKN,OVC,   ,   ,1600,2800,NA,NA,NA,NA,NA,NA,NA,NA,NA,60.98,METAR KLGA 151300Z 01010KT 15SM BKN016 OVC028 16/13 A2986 RMK OCNL BINOVC SLP112 T01610133,NA
LGA,1973-09-15T14:00:00Z,-73.8803,40.7794,62.96,56.84,80.41,20,10,NA,29.87,1011.5,15,NA,BKN,OVC,   ,   ,1800,5000,NA,NA,NA,NA,NA,NA,NA,NA,NA,62.96,METAR KLGA 151400Z 02010KT 15SM BKN018 OVC050 17/14 A2987 RMK OCNL BINOVC SLP115 T01720138,NA
LGA,1973-09-15T15:00:00Z,-73.8803,40.7794,64.04,57.02,77.92,10,10,NA,29.89,1012.2,15,NA,SCT,OVC,   ,   ,1800,4500,NA,NA,NA,NA,NA,NA,NA,NA,NA,64.04,METAR KLGA 151500Z 01010KT 15SM SCT018 OVC045 18/14 A2989 RMK SLP122 T01780139,NA
LGA,1973-09-15T16:00:00Z,-73.8803,40.7794,63.86,56.84,77.9,360,10,NA,29.89,1012.2,15,NA,SCT,BKN,OVC,   ,2000,3900,5000,NA,NA,NA,NA,NA,NA,NA,NA,63.86,METAR KLGA 151600Z 36010KT 15SM SCT020 BKN039 OVC050 18/14 A2989 RMK VA SLP122 T01770138,NA
LGA,1973-09-15T17:00:00Z,-73.8803,40.7794,65.84,56.84,72.7,340,8,NA,29.88,1011.9,15,NA,SCT,BKN,BKN,   ,2500,5000,7000,NA,NA,NA,NA,NA,NA,NA,NA,65.84,METAR KLGA 151700Z 34008KT 15SM SCT025 BKN050 BKN070 19/14 A2988 RMK VA SLP119 T01880138,NA
LGA,1973-09-15T18:00:00Z,-73.8803,40.7794,69.08,59,70.26,310,8,NA,29.88,1011.9,15,NA,SCT,BKN,BKN,   ,2500,3600,7000,NA,NA,NA,NA,NA,NA,NA,NA,69.08,METAR KLGA 151800Z 31008KT 15SM SCT025 BKN036 BKN070 21/15 A2988 RMK VA SLP119 T02060150,NA
LGA,1973-09-15T19:00:00Z,-73.8803,40.7794,69.98,59,68.13,310,8,NA,29.88,1011.9,15,NA,SCT,OVC,   ,   ,2500,3700,NA,NA,NA,NA,NA,NA,NA,NA,NA,69.98,METAR KLGA 151900Z 31008KT 15SM SCT025 OVC037 21/15 A2988 RMK / BINOVC SLP119 T02110150,NA
LGA,1973-09-15T20:00:00Z,-73.8803,40.7794,68.9,57.92,68.01,310,9,NA,29.88,1011.9,15,NA,BKN,OVC,   ,   ,2600,3700,NA,NA,NA,NA,NA,NA,NA,NA,NA,68.9,METAR KLGA 152000Z 31009KT 15SM BKN026 OVC037 20/14 A2988 RMK BINOVC SLP119 T02050144,NA
LGA,1973-09-15T21:00:00Z,-73.8803,40.7794,69.08,59,70.26,310,10,NA,29.89,1012.2,15,NA,BKN,OVC,   ,   ,2800,3700,NA,NA,NA,NA,NA,NA,NA,NA,NA,69.08,METAR KLGA 152100Z 31010KT 15SM BKN028 OVC037 21/15 A2989 RMK / V%/ SLP122 8/5// T02060150 53005,NA
LGA,1973-09-15T21:15:00Z,-73.8803,40.7794,NA,NA,NA,310,7,NA,29.89,NA,13,NA,SCT,OVC,NA,NA,2800,3900,NA,NA,NA,NA,NA,NA,NA,NA,NA,NA,KLGA 152115Z AUTO 31007KT 13SM SCT028 OVC039 A2989 RMK IEM_DS3505,NA
LGA,1973-09-15T22:00:00Z,-73.8803,40.7794,68.9,57.92,68.01,290,6,NA,29.89,1012.2,15,NA,SCT,BKN,   ,   ,3000,4600,NA,NA,NA,NA,NA,NA,NA,NA,NA,68.9,METAR KLGA 152200Z 29006KT 15SM SCT030 BKN046 20/14 A2989 RMK SLP122 T02050144,NA
LGA,1973-09-15T23:00:00Z,-73.8803,40.7794,68,57.92,70.15,310,5,NA,29.9,1012.5,15,NA,SCT,   ,   ,   ,4500,NA,NA,NA,NA,NA,NA,NA,NA,NA,NA,68,METAR KLGA 152300Z 31005KT 15SM SCT045 20/14 A2990 RMK SLP125 T02000144,NA
LGA,1973-09-16T00:00:00Z,-73.8803,40.7794,66.02,59,78.08,330,6,NA,29.91,1012.9,10,NA,CLR,   ,   ,   ,NA,NA,NA,NA,NA,NA,NA,NA,NA,NA,NA,66.02,METAR KLGA 160000Z 33006KT 10SM CLR 19/15 A2991 RMK VA Z SLP129 T01890150,NA
LGA,1973-09-16T01:00:00Z,-73.8803,40.7794,65.84,59,78.57,270,4,NA,29.93,1013.5,10,NA,CLR,   ,   ,   ,NA,NA,NA,NA,NA,NA,NA,NA,NA,NA,NA,65.84,METAR KLGA 160100Z 27004KT 10SM CLR 19/15 A2993 RMK VA SLP135 T01880150,NA
LGA,1973-09-16T02:00:00Z,-73.8803,40.7794,64.94,57.92,77.99,250,5,NA,29.94,1013.9,10,NA,CLR,   ,   ,   ,NA,NA,NA,NA,NA,NA,NA,NA,NA,NA,NA,64.94,METAR KLGA 160200Z 25005KT 10SM CLR 18/14 A2994 RMK VA SLP139 T01830144,NA
LGA,1973-09-16T03:00:00Z,-73.8803,40.7794,64.94,59,81.07,0,0,NA,29.95,1014.2,10,NA,CLR,   ,   ,   ,NA,NA,NA,NA,NA,NA,NA,NA,NA,NA,NA,64.94,METAR KLGA 160300Z 00000KT 10SM CLR 18/15 A2995 RMK VA SLP142 T01830150 51014,NA
LGA,1973-09-16T05:00:00Z,-73.8803,40.7794,61.88,57.92,86.84,210,9,NA,29.96,1014.6,10,NA,CLR,   ,   ,   ,NA,NA,NA,NA,NA,NA,NA,NA,NA,NA,NA,61.88,METAR KLGA 160500Z 21009KT 10SM CLR 17/14 A2996 RMK SLP146 T01660144,NA
LGA,1973-09-16T06:00:00Z,-73.8803,40.7794,64.04,60.08,86.95,240,6,NA,29.96,1014.6,8,NA,CLR,   ,   ,   ,NA,NA,NA,NA,NA,NA,NA,NA,NA,NA,NA,64.04,METAR KLGA 160600Z 24006KT 8SM CLR 18/16 A2996 RMK SLP146 T01780156,NA
LGA,1973-09-16T07:00:00Z,-73.8803,40.7794,62.96,59.9,89.73,230,5,NA,29.96,1014.6,7,NA,CLR,   ,   ,   ,NA,NA,NA,NA,NA,NA,NA,NA,NA,NA,NA,62.96,METAR KLGA 160700Z 23005KT 7SM CLR 17/16 A2996 RMK SLP146 T01720155,NA
LGA,1973-09-16T08:00:00Z,-73.8803,40.7794,62.96,59.9,89.73,220,7,NA,29.96,1014.6,7,NA,CLR,   ,   ,   ,NA,NA,NA,NA,NA,NA,NA,NA,NA,NA,NA,62.96,METAR KLGA 160800Z 22007KT 7SM CLR 17/16 A2996 RMK SLP146 T01720155,NA
LGA,1973-09-16T09:00:00Z,-73.8803,40.7794,64.04,60.08,86.95,210,6,NA,29.96,1014.6,7,NA,CLR,   ,   ,   ,NA,NA,NA,NA,NA,NA,NA,NA,NA,NA,NA,64.04,METAR KLGA 160900Z 21006KT 7SM CLR 18/16 A2996 RMK / SLP146 T01780156 54000,NA
LGA,1973-09-16T10:00:00Z,-73.8803,40.7794,62.96,60.98,93.25,230,4,NA,29.97,1014.9,5,NA,CLR,   ,   ,   ,NA,NA,NA,NA,MIBCFG,NA,NA,NA,NA,NA,NA,62.96,METAR KLGA 161000Z 23004KT 5SM MIBCFG CLR 17/16 A2997 RMK SLP149 T01720161,NA
LGA,1973-09-16T10:31:00Z,-73.8803,40.7794,NA,NA,NA,230,5,NA,29.97,NA,2.5,NA,NA,NA,NA,NA,NA,NA,NA,NA,NA,NA,NA,NA,NA,NA,NA,NA,KLGA 161031Z AUTO 23005KT 2 1/2SM POB000 A2997 RMK IEM_DS3505,NA
LGA,1973-09-16T11:00:00Z,-73.8803,40.7794,62.96,60.98,93.25,220,9,NA,29.98,1015.2,2.5,NA,OVC,   ,   ,   ,NA,NA,NA,NA,MIBCFG,NA,NA,NA,NA,NA,NA,62.96,METAR KLGA 161100Z 22009KT 21/2SM MIBCFG OVC/// 17/16 A2998 RMK GF3LGA DME OTS SLP152 T01720161 590/8,NA
LGA,1973-09-16T12:00:00Z,-73.8803,40.7794,62.96,60.98,93.25,240,6,NA,29.98,1015.2,1.5,NA,OVC,SCT,   ,   ,NA,NA,NA,NA,FG,NA,NA,NA,NA,NA,NA,62.96,METAR KLGA 161200Z 24006KT 11/2SM FG OVC/// SCT/// 17/16 A2998 RMK GF4 FEW SC12 SLP152 T01720161,NA
LGA,1973-09-16T13:00:00Z,-73.8803,40.7794,64.94,60.98,87,260,7,NA,30,1015.9,2.5,NA,OVC,   ,   ,   ,NA,NA,NA,NA,MIBCFG,NA,NA,NA,NA,NA,NA,64.94,METAR KLGA 161300Z 26007KT 21/2SM MIBCFG OVC/// 18/16 A3000 RMK / F3 SLP159 T01830161,NA
LGA,1973-09-16T13:17:00Z,-73.8803,40.7794,NA,NA,NA,250,5,NA,30,NA,3,NA,NA,NA,NA,NA,NA,NA,NA,NA,NA,NA,NA,NA,NA,NA,NA,NA,KLGA 161317Z AUTO 25005KT 3SM POB000 A3000 RMK IEM_DS3505,NA
LGA,1973-09-16T14:00:00Z,-73.8803,40.7794,68,59.9,75.3,210,5.04,NA,30,NA,4,NA,   ,   ,   ,   ,NA,NA,NA,NA,NA,NA,NA,NA,NA,NA,NA,68,METAR KLGA 161400Z 21005KT 4SM FUDZ OVC/// 20/16 A3000 RMK HK1 SLP159 T02000155,NA
LGA,1973-09-16T15:00:00Z,-73.8803,40.7794,73,60.1,63.96,300,6,NA,30,NA,5,NA,   ,   ,   ,   ,NA,NA,NA,NA,NA,NA,NA,NA,NA,NA,NA,73,METAR KLGA 161500Z 30006KT 5SM FUDZ OVC/// 23/16 A3000 RMK HK1 SLP159 T02280156 51007,NA
LGA,1973-09-16T16:00:00Z,-73.8803,40.7794,73.9,57.9,57.36,270,7.04,NA,29.99,NA,5,NA,   ,   ,   ,   ,NA,NA,NA,NA,NA,NA,NA,NA,NA,NA,NA,73.9,METAR KLGA 161600Z 27007KT 5SM FUDZ CLR 23/14 A2999 RMK VA SLP156 T02330144,NA
LGA,1973-09-16T17:00:00Z,-73.8803,40.7794,77,59,53.8,290,10,NA,29.98,1015.2,8,NA,SCT,   ,   ,   ,4000,NA,NA,NA,NA,NA,NA,NA,NA,NA,NA,77,METAR KLGA 161700Z 29010KT 8SM SCT040 25/15 A2998 RMK VA SLP152 T02500150,NA
LGA,1973-09-16T18:00:00Z,-73.8803,40.7794,77,57.92,51.76,290,8,NA,29.96,1014.6,9,NA,SCT,   ,   ,   ,4000,NA,NA,NA,NA,NA,NA,NA,NA,NA,NA,77,METAR KLGA 161800Z 29008KT 9SM SCT040 25/14 A2996 RMK VA SLP146 T02500144,NA
LGA,1973-09-16T19:00:00Z,-73.8803,40.7794,77,56.84,49.78,290,14,NA,29.96,1014.6,10,NA,SCT,OVC,   ,   ,4500,5000,NA,NA,NA,NA,NA,NA,NA,NA,NA,77,METAR KLGA 161900Z 29014KT 10SM SCT045 OVC050 25/14 A2996 RMK VA SLP146 T02500138,NA
LGA,1973-09-16T20:00:00Z,-73.8803,40.7794,75.92,56.84,51.6,290,9,NA,29.97,1014.9,10,NA,SCT,BKN,   ,   ,4500,5000,NA,NA,NA,NA,NA,NA,NA,NA,NA,75.92,METAR KLGA 162000Z 29009KT 10SM SCT045 BKN050 24/14 A2997 RMK VA SLP149 T02440138,NA
LGA,1973-09-16T21:00:00Z,-73.8803,40.7794,75.92,57.02,51.94,300,10,NA,29.98,1015.2,15,NA,SCT,BKN,   ,   ,4500,7000,NA,NA,NA,NA,NA,NA,NA,NA,NA,75.92,METAR KLGA 162100Z 30010KT 15SM SCT045 BKN070 24/14 A2998 RMK / VA SLP152 8/570 T02440139 53007,NA
LGA,1973-09-16T22:00:00Z,-73.8803,40.7794,73.94,57.92,57.32,340,10,NA,30.01,1016.3,15,NA,SCT,BKN,   ,   ,4500,7000,NA,NA,NA,NA,NA,NA,NA,NA,NA,73.94,METAR KLGA 162200Z 34010KT 15SM SCT045 BKN070 23/14 A3001 RMK VA SLP163 T02330144,NA
LGA,1973-09-16T23:00:00Z,-73.8803,40.7794,70.88,56.84,61.14,350,7,NA,30.03,1016.9,15,NA,BKN,BKN,   ,   ,6000,8000,NA,NA,NA,NA,NA,NA,NA,NA,NA,70.88,METAR KLGA 162300Z 35007KT 15SM BKN060 BKN080 22/14 A3003 RMK VA SLP169 T02160138,NA
LGA,1973-09-17T00:00:00Z,-73.8803,40.7794,69.98,57.02,63.45,360,6,NA,30.05,1017.6,15,NA,BKN,   ,   ,   ,6000,NA,NA,NA,NA,NA,NA,NA,NA,NA,NA,69.98,METAR KLGA 170000Z 36006KT 15SM BKN060 21/14 A3005 RMK VA SLP176 T02110139,NA
LGA,1973-09-17T01:00:00Z,-73.8803,40.7794,68,54.86,62.8,320,12,NA,30.08,1018.6,15,NA,SCT,   ,   ,   ,6000,NA,NA,NA,NA,NA,NA,NA,NA,NA,NA,68,METAR KLGA 170100Z 32012KT 15SM SCT060 20/13 A3008 RMK VA SLP186 T02000127,NA
LGA,1973-09-17T02:00:00Z,-73.8803,40.7794,65.84,54.86,67.67,320,8,NA,30.09,1019,15,NA,SCT,   ,   ,   ,6000,NA,NA,NA,NA,NA,NA,NA,NA,NA,NA,65.84,METAR KLGA 170200Z 32008KT 15SM SCT060 19/13 A3009 RMK VA SLP190 T01880127,NA
LGA,1973-09-17T03:00:00Z,-73.8803,40.7794,64.94,53.96,67.57,340,8,NA,30.1,1019.3,15,NA,SCT,   ,   ,   ,6000,NA,NA,NA,NA,NA,NA,NA,NA,NA,NA,64.94,METAR KLGA 170300Z 34008KT 15SM SCT060 18/12 A3010 RMK VA SLP193 8/030 T01830122 51017,NA
LGA,1973-09-17T04:00:00Z,-73.8803,40.7794,64.94,53.96,67.57,360,8,NA,30.12,1020,15,NA,SCT,   ,   ,   ,6000,NA,NA,NA,NA,NA,NA,NA,NA,NA,NA,64.94,METAR KLGA 170400Z 36008KT 15SM SCT060 18/12 A3012 RMK SLP200 T01830122,NA
LGA,1973-09-17T05:00:00Z,-73.8803,40.7794,64.94,53.96,67.57,360,9,NA,30.14,1020.7,15,NA,BKN,OVC,   ,   ,4600,6000,NA,NA,NA,NA,NA,NA,NA,NA,NA,64.94,METAR KLGA 170500Z 36009KT 15SM BKN046 OVC060 18/12 A3014 RMK WND 340V020 SLP207 T01830122,NA
LGA,1973-09-17T06:00:00Z,-73.8803,40.7794,64.04,53.06,67.46,340,8,NA,30.15,1021,15,NA,BKN,OVC,   ,   ,4900,7000,NA,NA,NA,NA,NA,NA,NA,NA,NA,64.04,METAR KLGA 170600Z 34008KT 15SM BKN049 OVC070 18/12 A3015 RMK WND 310V010 SLP210 T01780117,NA
LGA,1973-09-17T07:00:00Z,-73.8803,40.7794,62.96,50,62.58,350,11,NA,30.17,1021.7,15,NA,BKN,OVC,   ,   ,4900,6000,NA,NA,NA,NA,NA,NA,NA,NA,NA,62.96,METAR KLGA 170700Z 35011KT 15SM BKN049 OVC060 17/10 A3017 RMK WND 330V010 SLP217 T01720100,NA
LGA,1973-09-17T08:00:00Z,-73.8803,40.7794,60.98,50.9,69.39,20,12,NA,30.18,1022,15,NA,SCT,BKN,OVC,   ,2400,5000,7000,NA,NA,NA,NA,NA,NA,NA,NA,60.98,METAR KLGA 170800Z 02012KT 15SM SCT024 BKN050 OVC070 16/11 A3018 RMK WND 360V040 SLP220 T01610105,NA
LGA,1973-09-17T09:00:00Z,-73.8803,40.7794,59,46.04,62.07,20,13,NA,30.2,1022.7,15,NA,OVC,   ,   ,   ,4900,NA,NA,NA,NA,NA,NA,NA,NA,NA,NA,59,METAR KLGA 170900Z 02013KT 15SM OVC049 15/08 A3020 RMK BINOVC WND 360V040/ SLP227 8/500 T01500078 52015,NA
LGA,1973-09-17T10:00:00Z,-73.8803,40.7794,57.92,45.86,64.08,40,15,NA,30.22,1023.4,15,NA,BKN,OVC,   ,   ,4900,6000,NA,NA,NA,NA,NA,NA,NA,NA,NA,57.92,METAR KLGA 171000Z 04015KT 15SM BKN049 OVC060 14/08 A3022 RMK WND 020V060 SLP234 T01440077,NA
LGA,1973-09-17T11:00:00Z,-73.8803,40.7794,56.84,44.96,64.39,30,14,NA,30.24,1024,15,NA,SCT,OVC,   ,   ,5000,6000,NA,NA,NA,NA,NA,NA,NA,NA,NA,56.84,METAR KLGA 171100Z 03014KT 15SM SCT050 OVC060 14/07 A3024 RMK 0124 SLP240 T01380072,NA
LGA,1973-09-17T12:00:00Z,-73.8803,40.7794,57.02,42.08,57.29,30,14,NA,30.26,1024.7,15,NA,BKN,   ,   ,   ,5000,NA,NA,NA,NA,NA,NA,NA,NA,NA,NA,57.02,METAR KLGA 171200Z 03014KT 15SM BKN050 14/06 A3026 RMK VA SLP247 T01390056,NA
LGA,1973-09-17T13:00:00Z,-73.8803,40.7794,59,39.92,49.08,40,13,NA,30.27,1025.1,15,NA,SCT,BKN,BKN,   ,5000,12000,25000,NA,NA,NA,NA,NA,NA,NA,NA,59,METAR KLGA 171300Z 04013KT 15SM SCT050 BKN120 BKN250 15/04 A3027 RMK VA SLP251 T01500044,NA
LGA,1973-09-17T14:00:00Z,-73.8803,40.7794,60.98,41,47.7,40,12,NA,30.28,1025.4,15,NA,BKN,BKN,   ,   ,12000,25000,NA,NA,NA,NA,NA,NA,NA,NA,NA,60.98,METAR KLGA 171400Z 04012KT 15SM BKN120 BKN250 16/05 A3028 RMK FEW CU VA SLP254 T01610050,NA
LGA,1973-09-17T15:00:00Z,-73.8803,40.7794,60.98,42.08,49.73,50,10,NA,30.28,1025.4,15,NA,SCT,BKN,   ,   ,12000,25000,NA,NA,NA,NA,NA,NA,NA,NA,NA,60.98,METAR KLGA 171500Z 05010KT 15SM SCT120 BKN250 16/06 A3028 RMK VA SLP254 8/031 T01610056 52007,NA
LGA,1973-09-17T16:00:00Z,-73.8803,40.7794,62.96,42.98,48,40,11,NA,30.27,1025.1,15,NA,SCT,   ,   ,   ,25000,NA,NA,NA,NA,NA,NA,NA,NA,NA,NA,62.96,METAR KLGA 171600Z 04011KT 15SM SCT250 17/06 A3027 RMK VA SLP251 T01720061,NA
LGA,1973-09-17T17:00:00Z,-73.8803,40.7794,63.86,41.9,44.62,50,10,NA,30.26,1024.7,15,NA,SCT,   ,   ,   ,25000,NA,NA,NA,NA,NA,NA,NA,NA,NA,NA,63.86,METAR KLGA 171700Z 05010KT 15SM SCT250 18/06 A3026 RMK VA SLP247 T01770055,NA
LGA,1973-09-17T18:00:00Z,-73.8803,40.7794,64.94,44.06,46.67,60,7,NA,30.25,1024.4,15,NA,FEW,   ,   ,   ,25000,NA,NA,NA,NA,NA,NA,NA,NA,NA,NA,64.94,METAR KLGA 171800Z 06007KT 15SM FEW250 18/07 A3025 RMK VA SLP244 T01830067,NA
LGA,1973-09-17T19:00:00Z,-73.8803,40.7794,65.84,44.96,46.81,50,11,NA,30.23,1023.7,15,NA,SCT,   ,   ,   ,25000,NA,NA,NA,NA,NA,NA,NA,NA,NA,NA,65.84,METAR KLGA 171900Z 05011KT 15SM SCT250 19/07 A3023 RMK VA SLP237 T01880072,NA
LGA,1973-09-17T20:00:00Z,-73.8803,40.7794,65.84,43.88,44.93,50,7,NA,30.21,1023,15,NA,SCT,   ,   ,   ,25000,NA,NA,NA,NA,NA,NA,NA,NA,NA,NA,65.84,METAR KLGA 172000Z 05007KT 15SM SCT250 19/07 A3021 RMK VA SLP230 T01880066,NA
LGA,1973-09-17T21:00:00Z,-73.8803,40.7794,64.94,46.94,52.06,170,7,NA,30.2,1022.7,15,NA,SCT,SCT,   ,   ,NA,NA,NA,NA,NA,NA,NA,NA,NA,NA,NA,64.94,METAR KLGA 172100Z 17007KT 15SM SCT/// SCT/// 18/08 A//// RMK SLP227 T01830083,NA
LGA,1973-09-17T22:00:00Z,-73.8803,40.7794,63.86,46.94,54.07,160,8,NA,30.2,1022.7,15,NA,SCT,SCT,   ,   ,15000,25000,NA,NA,NA,NA,NA,NA,NA,NA,NA,63.86,METAR KLGA 172200Z 16008KT 15SM SCT150 SCT250 18/08 A3020 RMK VA SLP227 T01770083,NA
LGA,1973-09-17T23:00:00Z,-73.8803,40.7794,62.96,46.94,55.8,170,8,NA,30.2,1022.7,15,NA,BKN,   ,   ,   ,12000,NA,NA,NA,NA,NA,NA,NA,NA,NA,NA,62.96,METAR KLGA 172300Z 17008KT 15SM BKN120 17/08 A3020 RMK VA SLP227 T01720083,NA
LGA,1973-09-18T00:00:00Z,-73.8803,40.7794,62.06,46.04,55.68,110,8,NA,30.2,1022.7,15,NA,BKN,   ,   ,   ,12000,NA,NA,NA,NA,NA,NA,NA,NA,NA,NA,62.06,METAR KLGA 180000Z 11008KT 15SM BKN120 17/08 A3020 RMK VA SLP227 T01670078,NA
LGA,1973-09-18T01:00:00Z,-73.8803,40.7794,61.88,45.86,55.65,160,6,NA,30.2,1022.7,15,NA,SCT,BKN,   ,   ,3100,6000,NA,NA,NA,NA,NA,NA,NA,NA,NA,61.88,METAR KLGA 180100Z 16006KT 15SM SCT031 BKN060 17/08 A3020 RMK VA SLP227 T01660077,NA
LGA,1973-09-18T02:00:00Z,-73.8803,40.7794,61.88,47.84,59.96,130,6,NA,30.18,1022,15,NA,BKN,OVC,   ,   ,3100,6000,NA,NA,NA,NA,NA,NA,NA,NA,NA,61.88,METAR KLGA 180200Z 13006KT 15SM BKN031 OVC060 17/09 A3018 RMK VA SLP220 T01660088,NA
LGA,1973-09-18T03:00:00Z,-73.8803,40.7794,62.06,50,64.59,120,7,NA,30.16,1021.3,15,NA,BKN,OVC,   ,   ,2400,3500,NA,NA,NA,NA,NA,NA,NA,NA,NA,62.06,METAR KLGA 180300Z 12007KT 15SM BKN024 OVC035 17/10 A3016 RMK / VA SLP213 8/5// T01670100 58015,NA
LGA,1973-09-18T04:00:00Z,-73.8803,40.7794,62.96,52.88,69.61,120,7,NA,30.13,1020.3,15,NA,OVC,   ,   ,   ,1800,NA,NA,NA,NA,NA,NA,NA,NA,NA,NA,62.96,METAR KLGA 180400Z 12007KT 15SM OVC018 17/12 A3013 RMK SLP203 T01720116,NA
LGA,1973-09-18T05:00:00Z,-73.8803,40.7794,62.96,57.92,83.6,120,8,NA,30.1,1019.3,15,NA,BKN,OVC,   ,   ,1600,4100,NA,NA,NA,NA,NA,NA,NA,NA,NA,62.96,METAR KLGA 180500Z 12008KT 15SM BKN016 OVC041 17/14 A3010 RMK MOOON DIMLY VSB BINOVC SLP193 T01720144,NA
LGA,1973-09-18T06:00:00Z,-73.8803,40.7794,64.94,60.08,84.26,110,7,NA,30.08,1018.6,10,NA,BKN,BKN,OVC,   ,1500,2400,3000,NA,NA,NA,NA,NA,NA,NA,NA,64.94,METAR KLGA 180600Z 11007KT 10SM BKN015 BKN024 OVC030 18/16 A3008 RMK / WNDS 080V130 MOON DMLY VSB SLP186 T01830156,NA
LGA,1973-09-18T07:00:00Z,-73.8803,40.7794,65.84,60.98,84.32,140,9,NA,30.05,1017.6,10,NA,BKN,BKN,OVC,   ,1100,1400,2400,NA,NA,NA,NA,NA,NA,NA,NA,65.84,METAR KLGA 180700Z 14009KT 10SM BKN011 BKN014 OVC024 19/16 A3005 RMK WND 100V170 SLP176 T01880161,NA
LGA,1973-09-18T08:00:00Z,-73.8803,40.7794,65.84,61.88,87.04,130,7,NA,30.01,1016.3,10,NA,SCT,OVC,   ,   ,1200,2000,NA,NA,NA,NA,NA,NA,NA,NA,NA,65.84,METAR KLGA 180800Z 13007KT 10SM SCT012 OVC020 19/17 A3001 RMK SLP163 T01880166,NA
LGA,1973-09-18T09:00:00Z,-73.8803,40.7794,66.92,62.96,87.1,130,6,NA,29.98,1015.2,8,NA,SCT,BKN,OVC,   ,1200,1900,2800,NA,NA,NA,NA,NA,NA,NA,NA,66.92,METAR KLGA 180900Z 13006KT 8SM SCT012 BKN019 OVC028 19/17 A2998 RMK / SLP152 8/5// T01940172 57034,NA
LGA,1973-09-18T10:00:00Z,-73.8803,40.7794,68,63.86,86.61,120,8,NA,29.96,1014.6,7,NA,SCT,BKN,OVC,   ,1800,2400,3400,NA,NA,NA,NA,NA,NA,NA,NA,68,METAR KLGA 181000Z 12008KT 7SM SCT018 BKN024 OVC034 20/18 A2996 RMK WND 100V140 SLP146 T02000177,NA
LGA,1973-09-18T11:00:00Z,-73.8803,40.7794,68,64.9,89.81,150,9.04,NA,29.92,NA,5,NA,   ,   ,   ,   ,NA,NA,NA,NA,NA,NA,NA,NA,NA,NA,NA,68,METAR KLGA 181100Z 15009KT 5SM MIBCFGDZ SCT019 BKN024 BKN033 OVC060 20/18 A2992 RMK BINOVC RB20E27 WND 120V180 SLP132 T02000183,NA
LGA,1973-09-18T11:06:00Z,-73.8803,40.7794,NA,NA,NA,130,15,NA,29.92,NA,2,NA,BKN,OVC,NA,NA,1900,3400,NA,NA,NA,NA,NA,NA,NA,NA,NA,NA,KLGA 181106Z AUTO 13015KT 2SM BKN019 OVC034 A2992 RMK IEM_DS3505,NA
LGA,1973-09-18T11:17:00Z,-73.8803,40.7794,NA,NA,NA,190,12,NA,29.92,NA,4,NA,BKN,BKN,OVC,NA,900,1900,3400,NA,NA,NA,NA,NA,NA,NA,NA,NA,KLGA 181117Z AUTO 19012KT 4SM BKN009 BKN019 OVC034 A2992 RMK IEM_DS3505,NA
LGA,1973-09-18T12:00:00Z,-73.8803,40.7794,69.08,66.92,92.83,170,9,0.02,29.91,1012.9,3,NA,SCT,BKN,OVC,   ,900,2000,4000,NA,FG,NA,NA,NA,NA,NA,NA,69.08,METAR KLGA 181200Z 17009KT 3SM FG SCT009 BKN020 OVC040 21/19 A2991 RMK / %V SLP129 P0002 60002 70002 T02060194,NA
LGA,1973-09-18T13:00:00Z,-73.8803,40.7794,69.98,68,93.44,180,10,NA,29.88,1011.9,3,NA,SCT,SCT,BKN,OVC,800,1400,4500,10000,FG,NA,NA,NA,NA,NA,NA,69.98,METAR KLGA 181300Z 18010KT 3SM FG SCT008 SCT014 BKN045 OVC100 21/20 A2988 RMK BINOVC UA DNY-CMK MDT OCNL SVR TURBC 90 BE55 SLP119 8/215 T02110200,NA
LGA,1973-09-18T14:00:00Z,-73.8803,40.7794,71.96,68,87.35,200,16,NA,29.89,1012.2,4,NA,SCT,BKN,OVC,   ,1000,1400,3500,NA,FG,NA,NA,NA,NA,NA,NA,72.96,METAR KLGA 181400Z 20016KT 4SM FG SCT010 BKN014 OVC035 22/20 A2989 RMK SLP122 T02220200,NA
LGA,1973-09-18T14:27:00Z,-73.8803,40.7794,NA,NA,NA,280,15,NA,29.91,NA,1.5,30,SCT,BKN,OVC,NA,800,1600,3400,NA,NA,NA,NA,NA,NA,NA,NA,NA,KLGA 181427Z AUTO 28015G30KT 1 1/2SM SCT008 BKN016 OVC034 A2991 RMK IEM_DS3505,NA
LGA,1973-09-18T15:00:00Z,-73.8803,40.7794,64.04,60.08,86.95,250,9,0.16,29.9,1012.5,5,NA,SCT,OVC,   ,   ,1500,5000,NA,NA,-SHRA FU,NA,NA,NA,NA,NA,NA,64.04,METAR KLGA 181500Z 25009KT 5SM -SHRA FU SCT015 OVC050 18/16 A2990 RMK / RB06/ SLP125 P0016 8/5// T01780156 55003,NA
LGA,1973-09-18T16:00:00Z,-73.8803,40.7794,63.86,60.98,90.35,230,12,0.02,29.89,1012.2,4,NA,SCT,BKN,OVC,   ,1500,5000,7000,NA,-SHRA FU,NA,NA,NA,NA,NA,NA,63.86,METAR KLGA 181600Z 23012KT 4SM -SHRA FU SCT015 BKN050 OVC070 18/16 A2989 RMK SLP122 P0002 T01770161,NA
LGA,1973-09-18T18:00:00Z,-73.8803,40.7794,66.92,62.06,84.38,250,11,NA,29.84,1010.5,6,NA,SCT,BKN,OVC,   ,1600,5000,8000,NA,FU,NA,NA,NA,NA,NA,NA,66.92,METAR KLGA 181800Z 25011KT 6SM FU SCT016 BKN050 OVC080 19/17 A2984 RMK BINOVC VA SLP105 60020 T01940167,NA
LGA,1973-09-18T19:00:00Z,-73.8803,40.7794,70.88,62.96,76.04,260,12,NA,29.81,1009.5,7,NA,SCT,SCT,   ,   ,2000,8000,NA,NA,NA,NA,NA,NA,NA,NA,NA,70.88,METAR KLGA 181900Z 26012KT 7SM SCT020 SCT080 22/17 A2981 RMK VA SLP095 T02160172,NA
LGA,1973-09-18T20:00:00Z,-73.8803,40.7794,73.94,60.98,63.94,270,13,NA,29.79,1008.8,7,NA,SCT,   ,   ,   ,2000,NA,NA,NA,NA,NA,NA,NA,NA,NA,NA,73.94,METAR KLGA 182000Z 27013KT 7SM SCT020 23/16 A2979 RMK VA SLP088 T02330161,NA
LGA,1973-09-18T21:00:00Z,-73.8803,40.7794,75.02,60.08,59.72,270,10,NA,29.79,1008.8,15,NA,BKN,   ,   ,   ,3000,NA,NA,NA,NA,NA,NA,NA,NA,NA,NA,75.02,METAR KLGA 182100Z 27010KT 15SM BKN030 24/16 A2979 RMK / 7 VA SLP088 8/200 T02390156,NA
LGA,1973-09-18T22:00:00Z,-73.8803,40.7794,72.86,56.84,57.17,310,8,NA,29.8,1009.1,10,NA,BKN,   ,   ,   ,3500,NA,NA,NA,NA,NA,NA,NA,NA,NA,NA,72.86,METAR KLGA 182200Z 31008KT 10SM BKN035 23/14 A2980 RMK VA SLP091 T02270138,NA
LGA,1973-09-18T23:00:00Z,-73.8803,40.7794,69.98,52.88,54.58,310,14,NA,29.84,1010.5,10,NA,SCT,SCT,   ,   ,3500,20000,NA,NA,NA,NA,NA,NA,NA,NA,NA,69.98,METAR KLGA 182300Z 31014KT 10SM SCT035 SCT200 21/12 A2984 RMK VA SLP105 T02110116,NA
LGA,1973-09-19T00:00:00Z,-73.8803,40.7794,66.02,53.96,65.07,310,17,NA,29.87,1011.5,15,24,SCT,   ,   ,   ,8000,NA,NA,NA,NA,NA,NA,NA,NA,NA,NA,66.02,METAR KLGA 190000Z 31017G24KT 15SM SCT080 19/12 A2987 RMK VA SLP115 T01890122,NA
LGA,1973-09-19T01:00:00Z,-73.8803,40.7794,62.96,51.98,67.34,330,14,NA,29.92,1013.2,15,NA,CLR,   ,   ,   ,NA,NA,NA,NA,NA,NA,NA,NA,NA,NA,NA,62.96,METAR KLGA 190100Z 33014KT 15SM CLR 17/11 A2992 RMK VA SLP132 T01720111,NA
LGA,1973-09-19T03:00:00Z,-73.8803,40.7794,60.08,50,69.29,330,10,NA,29.95,1014.2,15,NA,CLR,   ,   ,   ,NA,NA,NA,NA,NA,NA,NA,NA,NA,NA,NA,60.08,METAR KLGA 190300Z 33010KT 15SM CLR 16/10 A//// RMK SLP142 T01560100,NA
LGA,1973-09-19T04:00:00Z,-73.8803,40.7794,59,47.84,66.43,330,13,NA,29.97,1014.9,15,NA,CLR,   ,   ,   ,NA,NA,NA,NA,NA,NA,NA,NA,NA,NA,NA,59,METAR KLGA 190400Z 33013KT 15SM CLR 15/09 A2997 RMK SLP149 T01500088,NA
LGA,1973-09-19T05:00:00Z,-73.8803,40.7794,57.92,47.84,69.05,320,13,NA,29.98,1015.2,15,NA,CLR,   ,   ,   ,NA,NA,NA,NA,NA,NA,NA,NA,NA,NA,NA,57.92,METAR KLGA 190500Z 32013KT 15SM CLR 14/09 A2998 RMK WND 280V350 SLP152 T01440088,NA
LGA,1973-09-19T06:00:00Z,-73.8803,40.7794,57.02,46.94,68.95,340,11,NA,30,1015.9,15,NA,CLR,   ,   ,   ,NA,NA,NA,NA,NA,NA,NA,NA,NA,NA,NA,57.02,METAR KLGA 190600Z 34011KT 15SM CLR 14/08 A3000 RMK WND310V360 SLP159 T01390083,NA
LGA,1973-09-19T07:00:00Z,-73.8803,40.7794,55.94,45.86,68.83,340,10,NA,30,1015.9,15,NA,CLR,   ,   ,   ,NA,NA,NA,NA,NA,NA,NA,NA,NA,NA,NA,55.94,METAR KLGA 190700Z 34010KT 15SM CLR 13/08 A3000 RMK WND 320V360 SLP159 T01330077,NA
LGA,1973-09-19T08:00:00Z,-73.8803,40.7794,54.86,45.86,71.59,330,9,NA,30.02,1016.6,15,NA,CLR,   ,   ,   ,NA,NA,NA,NA,NA,NA,NA,NA,NA,NA,NA,54.86,METAR KLGA 190800Z 33009KT 15SM CLR 13/08 A3002 RMK WND 300V350 SLP166 T01270077,NA
LGA,1973-09-19T09:00:00Z,-73.8803,40.7794,53.96,44.96,71.49,350,8,NA,30.04,1017.3,15,NA,CLR,   ,   ,   ,NA,NA,NA,NA,NA,NA,NA,NA,NA,NA,NA,53.96,METAR KLGA 190900Z 35008KT 15SM CLR 12/07 A3004 RMK SND 330V010 / SLP173 T01220072 51014,NA
LGA,1973-09-19T10:00:00Z,-73.8803,40.7794,53.96,43.88,68.61,360,9,NA,30.05,1017.6,15,NA,CLR,   ,   ,   ,NA,NA,NA,NA,NA,NA,NA,NA,NA,NA,NA,53.96,METAR KLGA 191000Z 36009KT 15SM CLR 12/07 A3005 RMK WND 340V20 SLP176 T01220066,NA
LGA,1973-09-19T11:00:00Z,-73.8803,40.7794,54.86,42.98,64.14,360,13,NA,30.07,1018.3,15,NA,SCT,   ,   ,   ,18000,NA,NA,NA,NA,NA,NA,NA,NA,NA,NA,54.86,METAR KLGA 191100Z 36013KT 15SM SCT180 13/06 A3007 RMK SLP183 T01270061,NA
LGA,1973-09-19T12:00:00Z,-73.8803,40.7794,55.94,44.06,64.28,10,11,NA,30.09,1019,15,NA,FEW,   ,   ,   ,20000,NA,NA,NA,NA,NA,NA,NA,NA,NA,NA,55.94,METAR KLGA 191200Z 01011KT 15SM FEW200 13/07 A3009 RMK VA SLP190 70020 T01330067,NA
LGA,1973-09-19T13:00:00Z,-73.8803,40.7794,56.84,44.96,64.39,350,11,NA,30.1,1019.3,15,NA,SCT,   ,   ,   ,20000,NA,NA,NA,NA,NA,NA,NA,NA,NA,NA,56.84,METAR KLGA 191300Z 35011KT 15SM SCT200 14/07 A3010 RMK VA SLP193 T01380072,NA
LGA,1973-09-19T14:00:00Z,-73.8803,40.7794,59.9,43.88,55.37,340,10,NA,30.11,1019.6,15,NA,SCT,   ,   ,   ,20000,NA,NA,NA,NA,NA,NA,NA,NA,NA,NA,59.9,METAR KLGA 191400Z 34010KT 15SM SCT200 16/07 A3011 RMK VA SLP196 T01550066,NA
LGA,1973-09-19T15:00:00Z,-73.8803,40.7794,62.06,42.08,47.86,40,7,NA,30.12,1020,15,NA,CLR,   ,   ,   ,NA,NA,NA,NA,NA,NA,NA,NA,NA,NA,NA,62.06,METAR KLGA 191500Z 04007KT 15SM CLR 17/06 A3012 RMK FEW CI/ VA SLP200 8/001 T01670056 51010,NA
LGA,1973-09-19T16:00:00Z,-73.8803,40.7794,62.96,39.92,42.65,50,6,NA,30.1,1019.3,15,NA,CLR,   ,   ,   ,NA,NA,NA,NA,NA,NA,NA,NA,NA,NA,NA,62.96,METAR KLGA 191600Z 05006KT 15SM CLR 17/04 A3010 RMK VA SLP193 T01720044,NA
LGA,1973-09-19T17:00:00Z,-73.8803,40.7794,64.94,41.9,42.96,50,7,NA,30.09,1019,15,NA,CLR,   ,   ,   ,NA,NA,NA,NA,NA,NA,NA,NA,NA,NA,NA,64.94,METAR KLGA 191700Z 05007KT 15SM CLR 18/06 A3009 RMK VA SLP190 T01830055,NA
LGA,1973-09-19T18:00:00Z,-73.8803,40.7794,66.02,41,39.96,20,4,NA,30.07,1018.3,15,NA,CLR,   ,   ,   ,NA,NA,NA,NA,NA,NA,NA,NA,NA,NA,NA,66.02,METAR KLGA 191800Z 02004KT 15SM CLR 19/05 A3007 RMK FEW CU VA SLP183 T01890050,NA
LGA,1973-09-19T19:00:00Z,-73.8803,40.7794,66.92,41,38.74,320,7,NA,30.05,1017.6,15,NA,CLR,   ,   ,   ,NA,NA,NA,NA,NA,NA,NA,NA,NA,NA,NA,66.92,METAR KLGA 191900Z 32007KT 15SM CLR 19/05 A3005 RMK VA SLP176 T01940050,NA
LGA,1973-09-19T20:00:00Z,-73.8803,40.7794,68,41,37.32,280,6,NA,30.04,1017.3,15,NA,SCT,   ,   ,   ,25000,NA,NA,NA,NA,NA,NA,NA,NA,NA,NA,68,METAR KLGA 192000Z 28006KT 15SM SCT250 20/05 A3004 RMK VA SLP173 T02000050,NA
LGA,1973-09-19T21:00:00Z,-73.8803,40.7794,68,39.92,35.79,280,5,NA,30.03,1016.9,15,NA,FEW,   ,   ,   ,25000,NA,NA,NA,NA,NA,NA,NA,NA,NA,NA,68,METAR KLGA 192100Z 28005KT 15SM FEW250 20/04 A3003 RMK / 4 VA SLP169 8/001 T02000044,NA
LGA,1973-09-19T22:00:00Z,-73.8803,40.7794,65.84,44.96,46.81,160,7,NA,30.03,1016.9,15,NA,SCT,   ,   ,   ,25000,NA,NA,NA,NA,NA,NA,NA,NA,NA,NA,65.84,METAR KLGA 192200Z 16007KT 15SM SCT250 19/07 A3003 RMK VA SLP169 T01880072,NA
LGA,1973-09-19T23:00:00Z,-73.8803,40.7794,63.86,45.86,51.9,160,6,NA,30.03,1016.9,15,NA,SCT,   ,   ,   ,25000,NA,NA,NA,NA,NA,NA,NA,NA,NA,NA,63.86,METAR KLGA 192300Z 16006KT 15SM SCT250 18/08 A3003 RMK VA SLP169 T01770077,NA
LGA,1973-09-20T00:00:00Z,-73.8803,40.7794,62.96,48.02,58.12,180,9,NA,30.05,1017.6,15,NA,BKN,   ,   ,   ,25000,NA,NA,NA,NA,NA,NA,NA,NA,NA,NA,62.96,METAR KLGA 200000Z 18009KT 15SM BKN250 17/09 A3005 RMK VA SLP176 T01720089,NA
LGA,1973-09-20T01:00:00Z,-73.8803,40.7794,61.88,47.84,59.96,180,10,NA,30.06,1018,15,NA,SCT,   ,   ,   ,25000,NA,NA,NA,NA,NA,NA,NA,NA,NA,NA,61.88,METAR KLGA 200100Z 18010KT 15SM SCT250 17/09 A3006 RMK VA SLP180 T01660088,NA
LGA,1973-09-20T02:00:00Z,-73.8803,40.7794,60.98,48.92,64.46,210,8,NA,30.07,1018.3,15,NA,SCT,   ,   ,   ,25000,NA,NA,NA,NA,NA,NA,NA,NA,NA,NA,60.98,METAR KLGA 200200Z 21008KT 15SM SCT250 16/09 A3007 RMK VA SLP183 T01610094,NA
LGA,1973-09-20T03:00:00Z,-73.8803,40.7794,60.08,48.92,66.56,240,6,NA,30.07,1018.3,15,NA,FEW,   ,   ,   ,25000,NA,NA,NA,NA,NA,NA,NA,NA,NA,NA,60.08,METAR KLGA 200300Z 24006KT 15SM FEW250 16/09 A3007 RMK VA/ SLP183 8/001 T01560094 50005,NA
LGA,1973-09-20T04:00:00Z,-73.8803,40.7794,59.9,50,69.74,230,6,NA,30.07,1018.3,15,NA,CLR,   ,   ,   ,NA,NA,NA,NA,NA,NA,NA,NA,NA,NA,NA,59.9,METAR KLGA 200400Z 23006KT 15SM CLR 16/10 A3007 RMK SLP183 T01550100,NA
LGA,1973-09-20T05:00:00Z,-73.8803,40.7794,57.92,50.9,77.4,210,7,NA,30.07,1018.3,10,NA,CLR,   ,   ,   ,NA,NA,NA,NA,NA,NA,NA,NA,NA,NA,NA,57.92,METAR KLGA 200500Z 21007KT 10SM CLR 14/11 A3007 RMK SLP183 T01440105,NA
LGA,1973-09-20T06:00:00Z,-73.8803,40.7794,60.08,51.98,74.56,220,7,NA,30.07,1018.3,10,NA,BKN,   ,   ,   ,25000,NA,NA,NA,NA,NA,NA,NA,NA,NA,NA,60.08,METAR KLGA 200600Z 22007KT 10SM BKN250 16/11 A3007 RMK SLP183 T01560111,NA
LGA,1973-09-20T07:00:00Z,-73.8803,40.7794,57.92,52.88,83.27,230,7,NA,30.05,1017.6,10,NA,SCT,   ,   ,   ,25000,NA,NA,NA,NA,NA,NA,NA,NA,NA,NA,57.92,METAR KLGA 200700Z 23007KT 10SM SCT250 14/12 A3005 RMK SLP176 T01440116,NA
LGA,1973-09-20T08:00:00Z,-73.8803,40.7794,56.84,52.88,86.57,210,7,NA,30.05,1017.6,10,NA,BKN,   ,   ,   ,25000,NA,NA,NA,NA,NA,NA,NA,NA,NA,NA,56.84,METAR KLGA 200800Z 21007KT 10SM BKN250 14/12 A3005 RMK SLP176 T01380116,NA
LGA,1973-09-20T09:00:00Z,-73.8803,40.7794,57.02,51.08,80.49,210,7,NA,30.05,1017.6,10,NA,FEW,   ,   ,   ,25000,NA,NA,NA,NA,NA,NA,NA,NA,NA,NA,57.02,METAR KLGA 200900Z 21007KT 10SM FEW250 14/11 A3005 RMK VSBY LWR NW/ SLP176 8/001 T01390106 56007,NA
LGA,1973-09-20T10:00:00Z,-73.8803,40.7794,54.86,48.92,80.32,210,6,NA,30.05,1017.6,7,NA,SCT,   ,   ,   ,25000,NA,NA,NA,NA,NA,NA,NA,NA,NA,NA,54.86,METAR KLGA 201000Z 21006KT 7SM SCT250 13/09 A3005 RMK SLP176 T01270094,NA
LGA,1973-09-20T11:00:00Z,-73.8803,40.7794,54.86,50,83.62,210,6,NA,30.06,1018,5,NA,BKN,   ,   ,   ,25000,NA,NA,NA,DZ,NA,NA,NA,NA,NA,NA,54.86,METAR KLGA 201100Z 21006KT 5SM DZ BKN250 13/10 A3006 RMK VSBY LWR NW SLP180 T01270100,NA
LGA,1973-09-20T12:00:00Z,-73.8803,40.7794,57.02,51.08,80.49,210,5,NA,30.06,1018,6,NA,BKN,   ,   ,   ,25000,NA,NA,NA,DZ,NA,NA,NA,NA,NA,NA,57.02,METAR KLGA 201200Z 21005KT 6SM DZ BKN250 14/11 A3006 RMK VA SLP180 T01390106,NA
LGA,1973-09-20T13:00:00Z,-73.8803,40.7794,61.88,50.9,67.21,250,9,NA,30.06,1018,5,NA,SCT,   ,   ,   ,25000,NA,NA,NA,DZ,NA,NA,NA,NA,NA,NA,61.88,METAR KLGA 201300Z 25009KT 5SM DZ SCT250 17/11 A3006 RMK VA SLP180 T01660105,NA
LGA,1973-09-20T14:00:00Z,-73.8803,40.7794,64.9,32,29.12,220,11.04,NA,30.06,NA,6,NA,   ,   ,   ,   ,NA,NA,NA,NA,NA,NA,NA,NA,NA,NA,NA,64.9,METAR KLGA 201400Z 22011KT 6SM DZ SCT250 18/M A3006 RMK VA SLP180 T0183////,NA
LGA,1973-09-20T15:00:00Z,-73.8803,40.7794,66.02,50,56.23,230,9,NA,30.05,1017.6,6,NA,SCT,BKN,BKN,   ,NA,NA,NA,NA,DZ,NA,NA,NA,NA,NA,NA,66.02,METAR KLGA 201500Z 23009KT 6SM DZ SCT/// BKN/// BKN/// 19/10 A//// RMK SLP176 T01890100,NA
LGA,1973-09-20T16:00:00Z,-73.8803,40.7794,68,50.9,54.3,230,13,NA,30.03,1016.9,8,NA,SCT,BKN,   ,   ,4500,25000,NA,NA,NA,NA,NA,NA,NA,NA,NA,68,METAR KLGA 201600Z 23013KT 8SM SCT045 BKN250 20/11 A3003 RMK VA SLP169 T02000105,NA
LGA,1973-09-20T17:00:00Z,-73.8803,40.7794,68.9,47.84,46.96,280,10,NA,30.01,1016.3,8,NA,SCT,BKN,   ,   ,4500,20000,NA,NA,NA,NA,NA,NA,NA,NA,NA,68.9,METAR KLGA 201700Z 28010KT 8SM SCT045 BKN200 20/09 A3001 RMK SLP163 T02050088,NA
LGA,1973-09-20T18:00:00Z,-73.8803,40.7794,71.06,48.02,43.92,280,13,NA,30,1015.9,10,NA,SCT,SCT,BKN,   ,5000,12000,20000,NA,NA,NA,NA,NA,NA,NA,NA,69.93,METAR KLGA 201800Z 28013KT 10SM SCT050 SCT120 BKN200 22/09 A3000 RMK SLP159 T02170089,NA
LGA,1973-09-20T19:00:00Z,-73.8803,40.7794,70.88,47.84,43.89,280,12,NA,29.99,1015.6,10,NA,SCT,BKN,BKN,   ,5000,10000,20000,NA,NA,NA,NA,NA,NA,NA,NA,69.73,METAR KLGA 201900Z 28012KT 10SM SCT050 BKN100 BKN200 22/09 A2999 RMK SLP156 T02160088,NA
LGA,1973-09-20T20:00:00Z,-73.8803,40.7794,70.88,48.92,45.71,290,11,NA,29.99,1015.6,10,NA,SCT,SCT,BKN,   ,5000,10000,20000,NA,NA,NA,NA,NA,NA,NA,NA,69.82,METAR KLGA 202000Z 29011KT 10SM SCT050 SCT100 BKN200 22/09 A2999 RMK VA SLP156 T02160094,NA
LGA,1973-09-20T21:00:00Z,-73.8803,40.7794,71.06,48.92,45.43,280,15,NA,29.99,1015.6,10,NA,SCT,SCT,   ,   ,4500,10000,NA,NA,NA,NA,NA,NA,NA,NA,NA,70,METAR KLGA 202100Z 28015KT 10SM SCT045 SCT100 22/09 A2999 RMK VA SLP156 8/570 T02170094 56005,NA
LGA,1973-09-20T22:00:00Z,-73.8803,40.7794,70.88,48.92,45.71,260,9,NA,30.01,1016.3,10,NA,SCT,SCT,   ,   ,4500,10000,NA,NA,NA,NA,NA,NA,NA,NA,NA,69.82,METAR KLGA 202200Z 26009KT 10SM SCT045 SCT100 22/09 A3001 RMK VA SLP163 T02160094,NA
LGA,1973-09-21T00:00:00Z,-73.8803,40.7794,68,51.98,56.51,300,13,NA,30.05,1017.6,10,NA,BKN,BKN,   ,   ,5000,10000,NA,NA,NA,NA,NA,NA,NA,NA,NA,68,METAR KLGA 210000Z 30013KT 10SM BKN050 BKN100 20/11 A3005 RMK SLP176 T02000111,NA
LGA,1973-09-21T01:00:00Z,-73.8803,40.7794,66.92,51.98,58.65,320,10,NA,30.09,1019,10,NA,SCT,BKN,   ,   ,5000,10000,NA,NA,NA,NA,NA,NA,NA,NA,NA,66.92,METAR KLGA 210100Z 32010KT 10SM SCT050 BKN100 19/11 A3009 RMK SLP190 T01940111,NA
LGA,1973-09-21T02:00:00Z,-73.8803,40.7794,64.94,51.98,62.83,340,14,NA,30.11,1019.6,10,NA,SCT,   ,   ,   ,10000,NA,NA,NA,NA,NA,NA,NA,NA,NA,NA,64.94,METAR KLGA 210200Z 34014KT 10SM SCT100 18/11 A3011 RMK SLP196 T01830111,NA
LGA,1973-09-21T03:00:00Z,-73.8803,40.7794,62.96,48.92,60.11,340,11,NA,30.14,1020.7,10,NA,SCT,   ,   ,   ,10000,NA,NA,NA,NA,NA,NA,NA,NA,NA,NA,62.96,METAR KLGA 210300Z 34011KT 10SM SCT100 17/09 A3014 RMK SLP207 T01720094 52030,NA
LGA,1973-09-21T04:00:00Z,-73.8803,40.7794,60.98,48.92,64.46,310,14,NA,30.17,1021.7,10,NA,CLR,   ,   ,   ,NA,NA,NA,NA,NA,NA,NA,NA,NA,NA,NA,60.98,METAR KLGA 210400Z 31014KT 10SM CLR 16/09 A3017 RMK SLP217 T01610094,NA
LGA,1973-09-21T05:00:00Z,-73.8803,40.7794,59,42.98,55.24,320,15,NA,30.19,1022.4,15,NA,CLR,   ,   ,   ,NA,NA,NA,NA,NA,NA,NA,NA,NA,NA,NA,59,METAR KLGA 210500Z 32015KT 15SM CLR 15/06 A3019 RMK LGB 7 139/65/54/0604/994LGB9/6 SLP224 T01500061,NA
LGA,1973-09-21T06:00:00Z,-73.8803,40.7794,57.02,44.06,61.81,330,13,NA,30.2,1022.7,15,NA,SCT,SCT,   ,   ,3000,8000,NA,NA,NA,NA,NA,NA,NA,NA,NA,57.02,METAR KLGA 210600Z 33013KT 15SM SCT030 SCT080 14/07 A3020 RMK SLP227 T01390067,NA
LGA,1973-09-21T07:00:00Z,-73.8803,40.7794,54.86,43.88,66.39,20,12,NA,30.22,1023.4,15,NA,SCT,   ,   ,   ,8000,NA,NA,NA,NA,NA,NA,NA,NA,NA,NA,54.86,METAR KLGA 210700Z 02012KT 15SM SCT080 13/07 A3022 RMK SLP234 T01270066,NA
LGA,1973-09-21T08:00:00Z,-73.8803,40.7794,51.98,38.84,60.72,10,11,NA,30.25,1024.4,15,NA,SCT,   ,   ,   ,8000,NA,NA,NA,NA,NA,NA,NA,NA,NA,NA,51.98,METAR KLGA 210800Z 01011KT 15SM SCT080 11/04 A3025 RMK SLP244 T01110038,NA
LGA,1973-09-21T09:00:00Z,-73.8803,40.7794,51.08,35.06,54.09,30,11,NA,30.26,1024.7,15,NA,SCT,   ,   ,   ,7000,NA,NA,NA,NA,NA,NA,NA,NA,NA,NA,51.08,METAR KLGA 210900Z 03011KT 15SM SCT070 11/02 A3026 RMK SLP247 8/040 T01060017 51020,NA
LGA,1973-09-21T10:00:00Z,-73.8803,40.7794,50,34.88,55.9,30,10,NA,30.28,1025.4,15,NA,SCT,SCT,   ,   ,4000,8000,NA,NA,NA,NA,NA,NA,NA,NA,NA,45.54,METAR KLGA 211000Z 03010KT 15SM SCT040 SCT080 10/02 A3028 RMK SLP254 T01000016,NA
LGA,1973-09-21T11:00:00Z,-73.8803,40.7794,47.84,35.96,63.25,30,13,NA,30.31,1026.4,15,NA,SCT,SCT,BKN,   ,4000,8000,25000,NA,NA,NA,NA,NA,NA,NA,NA,41.86,METAR KLGA 211100Z 03013KT 15SM SCT040 SCT080 BKN250 09/02 A3031 RMK SLP264 T00880022,NA
LGA,1973-09-21T12:00:00Z,-73.8803,40.7794,48.92,35.96,60.74,30,13,NA,30.33,1027.1,15,NA,SCT,BKN,   ,   ,4000,25000,NA,NA,NA,NA,NA,NA,NA,NA,NA,43.25,METAR KLGA 211200Z 03013KT 15SM SCT040 BKN250 09/02 A3033 RMK / VA SLP271 T00940022,NA
LGA,1973-09-21T13:00:00Z,-73.8803,40.7794,52.88,35.96,52.45,30,10,NA,30.35,1027.8,15,NA,SCT,   ,   ,   ,25000,NA,NA,NA,NA,NA,NA,NA,NA,NA,NA,52.88,METAR KLGA 211300Z 03010KT 15SM SCT250 12/02 A3035 RMK VA SLP278 T01160022,NA
LGA,1973-09-21T14:00:00Z,-73.8803,40.7794,54.86,33.98,45.09,30,11,NA,30.36,1028.1,15,NA,SCT,   ,   ,   ,25000,NA,NA,NA,NA,NA,NA,NA,NA,NA,NA,54.86,METAR KLGA 211400Z 03011KT 15SM SCT250 13/01 A3036 RMK VA SLP281 T01270011,NA
LGA,1973-09-21T15:00:00Z,-73.8803,40.7794,55.94,33.98,43.36,30,9,NA,30.37,1028.4,15,NA,CLR,   ,   ,   ,NA,NA,NA,NA,NA,NA,NA,NA,NA,NA,NA,55.94,METAR KLGA 211500Z 03009KT 15SM CLR 13/01 A3037 RMK FEW CI/ VA SLP284 8/001 T01330011 51012,NA
LGA,1973-09-21T16:00:00Z,-73.8803,40.7794,59,33.98,38.83,30,4,NA,30.36,1028.1,15,NA,CLR,   ,   ,   ,NA,NA,NA,NA,NA,NA,NA,NA,NA,NA,NA,59,METAR KLGA 211600Z 03004KT 15SM CLR 15/01 A3036 RMK VA SLP281 T01500011,NA
LGA,1973-09-21T18:00:00Z,-73.8803,40.7794,60.08,33.98,37.37,210,4,NA,30.34,1027.4,15,NA,FEW,   ,   ,   ,25000,NA,NA,NA,NA,NA,NA,NA,NA,NA,NA,60.08,METAR KLGA 211800Z 21004KT 15SM FEW250 16/01 A3034 RMK VA SLP274 T01560011,NA
LGA,1973-09-21T19:00:00Z,-73.8803,40.7794,61.88,34.88,36.34,60,5,NA,30.34,1027.4,15,NA,SCT,   ,   ,   ,25000,NA,NA,NA,NA,NA,NA,NA,NA,NA,NA,61.88,METAR KLGA 211900Z 06005KT 15SM SCT250 17/02 A3034 RMK VA SLP274 T01660016,NA
LGA,1973-09-21T20:00:00Z,-73.8803,40.7794,62.96,32,31.17,350,5,NA,30.34,1027.4,15,NA,SCT,SCT,   ,   ,15000,25000,NA,NA,NA,NA,NA,NA,NA,NA,NA,62.96,METAR KLGA 212000Z 35005KT 15SM SCT150 SCT250 17/00 A3034 RMK VA SLP274 T01720000,NA
LGA,1973-09-21T21:00:00Z,-73.8803,40.7794,62.96,35.96,36.51,190,9,NA,30.34,1027.4,15,NA,SCT,SCT,   ,   ,15000,25000,NA,NA,NA,NA,NA,NA,NA,NA,NA,62.96,METAR KLGA 212100Z 19009KT 15SM SCT150 SCT250 17/02 A3034 RMK VA SLP274 8/031 T01720022 51000,NA
LGA,1973-09-21T22:00:00Z,-73.8803,40.7794,59.9,36.86,42.16,190,10,NA,30.35,1027.8,15,NA,SCT,SCT,   ,   ,15000,25000,NA,NA,NA,NA,NA,NA,NA,NA,NA,59.9,METAR KLGA 212200Z 19010KT 15SM SCT150 SCT250 16/03 A3035 RMK VA SLP278 T01550027,NA
LGA,1973-09-21T23:00:00Z,-73.8803,40.7794,59,36.86,43.54,180,8,NA,30.36,1028.1,15,NA,SCT,SCT,   ,   ,15000,25000,NA,NA,NA,NA,NA,NA,NA,NA,NA,59,METAR KLGA 212300Z 18008KT 15SM SCT150 SCT250 15/03 A3036 RMK VA SLP281 T01500027,NA
LGA,1973-09-22T00:00:00Z,-73.8803,40.7794,57.92,37.94,47.22,170,8,NA,30.38,1028.8,15,NA,FEW,   ,   ,   ,25000,NA,NA,NA,NA,NA,NA,NA,NA,NA,NA,57.92,METAR KLGA 220000Z 17008KT 15SM FEW250 14/03 A3038 RMK SLP288 T01440033,NA
LGA,1973-09-22T01:00:00Z,-73.8803,40.7794,57.92,38.84,48.91,170,7,NA,30.39,1029.1,15,NA,SCT,   ,   ,   ,25000,NA,NA,NA,NA,NA,NA,NA,NA,NA,NA,57.92,METAR KLGA 220100Z 17007KT 15SM SCT250 14/04 A3039 RMK SLP291 T01440038,NA
LGA,1973-09-22T02:00:00Z,-73.8803,40.7794,56.84,39.92,53.04,160,5,NA,30.4,1029.5,15,NA,CLR,   ,   ,   ,NA,NA,NA,NA,NA,NA,NA,NA,NA,NA,NA,56.84,METAR KLGA 220200Z 16005KT 15SM CLR 14/04 A3040 RMK SLP295 T01380044,NA
LGA,1973-09-22T03:00:00Z,-73.8803,40.7794,55.94,39.92,54.8,180,5,NA,30.41,1029.8,15,NA,CLR,   ,   ,   ,NA,NA,NA,NA,NA,NA,NA,NA,NA,NA,NA,55.94,METAR KLGA 220300Z 18005KT 15SM CLR 13/04 A3041 RMK SLP298 T01330044 52010,NA
LGA,1973-09-22T04:00:00Z,-73.8803,40.7794,55.94,41,57.14,160,7,NA,30.41,1029.8,15,NA,SCT,   ,   ,   ,25000,NA,NA,NA,NA,NA,NA,NA,NA,NA,NA,55.94,METAR KLGA 220400Z 16007KT 15SM SCT250 13/05 A3041 RMK VA SLP298 T01330050,NA
LGA,1973-09-22T05:00:00Z,-73.8803,40.7794,54.86,41,59.43,170,5,NA,30.4,1029.5,15,NA,CLR,   ,   ,   ,NA,NA,NA,NA,NA,NA,NA,NA,NA,NA,NA,54.86,METAR KLGA 220500Z 17005KT 15SM CLR 13/05 A3040 RMK VA SLP295 T01270050,NA
LGA,1973-09-22T06:00:00Z,-73.8803,40.7794,55.04,42.08,61.56,120,8,NA,30.39,1029.1,15,NA,CLR,   ,   ,   ,NA,NA,NA,NA,NA,NA,NA,NA,NA,NA,NA,55.04,METAR KLGA 220600Z 12008KT 15SM CLR 13/06 A3039 RMK VA SLP291 T01280056,NA
LGA,1973-09-22T07:00:00Z,-73.8803,40.7794,54.86,41,59.43,120,7,NA,30.37,1028.4,15,NA,SCT,   ,   ,   ,5000,NA,NA,NA,NA,NA,NA,NA,NA,NA,NA,54.86,METAR KLGA 220700Z 12007KT 15SM SCT050 13/05 A3037 RMK VA SLP284 T01270050,NA
LGA,1973-09-22T08:00:00Z,-73.8803,40.7794,55.94,41,57.14,140,6,NA,30.38,1028.8,15,NA,BKN,   ,   ,   ,5000,NA,NA,NA,NA,NA,NA,NA,NA,NA,NA,55.94,METAR KLGA 220800Z 14006KT 15SM BKN050 13/05 A3038 RMK SLP288 T01330050,NA
LGA,1973-09-22T09:00:00Z,-73.8803,40.7794,55.04,39.92,56.62,110,7,NA,30.4,1029.5,15,NA,BKN,   ,   ,   ,5000,NA,NA,NA,NA,NA,NA,NA,NA,NA,NA,55.04,METAR KLGA 220900Z 11007KT 15SM BKN050 13/04 A3040 RMK SLP295 8/500 T01280044 53003,NA
LGA,1973-09-22T10:00:00Z,-73.8803,40.7794,55.94,41.9,59.16,90,9,NA,30.4,1029.5,15,NA,BKN,OVC,   ,   ,4000,5000,NA,NA,NA,NA,NA,NA,NA,NA,NA,55.94,METAR KLGA 221000Z 09009KT 15SM BKN040 OVC050 13/06 A3040 RMK VA SLP295 T01330055,NA
LGA,1973-09-22T11:00:00Z,-73.8803,40.7794,56.84,44.96,64.39,80,9,NA,30.41,1029.8,15,NA,OVC,   ,   ,   ,3800,NA,NA,NA,NA,NA,NA,NA,NA,NA,NA,56.84,METAR KLGA 221100Z 08009KT 15SM OVC038 14/07 A3041 RMK VA SLP298 T01380072,NA
LGA,1973-09-22T12:00:00Z,-73.8803,40.7794,57.92,46.94,66.75,90,8,NA,30.41,1029.8,15,NA,SCT,BKN,OVC,   ,2800,3700,12000,NA,NA,NA,NA,NA,NA,NA,NA,57.92,METAR KLGA 221200Z 09008KT 15SM SCT028 BKN037 OVC120 14/08 A3041 RMK VA SLP298 T01440083,NA
LGA,1973-09-22T13:00:00Z,-73.8803,40.7794,59,47.84,66.43,120,8,NA,30.4,1029.5,15,NA,SCT,BKN,OVC,   ,2400,3300,12000,NA,NA,NA,NA,NA,NA,NA,NA,59,METAR KLGA 221300Z 12008KT 15SM SCT024 BKN033 OVC120 15/09 A3040 RMK VA SLP295 T01500088,NA
LGA,1973-09-22T15:00:00Z,-73.8803,40.7794,62.96,53.96,72.42,120,8,NA,30.37,1028.4,15,NA,BKN,OVC,   ,   ,2000,3500,NA,NA,NA,NA,NA,NA,NA,NA,NA,62.96,METAR KLGA 221500Z 12008KT 15SM BKN020 OVC035 17/12 A3037 RMK LB20E40/ VA SLP284 8/5// T01720122 58015,NA
LGA,1973-09-22T16:00:00Z,-73.8803,40.7794,63.86,56.84,77.9,140,10,NA,30.33,1027.1,10,NA,SCT,BKN,OVC,   ,1700,2200,3000,NA,NA,NA,NA,NA,NA,NA,NA,63.86,METAR KLGA 221600Z 14010KT 10SM SCT017 BKN022 OVC030 18/14 A3033 RMK VA SLP271 T01770138,NA
LGA,1973-09-22T17:00:00Z,-73.8803,40.7794,66.92,53.96,63.08,180,12,NA,30.3,1026.1,10,NA,SCT,BKN,OVC,   ,1800,3100,3700,NA,NA,NA,NA,NA,NA,NA,NA,66.92,METAR KLGA 221700Z 18012KT 10SM SCT018 BKN031 OVC037 19/12 A3030 RMK SLP261 T01940122,NA
LGA,1973-09-22T18:00:00Z,-73.8803,40.7794,68,57.02,67.91,180,22,NA,30.24,1024,8,NA,BKN,BKN,   ,   ,3500,12000,NA,NA,NA,NA,NA,NA,NA,NA,NA,68,METAR KLGA 221800Z 18022KT 8SM BKN035 BKN120 20/14 A3024 RMK LWR V% PRESFR SLP240 T02000139,NA
LGA,1973-09-22T19:00:00Z,-73.8803,40.7794,69.98,59.9,70.36,190,22,NA,30.19,1022.4,8,NA,BKN,OVC,   ,   ,3100,12000,NA,NA,NA,NA,NA,NA,NA,NA,NA,69.98,METAR KLGA 221900Z 19022KT 8SM BKN031 OVC120 21/16 A3019 RMK SLP224 T02110155,NA
LGA,1973-09-22T20:00:00Z,-73.8803,40.7794,68.9,61.88,78.32,180,14,NA,30.16,1021.3,7,NA,OVC,   ,   ,   ,3300,NA,NA,NA,NA,NA,NA,NA,NA,NA,NA,68.9,METAR KLGA 222000Z 18014KT 7SM OVC033 20/17 A3016 RMK VA LGB FINOLGB9/6 SLP213 T02050166,NA
LGA,1973-09-22T21:00:00Z,-73.8803,40.7794,69.08,62.96,80.86,170,16,NA,30.13,1020.3,7,NA,SCT,OVC,   ,   ,1500,3300,NA,NA,NA,NA,NA,NA,NA,NA,NA,69.08,METAR KLGA 222100Z 17016KT 7SM SCT015 OVC033 21/17 A3013 RMK VA SLP203 8/5// T02060172 57037,NA
LGA,1973-09-22T23:00:00Z,-73.8803,40.7794,69.98,62.96,78.41,180,9,NA,30.12,1020,6,NA,SCT,OVC,   ,   ,2000,3400,NA,NA,DZ,NA,NA,NA,NA,NA,NA,69.98,METAR KLGA 222300Z 18009KT 6SM DZ SCT020 OVC034 21/17 A3012 RMK VA SLP200 T02110172,NA
LGA,1973-09-23T00:00:00Z,-73.8803,40.7794,71.06,62.06,73.22,200,12,NA,30.12,1020,6,NA,SCT,OVC,   ,   ,2000,3600,NA,NA,DZ,NA,NA,NA,NA,NA,NA,71.06,METAR KLGA 230000Z 20012KT 6SM DZ SCT020 OVC036 22/17 A3012 RMK SLP200 T02170167,NA
LGA,1973-09-23T01:00:00Z,-73.8803,40.7794,69.98,62.96,78.41,210,13,NA,30.11,1019.6,7,NA,SCT,OVC,   ,   ,2000,3600,NA,NA,NA,NA,NA,NA,NA,NA,NA,69.98,METAR KLGA 230100Z 21013KT 7SM SCT020 OVC036 21/17 A3011 RMK SLP196 T02110172,NA
LGA,1973-09-23T02:00:00Z,-73.8803,40.7794,69.98,63.86,80.92,190,12,NA,30.1,1019.3,7,NA,BKN,   ,   ,   ,3500,NA,NA,NA,NA,NA,NA,NA,NA,NA,NA,69.98,METAR KLGA 230200Z 19012KT 7SM BKN035 21/18 A3010 RMK SLP193 T02110177,NA
LGA,1973-09-23T03:00:00Z,-73.8803,40.7794,69.98,64.04,81.44,200,12,NA,30.1,1019.3,7,NA,BKN,   ,   ,   ,3500,NA,NA,NA,NA,NA,NA,NA,NA,NA,NA,69.98,METAR KLGA 230300Z 20012KT 7SM BKN035 21/18 A3010 RMK SLP193 8/500 T02110178 56007,NA
LGA,1973-09-23T04:00:00Z,-73.8803,40.7794,69.98,63.86,80.92,210,11,NA,30.09,1019,7,NA,OVC,   ,   ,   ,3500,NA,NA,NA,NA,NA,NA,NA,NA,NA,NA,69.98,METAR KLGA 230400Z 21011KT 7SM OVC035 21/18 A3009 RMK SLP190 T02110177,NA
LGA,1973-09-23T05:00:00Z,-73.8803,40.7794,69.98,63.86,80.92,210,10,NA,30.08,1018.6,7,NA,BKN,OVC,   ,   ,2000,5000,NA,NA,NA,NA,NA,NA,NA,NA,NA,69.98,METAR KLGA 230500Z 21010KT 7SM BKN020 OVC050 21/18 A3008 RMK WND 190V230 SLP186 T02110177,NA
LGA,1973-09-23T06:00:00Z,-73.8803,40.7794,69.98,64.04,81.44,200,12,NA,30.06,1018,7,NA,BKN,BKN,OVC,   ,1700,5000,7000,NA,NA,NA,NA,NA,NA,NA,NA,69.98,METAR KLGA 230600Z 20012KT 7SM BKN017 BKN050 OVC070 21/18 A3006 RMK SLP180 T02110178,NA
LGA,1973-09-23T07:00:00Z,-73.8803,40.7794,69.98,64.94,84.04,230,11,NA,30.05,1017.6,6,NA,BKN,OVC,   ,   ,1700,2000,NA,NA,DZ,NA,NA,NA,NA,NA,NA,69.98,METAR KLGA 230700Z 23011KT 6SM DZ BKN017 OVC020 21/18 A3005 RMK WND 210V250 SLP176 T02110183,NA
LGA,1973-09-23T08:00:00Z,-73.8803,40.7794,68.9,64.94,87.2,260,8,NA,30.06,1018,5,NA,BKN,BKN,OVC,   ,1500,2800,7000,NA,TSRA DZ,NA,NA,NA,NA,NA,NA,68.9,METAR KLGA 230800Z 26008KT 5SM TSRA DZ BKN015 BKN028 OVC070 20/18 A3006 RMK TB40 T OVHD MOVG SE LTGCCCG RB40 RW- OCNLY RW& PK WND 40 SLP180 78/13 T02050183 5208/,NA
LGA,1973-09-23T09:00:00Z,-73.8803,40.7794,68.9,64.94,87.2,230,10,NA,30.06,1018,4,NA,SCT,OVC,NA,NA,2300,6900,NA,NA,NA,NA,NA,NA,NA,NA,NA,68.9,KLGA 230900Z AUTO 23010KT 4SM SCT023 OVC069 20/18 A3006 RMK 60008 SLP180 T02050183 55002 IEM_DS3505,NA
LGA,1973-09-23T10:00:00Z,-73.8803,40.7794,68,63.86,86.61,240,15,0.04,30.06,1018,7,NA,SCT,OVC,   ,   ,2500,7000,NA,NA,-SHRA,NA,NA,NA,NA,NA,NA,68,METAR KLGA 231000Z 24015KT 7SM -SHRA SCT025 OVC070 20/18 A3006 RMK WND 220V260 SLP180 P0004 T02000177,NA
LGA,1973-09-23T11:00:00Z,-73.8803,40.7794,66.92,63.86,89.9,230,7,0.06,30.05,1017.6,3,NA,SCT,OVC,   ,   ,3000,6000,NA,NA,-SHRA DZ,NA,NA,NA,NA,NA,NA,66.92,METAR KLGA 231100Z 23007KT 3SM -SHRA DZ SCT030 OVC060 19/18 A3005 RMK TB01E30 MOVD SE PK WND 04 SLP176 P0006 74/22 T01940177 5204/,NA
LGA,1973-09-23T12:00:00Z,-73.8803,40.7794,66.9,64.9,93.29,230,10,NA,30.07,NA,3,NA,   ,   ,   ,   ,NA,NA,NA,NA,NA,NA,NA,NA,NA,NA,NA,66.9,METAR KLGA 231200Z 23010KT 3SM FGDZ BKN012 OVC028 19/18 A3007 RMK WND 210V250 SLP183 60020 70020 T01940183,NA
LGA,1973-09-23T13:00:00Z,-73.8803,40.7794,68,64.9,89.81,250,10,NA,30.06,NA,3,NA,   ,   ,   ,   ,NA,NA,NA,NA,NA,NA,NA,NA,NA,NA,NA,68,METAR KLGA 231300Z 24010KT 3SM FUDZ BKN015 BKN028 OVC120 20/18 A3006 RMK BINOVC SLP180 T02000183,NA
LGA,1973-09-23T14:00:00Z,-73.8803,40.7794,70,64.9,83.86,230,9.04,NA,30.06,NA,3,NA,   ,   ,   ,   ,NA,NA,NA,NA,NA,NA,NA,NA,NA,NA,NA,70,METAR KLGA 231400Z 23009KT 3SM FUDZ BKN016 BKN030 OVC120 21/18 A3006 RMK SLP180 T02110183,NA
LGA,1973-09-23T15:00:00Z,-73.8803,40.7794,72,66,81.41,250,8,NA,30.07,NA,4,NA,   ,   ,   ,   ,NA,NA,NA,NA,NA,NA,NA,NA,NA,NA,NA,72,METAR KLGA 231500Z 25008KT 4SM FUDZ SCT015 SCT030 BKN120 22/19 A3007 RMK SLP183 8/550 T02220189 55000,NA
LGA,1973-09-23T16:00:00Z,-73.8803,40.7794,72.9,64.9,76,290,7.04,NA,30.06,NA,6,NA,   ,   ,   ,   ,NA,NA,NA,NA,NA,NA,NA,NA,NA,NA,NA,72.9,METAR KLGA 231600Z 29007KT 6SM FUDZ SCT030 BKN120 23/18 A3006 RMK SLP180 T02270183,NA
LGA,1973-09-23T17:00:00Z,-73.8803,40.7794,73.94,62.96,68.57,280,8,NA,30.06,1018,7,NA,BKN,BKN,   ,   ,3000,20000,NA,NA,NA,NA,NA,NA,NA,NA,NA,73.94,METAR KLGA 231700Z 28008KT 7SM BKN030 BKN200 23/17 A3006 RMK VA UA O/SBJ %V50 SLP180 8/655 T02330172,NA
LGA,1973-09-23T18:00:00Z,-73.8803,40.7794,77,64.04,64.3,250,5,NA,30.03,1016.9,8,NA,BKN,BKN,   ,   ,3500,12000,NA,NA,NA,NA,NA,NA,NA,NA,NA,77,METAR KLGA 231800Z 25005KT 8SM BKN035 BKN120 25/18 A3003 RMK VA SLP169 T02500178,NA
LGA,1973-09-23T19:00:00Z,-73.8803,40.7794,78.98,62.96,57.99,310,6,NA,30.02,1016.6,9,NA,BKN,BKN,   ,   ,3800,12000,NA,NA,NA,NA,NA,NA,NA,NA,NA,80.52,METAR KLGA 231900Z 31006KT 9SM BKN038 BKN120 26/17 A3002 RMK VA SLP166 T02610172,NA
LGA,1973-09-23T20:00:00Z,-73.8803,40.7794,79.88,57.92,47.07,270,11,NA,30.01,1016.3,10,NA,BKN,BKN,   ,   ,4000,12000,NA,NA,NA,NA,NA,NA,NA,NA,NA,79.88,METAR KLGA 232000Z 27011KT 10SM BKN040 BKN120 27/14 A3001 RMK SLP163 T02660144,NA
LGA,1973-09-23T21:00:00Z,-73.8803,40.7794,80.96,57.92,45.44,320,6,NA,30.02,1016.6,10,NA,BKN,BKN,   ,   ,4000,12000,NA,NA,NA,NA,NA,NA,NA,NA,NA,81.18,METAR KLGA 232100Z 32006KT 10SM BKN040 BKN120 27/14 A3002 RMK SLP166 8/130 T02720144 55003,NA
LGA,1973-09-23T22:00:00Z,-73.8803,40.7794,79.88,54.86,42.14,280,7,NA,30.03,1016.9,15,NA,SCT,   ,   ,   ,5000,NA,NA,NA,NA,NA,NA,NA,NA,NA,NA,79.88,METAR KLGA 232200Z 28007KT 15SM SCT050 27/13 A3003 RMK SLP169 T02660127,NA
LGA,1973-09-23T23:00:00Z,-73.8803,40.7794,73.94,64.94,73.49,140,9,NA,30.05,1017.6,7,NA,SCT,   ,   ,   ,5000,NA,NA,NA,NA,NA,NA,NA,NA,NA,NA,73.94,METAR KLGA 232300Z 14009KT 7SM SCT050 23/18 A3005 RMK VSBY HIR W SLP176 T02330183,NA
LGA,1973-09-24T00:00:00Z,-73.8803,40.7794,73.04,64.04,73.41,170,7,NA,30.07,1018.3,7,NA,SCT,   ,   ,   ,5000,NA,NA,NA,NA,NA,NA,NA,NA,NA,NA,73.04,METAR KLGA 240000Z 17007KT 7SM SCT050 23/18 A3007 RMK SLP183 T02280178,NA
LGA,1973-09-24T01:00:00Z,-73.8803,40.7794,71.96,63.86,75.66,130,5,NA,30.08,1018.6,9,NA,SCT,   ,   ,   ,5000,NA,NA,NA,NA,NA,NA,NA,NA,NA,NA,71.96,METAR KLGA 240100Z 13005KT 9SM SCT050 22/18 A3008 RMK SLP186 T02220177,NA
LGA,1973-09-24T02:00:00Z,-73.8803,40.7794,71.96,63.86,75.66,140,4,NA,30.09,1019,7,NA,CLR,   ,   ,   ,NA,NA,NA,NA,NA,NA,NA,NA,NA,NA,NA,71.96,METAR KLGA 240200Z 14004KT 7SM CLR 22/18 A3009 RMK SLP190 T02220177,NA
LGA,1973-09-24T03:00:00Z,-73.8803,40.7794,69.08,64.94,86.66,0,0,NA,30.09,1019,5,NA,CLR,   ,   ,   ,NA,NA,NA,NA,FG,NA,NA,NA,NA,NA,NA,69.08,METAR KLGA 240300Z 00000KT 5SM FG CLR 21/18 A3009 RMK SLP190 T02060183 51007,NA
LGA,1973-09-24T04:00:00Z,-73.8803,40.7794,68.9,64.94,87.2,0,0,NA,30.09,1019,4,NA,CLR,   ,   ,   ,NA,NA,NA,NA,MIBCFG,NA,NA,NA,NA,NA,NA,68.9,METAR KLGA 240400Z 00000KT 4SM MIBCFG CLR 20/18 A3009 RMK VA SLP190 T02050183,NA
LGA,1973-09-24T05:00:00Z,-73.8803,40.7794,68,65.84,92.8,330,3,NA,30.09,1019,4,NA,SCT,   ,   ,   ,25000,NA,NA,NA,MIBCFG,NA,NA,NA,NA,NA,NA,68,METAR KLGA 240500Z 33003KT 4SM MIBCFG SCT250 20/19 A3009 RMK VA SLP190 T02000188,NA
LGA,1973-09-24T06:00:00Z,-73.8803,40.7794,66.02,60.98,83.79,20,4,NA,30.1,1019.3,8,NA,FEW,   ,   ,   ,25000,NA,NA,NA,NA,NA,NA,NA,NA,NA,NA,66.02,METAR KLGA 240600Z 02004KT 8SM FEW250 19/16 A3010 RMK VA SLP193 T01890161,NA
LGA,1973-09-24T07:00:00Z,-73.8803,40.7794,63.86,59.9,86.94,20,6,NA,30.11,1019.6,10,NA,BKN,   ,   ,   ,25000,NA,NA,NA,NA,NA,NA,NA,NA,NA,NA,63.86,METAR KLGA 240700Z 02006KT 10SM BKN250 18/16 A3011 RMK VA SLP196 T01770155,NA
LGA,1973-09-24T08:00:00Z,-73.8803,40.7794,62.96,57.92,83.6,10,6,NA,30.12,1020,15,NA,BKN,   ,   ,   ,25000,NA,NA,NA,NA,NA,NA,NA,NA,NA,NA,62.96,METAR KLGA 240800Z 01006KT 15SM BKN250 17/14 A3012 RMK SLP200 T01720144,NA
LGA,1973-09-24T09:00:00Z,-73.8803,40.7794,62.96,55.94,77.83,50,8,NA,30.13,1020.3,10,NA,CLR,   ,   ,   ,NA,NA,NA,NA,NA,NA,NA,NA,NA,NA,NA,62.96,METAR KLGA 240900Z 05008KT 10SM CLR 17/13 A3013 RMK SLP203 T01720133 53010,NA
LGA,1973-09-24T10:00:00Z,-73.8803,40.7794,60.98,55.94,83.47,30,7,NA,30.15,1021,15,NA,CLR,   ,   ,   ,NA,NA,NA,NA,NA,NA,NA,NA,NA,NA,NA,60.98,METAR KLGA 241000Z 03007KT 15SM CLR 16/13 A3015 RMK WND 010V050 VA SLP210 T01610133,NA
LGA,1973-09-24T11:00:00Z,-73.8803,40.7794,60.98,56.84,86.23,20,6,NA,30.17,1021.7,9,NA,CLR,   ,   ,   ,NA,NA,NA,NA,NA,NA,NA,NA,NA,NA,NA,60.98,METAR KLGA 241100Z 02006KT 9SM CLR 16/14 A3017 RMK FEW SC-AC VA SLP217 T01610138,NA
LGA,1973-09-24T11:28:00Z,-73.8803,40.7794,NA,NA,NA,50,9,NA,30.19,NA,9,NA,SCT,SCT,NA,NA,900,3000,NA,NA,NA,NA,NA,NA,NA,NA,NA,NA,KLGA 241128Z AUTO 05009KT 9SM SCT009 SCT030 A3019 RMK IEM_DS3505,NA
LGA,1973-09-24T11:33:00Z,-73.8803,40.7794,NA,NA,NA,50,10,NA,30.19,NA,9,NA,BKN,BKN,NA,NA,1100,3000,NA,NA,NA,NA,NA,NA,NA,NA,NA,NA,KLGA 241133Z AUTO 05010KT 9SM BKN011 BKN030 A3019 RMK IEM_DS3505,NA
LGA,1973-09-24T12:00:00Z,-73.8803,40.7794,60.98,57.02,86.79,50,10,NA,30.19,1022.4,8,NA,OVC,   ,   ,   ,NA,NA,NA,NA,NA,NA,NA,NA,NA,NA,NA,60.98,METAR KLGA 241200Z 05010KT 8SM OVC/// 16/14 A//// RMK SLP224 T01610139,NA
LGA,1973-09-24T14:00:00Z,-73.8803,40.7794,63.86,60.98,90.35,30,12,NA,30.22,1023.4,7,NA,SCT,OVC,   ,   ,300,900,NA,NA,NA,NA,NA,NA,NA,NA,NA,63.86,METAR KLGA 241400Z 03012KT 7SM SCT003 OVC009 18/16 A3022 RMK LGA9/9 SLP234 T01770161,NA
LGA,1973-09-24T15:00:00Z,-73.8803,40.7794,66.02,60.08,81.15,90,8,NA,30.23,1023.7,7,NA,SCT,BKN,OVC,   ,1100,1400,2000,NA,NA,NA,NA,NA,NA,NA,NA,66.02,METAR KLGA 241500Z 09008KT 7SM SCT011 BKN014 OVC020 19/16 A3023 RMK VALGA9/9 SLP237 8/5// T01890156 52014,NA
LGA,1973-09-24T17:00:00Z,-73.8803,40.7794,68.9,59.9,73.01,50,8,NA,30.22,1023.4,8,NA,BKN,OVC,   ,   ,1900,2500,NA,NA,NA,NA,NA,NA,NA,NA,NA,68.9,METAR KLGA 241700Z 05008KT 8SM BKN019 OVC025 20/16 A3022 RMK BINOVCLGA9/9 Z SLP234 T02050155,NA
LGA,1973-09-24T18:00:00Z,-73.8803,40.7794,66.02,62.06,87.05,50,12,NA,30.21,1023,7,NA,SCT,BKN,OVC,   ,1200,1700,2500,NA,NA,NA,NA,NA,NA,NA,NA,66.02,METAR KLGA 241800Z 05012KT 7SM SCT012 BKN017 OVC025 19/17 A3021 RMK LGA9/9 SLP230 T01890167,NA
LGA,1973-09-24T21:00:00Z,-73.8803,40.7794,64.04,60.08,86.95,40,17,NA,30.23,1023.7,6,NA,SCT,BKN,OVC,   ,900,1300,3000,NA,-SHRA DZ,NA,NA,NA,NA,NA,NA,64.04,METAR KLGA 242100Z 04017KT 6SM -SHRA DZ SCT009 BKN013 OVC030 18/16 A3023 RMK 15//LGA9/9 SLP237 T01780156 53007,NA
LGA,1973-09-25T00:00:00Z,-73.8803,40.7794,62.06,57.92,86.29,60,13,NA,30.27,1025.1,9,NA,BKN,OVC,   ,   ,1100,2500,NA,NA,NA,NA,NA,NA,NA,NA,NA,62.06,METAR KLGA 250000Z 06013KT 9SM BKN011 OVC025 17/14 A3027 RMK SLP251 T01670144,NA
LGA,1973-09-25T01:00:00Z,-73.8803,40.7794,60.98,56.84,86.23,60,14,NA,30.3,1026.1,10,NA,BKN,OVC,   ,   ,1100,2500,NA,NA,NA,NA,NA,NA,NA,NA,NA,60.98,METAR KLGA 250100Z 06014KT 10SM BKN011 OVC025 16/14 A3030 RMK SLP261 T01610138,NA
LGA,1973-09-25T02:00:00Z,-73.8803,40.7794,60.98,57.92,89.65,50,17,NA,30.31,1026.4,10,23,BKN,OVC,   ,   ,900,2500,NA,NA,-DZ,NA,NA,NA,NA,NA,NA,60.98,METAR KLGA 250200Z 05017G23KT 10SM -DZ BKN009 OVC025 16/14 A3031 RMK LB50 SLP264 T01610144,NA
LGA,1973-09-25T03:00:00Z,-73.8803,40.7794,60.98,57.02,86.79,50,18,NA,30.33,1027.1,15,NA,BKN,OVC,   ,   ,900,2500,NA,NA,NA,NA,NA,NA,NA,NA,NA,60.98,METAR KLGA 250300Z 05018KT 15SM BKN009 OVC025 16/14 A3033 RMK LE05/ 15//LGA 9/10 OM 4 OTS SLP271 72000 T01610139 52020,NA
LGA,1973-09-25T04:00:00Z,-73.8803,40.7794,59.9,56.84,89.6,50,18,NA,30.33,1027.1,15,NA,OVC,   ,   ,   ,900,NA,NA,NA,NA,NA,NA,NA,NA,NA,NA,59.9,METAR KLGA 250400Z 05018KT 15SM OVC009 16/14 A3033 RMK SLP271 T01550138,NA
LGA,1973-09-25T05:00:00Z,-73.8803,40.7794,59.9,57.92,93.16,50,18,NA,30.34,1027.4,15,25,OVC,   ,   ,   ,900,NA,NA,NA,-DZ,NA,NA,NA,NA,NA,NA,59.9,METAR KLGA 250500Z 05018G25KT 15SM -DZ OVC009 16/14 A3034 RMK CIG RGDLGA9/11 SLP274 T01550144,NA
LGA,1973-09-25T06:00:00Z,-73.8803,40.7794,60.08,57.02,89.61,60,16,NA,30.35,1027.8,10,NA,OVC,   ,   ,   ,1000,NA,NA,NA,-DZ,NA,NA,NA,NA,NA,NA,60.08,METAR KLGA 250600Z 06016KT 10SM -DZ OVC010 16/14 A3035 RMK CIG RGDLGA9/11 SLP278 T01560139,NA
LGA,1973-09-25T07:00:00Z,-73.8803,40.7794,59.9,56.84,89.6,60,16,NA,30.34,1027.4,10,NA,OVC,   ,   ,   ,1000,NA,NA,NA,-DZ,NA,NA,NA,NA,NA,NA,59.9,METAR KLGA 250700Z 06016KT 10SM -DZ OVC010 16/14 A3034 RMK CIG RGDLGA9/11 SLP274 T01550138,NA
LGA,1973-09-25T08:00:00Z,-73.8803,40.7794,59,55.94,89.57,50,17,NA,30.34,1027.4,10,NA,OVC,   ,   ,   ,900,NA,NA,NA,-DZ,NA,NA,NA,NA,NA,NA,59,METAR KLGA 250800Z 05017KT 10SM -DZ OVC009 15/13 A3034 RMK LGA9/11 SLP274 T01500133,NA
LGA,1973-09-25T09:00:00Z,-73.8803,40.7794,59,55.04,86.69,60,15,NA,30.35,1027.8,9,NA,BKN,OVC,   ,   ,700,1000,NA,NA,NA,NA,NA,NA,NA,NA,NA,59,METAR KLGA 250900Z 06015KT 9SM BKN007 OVC010 15/13 A3035 RMK LE30 17//LGA9/1 SLP278 T01500128 53002,NA
LGA,1973-09-25T10:00:00Z,-73.8803,40.7794,57.92,54.86,89.52,60,12,NA,30.37,1028.4,20,17,BKN,BKN,OVC,   ,800,1000,1200,NA,NA,NA,NA,NA,NA,NA,NA,57.92,METAR KLGA 251000Z 06012G17KT 20SM BKN008 BKN010 OVC012 14/13 A3037 RMK WND 040V080LGA9/11 SLP284 T01440127,NA
LGA,1973-09-25T11:00:00Z,-73.8803,40.7794,57.92,53.96,86.63,70,13,NA,30.39,1029.1,9,NA,SCT,BKN,OVC,   ,800,1000,2300,NA,NA,NA,NA,NA,NA,NA,NA,57.92,METAR KLGA 251100Z 07013KT 9SM SCT008 BKN010 OVC023 14/12 A3039 RMK VALGA9/11 SLP291 T01440122,NA
LGA,1973-09-25T12:00:00Z,-73.8803,40.7794,57.92,55.04,90.11,40,15,NA,30.42,1030.1,8,NA,BKN,OVC,   ,   ,900,2000,NA,NA,NA,NA,NA,NA,NA,NA,NA,57.92,METAR KLGA 251200Z 04015KT 8SM BKN009 OVC020 14/13 A3042 RMK SLP301 T01440128,NA
LGA,1973-09-25T13:00:00Z,-73.8803,40.7794,57.92,53.96,86.63,60,14,NA,30.44,1030.8,8,NA,BKN,OVC,   ,   ,1100,1700,NA,NA,NA,NA,NA,NA,NA,NA,NA,57.92,METAR KLGA 251300Z 06014KT 8SM BKN011 OVC017 14/12 A3044 RMK VA SLP308 T01440122,NA
LGA,1973-09-25T14:00:00Z,-73.8803,40.7794,59,53.96,83.34,70,12,NA,30.45,1031.2,8,NA,BKN,OVC,   ,   ,1100,2000,NA,NA,NA,NA,NA,NA,NA,NA,NA,59,METAR KLGA 251400Z 07012KT 8SM BKN011 OVC020 15/12 A3045 RMK SLP312 T01500122,NA
LGA,1973-09-25T15:00:00Z,-73.8803,40.7794,59,53.96,83.34,60,14,NA,30.46,1031.5,8,NA,BKN,OVC,   ,   ,1200,2000,NA,NA,NA,NA,NA,NA,NA,NA,NA,59,METAR KLGA 251500Z 06014KT 8SM BKN012 OVC020 15/12 A3046 RMK VA SLP315 8/5// T01500122 52014,NA
LGA,1973-09-25T16:00:00Z,-73.8803,40.7794,59,53.96,83.34,60,11,NA,30.46,1031.5,8,NA,BKN,OVC,   ,   ,1200,1700,NA,NA,NA,NA,NA,NA,NA,NA,NA,59,METAR KLGA 251600Z 06011KT 8SM BKN012 OVC017 15/12 A3046 RMK VA SLP315 T01500122,NA
LGA,1973-09-25T17:00:00Z,-73.8803,40.7794,59.9,52.88,77.57,60,13,NA,30.47,1031.8,9,NA,BKN,OVC,   ,   ,1500,2000,NA,NA,NA,NA,NA,NA,NA,NA,NA,59.9,METAR KLGA 251700Z 06013KT 9SM BKN015 OVC020 16/12 A3047 RMK VA SLP318 T01550116,NA
LGA,1973-09-25T18:00:00Z,-73.8803,40.7794,60.98,53.06,75.14,50,12,NA,30.46,1031.5,10,NA,BKN,OVC,   ,   ,1800,2200,NA,NA,NA,NA,NA,NA,NA,NA,NA,60.98,METAR KLGA 251800Z 05012KT 10SM BKN018 OVC022 16/12 A3046 RMK VA SLP315 T01610117,NA
LGA,1973-09-25T19:00:00Z,-73.8803,40.7794,62.96,51.98,67.34,60,6,NA,30.45,1031.2,10,NA,SCT,BKN,   ,   ,2100,3000,NA,NA,NA,NA,NA,NA,NA,NA,NA,62.96,METAR KLGA 251900Z 06006KT 10SM SCT021 BKN030 17/11 A3045 RMK CLR N SLP312 T01720111,NA
LGA,1973-09-25T20:00:00Z,-73.8803,40.7794,61.88,51.98,69.95,50,9,NA,30.44,1030.8,10,NA,SCT,BKN,   ,   ,2500,3000,NA,NA,NA,NA,NA,NA,NA,NA,NA,61.88,METAR KLGA 252000Z 05009KT 10SM SCT025 BKN030 17/11 A3044 RMK VA SLP308 T01660111,NA
LGA,1973-09-25T21:00:00Z,-73.8803,40.7794,62.06,51.98,69.51,170,7,NA,30.44,1030.8,10,NA,BKN,   ,   ,   ,2400,NA,NA,NA,NA,NA,NA,NA,NA,NA,NA,62.06,METAR KLGA 252100Z 17007KT 10SM BKN024 17/11 A3044 RMK VA SLP308 8/500 T01670111 56007,NA
LGA,1973-09-25T22:00:00Z,-73.8803,40.7794,61.88,50.9,67.21,160,7,NA,30.45,1031.2,10,NA,OVC,   ,   ,   ,2800,NA,NA,NA,NA,NA,NA,NA,NA,NA,NA,61.88,METAR KLGA 252200Z 16007KT 10SM OVC028 17/11 A3045 RMK BINOVC VA SLP312 T01660105,NA
LGA,1973-09-25T23:00:00Z,-73.8803,40.7794,60.98,50.9,69.39,180,7,NA,30.45,1031.2,10,NA,SCT,BKN,   ,   ,2500,3000,NA,NA,NA,NA,NA,NA,NA,NA,NA,60.98,METAR KLGA 252300Z 18007KT 10SM SCT025 BKN030 16/11 A3045 RMK LGA 9/12 LOC/GP OTS SLP312 T01610105,NA
LGA,1973-09-26T00:00:00Z,-73.8803,40.7794,60.08,51.08,72.13,170,8,NA,30.47,1031.8,10,NA,SCT,   ,   ,   ,2500,NA,NA,NA,NA,NA,NA,NA,NA,NA,NA,60.08,METAR KLGA 260000Z 17008KT 10SM SCT025 16/11 A3047 RMK VA SLP318 T01560106,NA
LGA,1973-09-26T01:00:00Z,-73.8803,40.7794,59.9,50,69.74,160,6,NA,30.48,1032.2,10,NA,SCT,   ,   ,   ,2500,NA,NA,NA,NA,NA,NA,NA,NA,NA,NA,59.9,METAR KLGA 260100Z 16006KT 10SM SCT025 16/10 A3048 RMK SLP322 T01550100,NA
LGA,1973-09-26T02:00:00Z,-73.8803,40.7794,59.9,50,69.74,150,6,NA,30.49,1032.5,10,NA,SCT,   ,   ,   ,2500,NA,NA,NA,NA,NA,NA,NA,NA,NA,NA,59.9,METAR KLGA 260200Z 15006KT 10SM SCT025 16/10 A3049 RMK SLP325 T01550100,NA
LGA,1973-09-26T03:00:00Z,-73.8803,40.7794,59,51.08,74.96,130,6,NA,30.49,1032.5,10,NA,SCT,   ,   ,   ,2500,NA,NA,NA,NA,NA,NA,NA,NA,NA,NA,59,METAR KLGA 260300Z 13006KT 10SM SCT025 15/11 A3049 RMK SLP325 8/500 T01500106 51007,NA
LGA,1973-09-26T04:00:00Z,-73.8803,40.7794,57.92,50.9,77.4,160,4,NA,30.5,1032.9,15,NA,SCT,   ,   ,   ,2500,NA,NA,NA,NA,NA,NA,NA,NA,NA,NA,57.92,METAR KLGA 260400Z 16004KT 15SM SCT025 14/11 A3050 RMK VA SLP329 T01440105,NA
LGA,1973-09-26T05:00:00Z,-73.8803,40.7794,57.92,51.98,80.55,50,5,NA,30.5,1032.9,15,NA,OVC,   ,   ,   ,2800,NA,NA,NA,NA,NA,NA,NA,NA,NA,NA,57.92,METAR KLGA 260500Z 05005KT 15SM OVC028 14/11 A3050 RMK VA SLP329 T01440111,NA
LGA,1973-09-26T06:00:00Z,-73.8803,40.7794,59,53.06,80.64,60,5,NA,30.51,1033.3,10,NA,SCT,OVC,   ,   ,2900,3300,NA,NA,NA,NA,NA,NA,NA,NA,NA,59,METAR KLGA 260600Z 06005KT 10SM SCT029 OVC033 15/12 A3051 RMK VA SLP333 T01500117,NA
LGA,1973-09-26T07:00:00Z,-73.8803,40.7794,57.92,51.98,80.55,80,7,NA,30.5,1032.9,10,NA,OVC,   ,   ,   ,2900,NA,NA,NA,NA,NA,NA,NA,NA,NA,NA,57.92,METAR KLGA 260700Z 08007KT 10SM OVC029 14/11 A3050 RMK BINOVC SLP329 T01440111,NA
LGA,1973-09-26T08:00:00Z,-73.8803,40.7794,56.84,50.9,80.47,80,8,NA,30.49,1032.5,15,NA,SCT,   ,   ,   ,3000,NA,NA,NA,NA,NA,NA,NA,NA,NA,NA,56.84,METAR KLGA 260800Z 08008KT 15SM SCT030 14/11 A3049 RMK SLP325 T01380105,NA
LGA,1973-09-26T09:00:00Z,-73.8803,40.7794,55.04,50,83.08,90,6,NA,30.5,1032.9,15,NA,CLR,   ,   ,   ,NA,NA,NA,NA,NA,NA,NA,NA,NA,NA,NA,55.04,METAR KLGA 260900Z 09006KT 15SM CLR 13/10 A3050 RMK FEW SC SW / VA SLP329 8/500 T01280100 55003,NA
LGA,1973-09-26T10:00:00Z,-73.8803,40.7794,55.94,50,80.4,120,5,NA,30.51,1033.2,15,NA,CLR,   ,   ,   ,NA,NA,NA,NA,NA,NA,NA,NA,NA,NA,NA,55.94,METAR KLGA 261000Z 12005KT 15SM CLR 13/10 A3051 RMK FEW SC S W VA SLP332 T01330100,NA
LGA,1973-09-26T11:00:00Z,-73.8803,40.7794,55.94,50.9,83.14,80,7,NA,30.52,1033.5,9,NA,SCT,SCT,   ,   ,900,25000,NA,NA,NA,NA,NA,NA,NA,NA,NA,55.94,METAR KLGA 261100Z 08007KT 9SM SCT009 SCT250 13/11 A3052 RMK VA SLP335 T01330105,NA
LGA,1973-09-26T12:00:00Z,-73.8803,40.7794,59,51.08,74.96,150,6,NA,30.53,1033.9,8,NA,SCT,   ,   ,   ,1500,NA,NA,NA,NA,NA,NA,NA,NA,NA,NA,59,METAR KLGA 261200Z 15006KT 8SM SCT015 15/11 A3053 RMK ST E AND SW VA SLP339 T01500106,NA
LGA,1973-09-26T13:00:00Z,-73.8803,40.7794,61.88,51.98,69.95,110,8,NA,30.52,1033.5,10,NA,CLR,   ,   ,   ,NA,NA,NA,NA,NA,NA,NA,NA,NA,NA,NA,61.88,METAR KLGA 261300Z 11008KT 10SM CLR 17/11 A3052 RMK KOCTY VA SLP335 T01660111,NA
LGA,1973-09-26T14:00:00Z,-73.8803,40.7794,62.96,50,62.58,90,5,NA,30.54,1034.2,10,NA,SCT,   ,   ,   ,3000,NA,NA,NA,NA,NA,NA,NA,NA,NA,NA,62.96,METAR KLGA 261400Z 09005KT 10SM SCT030 17/10 A3054 RMK VA SLP342 T01720100,NA
LGA,1973-09-26T15:00:00Z,-73.8803,40.7794,66.02,51.08,58.53,50,6,NA,30.55,1034.5,10,NA,SCT,SCT,   ,   ,3000,25000,NA,NA,NA,NA,NA,NA,NA,NA,NA,66.02,METAR KLGA 261500Z 05006KT 10SM SCT030 SCT250 19/11 A3055 RMK VA SLP345 8/001 T01890106 53007,NA
LGA,1973-09-26T16:00:00Z,-73.8803,40.7794,68,50,52.51,110,5,NA,30.53,1033.9,10,NA,SCT,   ,   ,   ,25000,NA,NA,NA,NA,NA,NA,NA,NA,NA,NA,68,METAR KLGA 261600Z 11005KT 10SM SCT250 20/10 A3053 RMK FEW CU SLP339 T02000100,NA
LGA,1973-09-26T17:00:00Z,-73.8803,40.7794,69.98,50.9,50.73,130,6,NA,30.52,1033.5,10,NA,SCT,   ,   ,   ,4500,NA,NA,NA,NA,NA,NA,NA,NA,NA,NA,69.98,METAR KLGA 261700Z 13006KT 10SM SCT045 21/11 A3052 RMK SLP335 T02110105 56050,NA
LGA,1973-09-26T18:00:00Z,-73.8803,40.7794,69.08,51.98,54.45,200,9,NA,30.5,1032.9,10,NA,SCT,   ,   ,   ,4500,NA,NA,NA,NA,NA,NA,NA,NA,NA,NA,69.08,METAR KLGA 261800Z 20009KT 10SM SCT045 21/11 A3050 RMK SLP329 T02060111,NA
LGA,1973-09-26T19:00:00Z,-73.8803,40.7794,68,51.98,56.51,200,9,NA,30.48,1032.2,10,NA,SCT,   ,   ,   ,4500,NA,NA,NA,NA,NA,NA,NA,NA,NA,NA,68,METAR KLGA 261900Z 20009KT 10SM SCT045 20/11 A3048 RMK SLP322 T02000111,NA
LGA,1973-09-26T20:00:00Z,-73.8803,40.7794,68,50,52.51,170,11,NA,30.46,1031.5,15,NA,SCT,   ,   ,   ,4500,NA,NA,NA,NA,NA,NA,NA,NA,NA,NA,68,METAR KLGA 262000Z 17011KT 15SM SCT045 20/10 A3046 RMK VA SLP315 T02000100,NA
LGA,1973-09-26T21:00:00Z,-73.8803,40.7794,66.92,51.08,56.73,130,10,NA,30.47,1031.8,10,NA,FEW,   ,   ,   ,25000,NA,NA,NA,NA,NA,NA,NA,NA,NA,NA,66.92,METAR KLGA 262100Z 13010KT 10SM FEW250 19/11 A3047 RMK VA SLP318 8/001 T01940106 55010,NA
LGA,1973-09-27T00:00:00Z,-73.8803,40.7794,62.96,53.06,70.07,170,8,NA,30.48,1032.2,10,NA,FEW,   ,   ,   ,25000,NA,NA,NA,NA,NA,NA,NA,NA,NA,NA,62.96,METAR KLGA 270000Z 17008KT 10SM FEW250 17/12 A3048 RMK VA SLP322 T01720117,NA
LGA,1973-09-27T01:00:00Z,-73.8803,40.7794,62.96,53.96,72.42,170,8,NA,30.49,1032.5,15,NA,SCT,   ,   ,   ,25000,NA,NA,NA,NA,NA,NA,NA,NA,NA,NA,62.96,METAR KLGA 270100Z 17008KT 15SM SCT250 17/12 A3049 RMK VA SLP325 T01720122,NA
LGA,1973-09-27T02:00:00Z,-73.8803,40.7794,60.98,53.96,77.66,180,5,NA,30.51,1033.2,15,NA,SCT,   ,   ,   ,25000,NA,NA,NA,NA,NA,NA,NA,NA,NA,NA,60.98,METAR KLGA 270200Z 18005KT 15SM SCT250 16/12 A3051 RMK VA SLP332 T01610122,NA
LGA,1973-09-27T03:00:00Z,-73.8803,40.7794,60.98,53.06,75.14,210,5,NA,30.51,1033.2,15,NA,BKN,   ,   ,   ,4100,NA,NA,NA,NA,NA,NA,NA,NA,NA,NA,60.98,METAR KLGA 270300Z 21005KT 15SM BKN041 16/12 A3051 RMK VA SLP332 8/500 T01610117 52010,NA
LGA,1973-09-27T04:00:00Z,-73.8803,40.7794,61.88,53.96,75.23,210,6,NA,30.5,1032.9,15,NA,OVC,   ,   ,   ,4400,NA,NA,NA,NA,NA,NA,NA,NA,NA,NA,61.88,METAR KLGA 270400Z 21006KT 15SM OVC044 17/12 A3050 RMK VA SLP329 T01660122,NA
LGA,1973-09-27T05:00:00Z,-73.8803,40.7794,62.96,55.94,77.83,200,7,NA,30.49,1032.5,10,NA,OVC,   ,   ,   ,3900,NA,NA,NA,NA,NA,NA,NA,NA,NA,NA,62.96,METAR KLGA 270500Z 20007KT 10SM OVC039 17/13 A3049 RMK VA SLP325 T01720133,NA
LGA,1973-09-27T06:00:00Z,-73.8803,40.7794,62.96,55.94,77.83,190,7,NA,30.47,1031.8,10,NA,OVC,   ,   ,   ,3900,NA,NA,NA,NA,NA,NA,NA,NA,NA,NA,62.96,METAR KLGA 270600Z 19007KT 10SM OVC039 17/13 A3047 RMK VA SLP318 T01720133,NA
LGA,1973-09-27T07:00:00Z,-73.8803,40.7794,62.96,56.84,80.41,210,7,NA,30.45,1031.2,10,NA,OVC,   ,   ,   ,3900,NA,NA,NA,NA,NA,NA,NA,NA,NA,NA,62.96,METAR KLGA 270700Z 21007KT 10SM OVC039 17/14 A3045 RMK VA SLP312 T01720138,NA
LGA,1973-09-27T08:00:00Z,-73.8803,40.7794,60.98,55.94,83.47,210,7,NA,30.43,1030.5,10,NA,SCT,   ,   ,   ,4000,NA,NA,NA,NA,NA,NA,NA,NA,NA,NA,60.98,METAR KLGA 270800Z 21007KT 10SM SCT040 16/13 A3043 RMK VA SLP305 T01610133,NA
LGA,1973-09-27T09:00:00Z,-73.8803,40.7794,62.06,57.02,83.54,210,6,NA,30.43,1030.5,10,NA,OVC,   ,   ,   ,4500,NA,NA,NA,NA,NA,NA,NA,NA,NA,NA,62.06,METAR KLGA 270900Z 21006KT 10SM OVC045 17/14 A3043 RMK BINOVC SLP305 8/500 T01670139 56014,NA
LGA,1973-09-27T10:00:00Z,-73.8803,40.7794,60.98,50.9,69.39,230,6,NA,30.43,1030.5,10,NA,OVC,   ,   ,   ,4600,NA,NA,NA,NA,NA,NA,NA,NA,NA,NA,60.98,METAR KLGA 271000Z 23006KT 10SM OVC046 16/11 A3043 RMK BINOVC SLP305 T01610105,NA
LGA,1973-09-27T11:00:00Z,-73.8803,40.7794,61,56.8,86.04,220,5.04,NA,30.42,NA,5,NA,   ,   ,   ,   ,NA,NA,NA,NA,NA,NA,NA,NA,NA,NA,NA,61,METAR KLGA 271100Z 22005KT 5SM FUDZ SCT045 SCT100 16/14 A3042 RMK SLP301 T01610138,NA
LGA,1973-09-27T12:00:00Z,-73.8803,40.7794,62.1,57,83.36,230,11.04,NA,30.43,NA,5,NA,   ,   ,   ,   ,NA,NA,NA,NA,NA,NA,NA,NA,NA,NA,NA,62.1,METAR KLGA 271200Z 23011KT 5SM FUDZ SCT045 SCT100 17/14 A3043 RMK VA SLP305 T01670139,NA
LGA,1973-09-27T13:00:00Z,-73.8803,40.7794,63.9,57.9,80.82,230,7.04,NA,30.42,NA,5,NA,   ,   ,   ,   ,NA,NA,NA,NA,NA,NA,NA,NA,NA,NA,NA,63.9,METAR KLGA 271300Z 23007KT 5SM FUDZ SCT045 SCT100 18/14 A3042 RMK VA SLP301 T01770144,NA
LGA,1973-09-27T14:00:00Z,-73.8803,40.7794,65.8,59,78.68,250,10,NA,30.41,NA,5,NA,   ,   ,   ,   ,NA,NA,NA,NA,NA,NA,NA,NA,NA,NA,NA,65.8,METAR KLGA 271400Z 24010KT 5SM FUDZ BKN045 BKN100 19/15 A3041 RMK VA SLP298 T01880150,NA
LGA,1973-09-27T15:00:00Z,-73.8803,40.7794,68,57.9,70.1,230,12,NA,30.39,NA,6,NA,   ,   ,   ,   ,NA,NA,NA,NA,NA,NA,NA,NA,NA,NA,NA,68,METAR KLGA 271500Z 23012KT 6SM FUDZ SCT023 BKN035 OVC049 20/14 A3039 RMK VA/ SLP291 8/5// T02000144 58012,NA
LGA,1973-09-27T16:00:00Z,-73.8803,40.7794,70.9,57.9,63.48,250,14,NA,30.35,NA,6,NA,   ,   ,   ,   ,NA,NA,NA,NA,NA,NA,NA,NA,NA,NA,NA,70.9,METAR KLGA 271600Z 24014KT 6SM FUDZ SCT024 BKN046 22/14 A3035 RMK VA SLP278 T02160144,NA
LGA,1973-09-27T16:25:00Z,-73.8803,40.7794,NA,NA,NA,250,13,NA,30.33,NA,8,NA,BKN,OVC,NA,NA,2800,4400,NA,NA,NA,NA,NA,NA,NA,NA,NA,NA,KLGA 271625Z AUTO 25013KT 8SM BKN028 OVC044 A3033 RMK IEM_DS3505,NA
LGA,1973-09-27T17:00:00Z,-73.8803,40.7794,71.96,59,63.7,250,14,NA,30.31,1026.4,8,NA,BKN,BKN,   ,   ,2800,4500,NA,NA,NA,NA,NA,NA,NA,NA,NA,71.96,METAR KLGA 271700Z 25014KT 8SM BKN028 BKN045 22/15 A3031 RMK 28V% VA SLP264 T02220150,NA
LGA,1973-09-27T18:00:00Z,-73.8803,40.7794,73.04,60.08,63.83,260,12,NA,30.27,1025.1,8,NA,BKN,   ,   ,   ,3000,NA,NA,NA,NA,NA,NA,NA,NA,NA,NA,73.04,METAR KLGA 271800Z 26012KT 8SM BKN030 23/16 A3027 RMK VA SLP251 T02280156,NA
LGA,1973-09-27T19:00:00Z,-73.8803,40.7794,74.84,59.9,59.7,250,13,NA,30.25,1024.4,8,NA,BKN,   ,   ,   ,3300,NA,NA,NA,NA,NA,NA,NA,NA,NA,NA,74.84,METAR KLGA 271900Z 25013KT 8SM BKN033 24/16 A3025 RMK VA SLP244 T02380155,NA
LGA,1973-09-27T20:00:00Z,-73.8803,40.7794,77,59,53.8,280,12,NA,30.22,1023.4,7,NA,BKN,   ,   ,   ,3500,NA,NA,NA,NA,NA,NA,NA,NA,NA,NA,77,METAR KLGA 272000Z 28012KT 7SM BKN035 25/15 A3022 RMK SLP234 T02500150,NA
LGA,1973-09-27T21:00:00Z,-73.8803,40.7794,75.92,59,55.77,250,12,NA,30.19,1022.4,7,NA,SCT,   ,   ,   ,3500,NA,NA,NA,NA,NA,NA,NA,NA,NA,NA,75.92,METAR KLGA 272100Z 25012KT 7SM SCT035 24/15 A3019 RMK SLP224 8/500 T02440150 57027,NA
LGA,1973-09-27T22:00:00Z,-73.8803,40.7794,74.84,59.9,59.7,260,8,NA,30.17,1021.7,7,NA,SCT,   ,   ,   ,3500,NA,NA,NA,NA,NA,NA,NA,NA,NA,NA,74.84,METAR KLGA 272200Z 26008KT 7SM SCT035 24/16 A3017 RMK SLP217 T02380155,NA
LGA,1973-09-27T23:00:00Z,-73.8803,40.7794,73.94,60.98,63.94,270,10,NA,30.17,1021.7,7,NA,SCT,   ,   ,   ,25000,NA,NA,NA,NA,NA,NA,NA,NA,NA,NA,73.94,METAR KLGA 272300Z 27010KT 7SM SCT250 23/16 A3017 RMK VA SLP217 T02330161,NA
LGA,1973-09-28T00:00:00Z,-73.8803,40.7794,73.04,60.98,65.9,250,8,NA,30.16,1021.3,7,NA,SCT,   ,   ,   ,25000,NA,NA,NA,NA,NA,NA,NA,NA,NA,NA,73.04,METAR KLGA 280000Z 25008KT 7SM SCT250 23/16 A3016 RMK VA SLP213 T02280161,NA
LGA,1973-09-28T01:00:00Z,-73.8803,40.7794,72.86,60.98,66.3,250,8,NA,30.15,1021,7,NA,SCT,   ,   ,   ,25000,NA,NA,NA,NA,NA,NA,NA,NA,NA,NA,72.86,METAR KLGA 280100Z 25008KT 7SM SCT250 23/16 A3015 RMK VA SLP210 T02270161,NA
LGA,1973-09-28T02:00:00Z,-73.8803,40.7794,71.96,61.88,70.56,250,9,NA,30.13,1020.3,7,NA,SCT,   ,   ,   ,25000,NA,NA,NA,NA,NA,NA,NA,NA,NA,NA,71.96,METAR KLGA 280200Z 25009KT 7SM SCT250 22/17 A3013 RMK VA SLP203 T02220166,NA
LGA,1973-09-28T03:00:00Z,-73.8803,40.7794,71.06,62.06,73.22,250,7,NA,30.14,1020.7,7,NA,SCT,   ,   ,   ,25000,NA,NA,NA,NA,NA,NA,NA,NA,NA,NA,71.06,METAR KLGA 280300Z 25007KT 7SM SCT250 22/17 A3014 RMK SLP207 8/001 T02170167 55007,NA
LGA,1973-09-28T05:00:00Z,-73.8803,40.7794,70.88,61.88,73.2,260,9,NA,30.1,1019.3,7,NA,SCT,   ,   ,   ,25000,NA,NA,NA,NA,NA,NA,NA,NA,NA,NA,70.88,METAR KLGA 280500Z 26009KT 7SM SCT250 22/17 A3010 RMK SLP193 T02160166,NA
LGA,1973-09-28T06:00:00Z,-73.8803,40.7794,71.06,62.06,73.22,250,8,NA,30.08,1018.6,7,NA,FEW,   ,   ,   ,25000,NA,NA,NA,NA,NA,NA,NA,NA,NA,NA,71.06,METAR KLGA 280600Z 25008KT 7SM FEW250 22/17 A3008 RMK SLP186 T02170167,NA
LGA,1973-09-28T07:00:00Z,-73.8803,40.7794,69.98,61.88,75.48,240,7,NA,30.05,1017.6,7,NA,SCT,BKN,   ,   ,8000,25000,NA,NA,NA,NA,NA,NA,NA,NA,NA,69.98,METAR KLGA 280700Z 24007KT 7SM SCT080 BKN250 21/17 A3005 RMK SLP176 T02110166,NA
LGA,1973-09-28T08:00:00Z,-73.8803,40.7794,69.98,61.88,75.48,260,8,NA,30.04,1017.3,7,NA,BKN,BKN,   ,   ,8000,25000,NA,NA,NA,NA,NA,NA,NA,NA,NA,69.98,METAR KLGA 280800Z 26008KT 7SM BKN080 BKN250 21/17 A3004 RMK VA SLP173 T02110166,NA
LGA,1973-09-28T09:00:00Z,-73.8803,40.7794,71.96,62.96,73.3,300,8,NA,30.04,1017.3,7,NA,OVC,   ,   ,   ,8000,NA,NA,NA,NA,NA,NA,NA,NA,NA,NA,71.96,METAR KLGA 280900Z 30008KT 7SM OVC080 22/17 A3004 RMK 2 VA SLP173 8/07/ T02220172,NA
LGA,1973-09-28T10:00:00Z,-73.8803,40.7794,71.96,62.96,73.3,300,13,NA,30.05,1017.6,7,NA,SCT,BKN,   ,   ,8000,25000,NA,NA,NA,NA,NA,NA,NA,NA,NA,71.96,METAR KLGA 281000Z 30013KT 7SM SCT080 BKN250 22/17 A3005 RMK VA SLP176 T02220172,NA
LGA,1973-09-28T11:00:00Z,-73.8803,40.7794,70.88,62.96,76.04,290,12,NA,30.05,1017.6,5,NA,SCT,BKN,   ,   ,8000,25000,NA,NA,DZ,NA,NA,NA,NA,NA,NA,70.88,METAR KLGA 281100Z 29012KT 5SM DZ SCT080 BKN250 22/17 A3005 RMK VA SLP176 T02160172,NA
LGA,1973-09-28T12:00:00Z,-73.8803,40.7794,71.96,64.04,76.13,300,12,NA,30.07,1018.3,6,NA,SCT,OVC,   ,   ,8000,20000,NA,NA,DZ,NA,NA,NA,NA,NA,NA,71.96,METAR KLGA 281200Z 30012KT 6SM DZ SCT080 OVC200 22/18 A3007 RMK VA SLP183 T02220178,NA
LGA,1973-09-28T13:00:00Z,-73.8803,40.7794,72.86,63.86,73.39,320,13,NA,30.09,1019,7,NA,SCT,BKN,   ,   ,10000,20000,NA,NA,NA,NA,NA,NA,NA,NA,NA,72.86,METAR KLGA 281300Z 32013KT 7SM SCT100 BKN200 23/18 A3009 RMK VA SLP190 T02270177,NA
LGA,1973-09-28T14:00:00Z,-73.8803,40.7794,73.94,62.96,68.57,330,15,NA,30.1,1019.3,10,NA,SCT,BKN,   ,   ,3000,15000,NA,NA,NA,NA,NA,NA,NA,NA,NA,73.94,METAR KLGA 281400Z 33015KT 10SM SCT030 BKN150 23/17 A3010 RMK VA SLP193 T02330172,NA
LGA,1973-09-28T15:00:00Z,-73.8803,40.7794,73.04,59,61.41,350,13,NA,30.1,1019.3,10,NA,SCT,BKN,   ,   ,3500,25000,NA,NA,NA,NA,NA,NA,NA,NA,NA,73.04,METAR KLGA 281500Z 35013KT 10SM SCT035 BKN250 23/15 A3010 RMK VA SLP193 8/101 T02280150 51010,NA
LGA,1973-09-28T16:00:00Z,-73.8803,40.7794,71.96,55.94,57.05,350,13,NA,30.1,1017.3,15,NA,SCT,SCT,BKN,   ,5000,8000,25000,NA,NA,NA,NA,NA,NA,NA,NA,71.96,METAR KLGA 281600Z 35013KT 15SM SCT050 SCT080 BKN250 22/13 A3010 RMK VA SLP173 T02220133,NA
LGA,1973-09-28T17:00:00Z,-73.8803,40.7794,72.86,54.86,53.21,330,10,NA,30.09,1019,15,NA,BKN,   ,   ,   ,25000,NA,NA,NA,NA,NA,NA,NA,NA,NA,NA,72.86,METAR KLGA 281700Z 33010KT 15SM BKN250 23/13 A3009 RMK FEW AC VA LGB MISGLGB9/17 SLP190 T02270127,NA
LGA,1973-09-28T18:00:00Z,-73.8803,40.7794,73.04,53.96,51.18,350,12,NA,30.07,1018.3,15,NA,BKN,   ,   ,   ,25000,NA,NA,NA,NA,NA,NA,NA,NA,NA,NA,73.04,METAR KLGA 281800Z 35012KT 15SM BKN250 23/12 A3007 RMK VA SLP183 T02280122,NA
LGA,1973-09-28T19:00:00Z,-73.8803,40.7794,72.86,51.98,47.88,350,9,NA,30.05,1017.6,15,NA,BKN,   ,   ,   ,25000,NA,NA,NA,NA,NA,NA,NA,NA,NA,NA,72.86,METAR KLGA 281900Z 35009KT 15SM BKN250 23/11 A3005 RMK VA SLP176 T02270111,NA
LGA,1973-09-28T20:00:00Z,-73.8803,40.7794,72.86,50.9,46.01,20,10,NA,30.04,1017.3,15,NA,SCT,BKN,   ,   ,15000,25000,NA,NA,NA,NA,NA,NA,NA,NA,NA,72.86,METAR KLGA 282000Z 02010KT 15SM SCT150 BKN250 23/11 A3004 RMK VA SLP173 T02270105,NA
LGA,1973-09-28T21:00:00Z,-73.8803,40.7794,73.04,50,44.23,350,8,NA,30.03,1016.9,15,NA,SCT,BKN,   ,   ,15000,25000,NA,NA,NA,NA,NA,NA,NA,NA,NA,73.04,METAR KLGA 282100Z 35008KT 15SM SCT150 BKN250 23/10 A3003 RMK VA SLP169 8/044 T02280100 57014,NA
LGA,1973-09-28T22:00:00Z,-73.8803,40.7794,70.88,50,47.58,20,8,NA,30.03,1016.9,15,NA,SCT,BKN,   ,   ,15000,25000,NA,NA,NA,NA,NA,NA,NA,NA,NA,70.88,METAR KLGA 282200Z 02008KT 15SM SCT150 BKN250 22/10 A3003 RMK VA SLP169 T02160100,NA
LGA,1973-09-28T23:00:00Z,-73.8803,40.7794,68.9,44.96,42.12,20,9,NA,30.03,1016.9,15,NA,SCT,BKN,   ,   ,12000,25000,NA,NA,NA,NA,NA,NA,NA,NA,NA,68.9,METAR KLGA 282300Z 02009KT 15SM SCT120 BKN250 20/07 A3003 RMK VA SLP169 T02050072,NA
LGA,1973-09-29T00:00:00Z,-73.8803,40.7794,66.92,48.02,50.62,20,7,NA,30.03,1016.9,15,NA,SCT,BKN,   ,   ,12000,25000,NA,NA,NA,NA,NA,NA,NA,NA,NA,66.92,METAR KLGA 290000Z 02007KT 15SM SCT120 BKN250 19/09 A3003 RMK SLP169 T01940089,NA
LGA,1973-09-29T01:00:00Z,-73.8803,40.7794,65.84,50,56.58,60,6,NA,30.03,1016.9,15,NA,SCT,BKN,   ,   ,12000,25000,NA,NA,NA,NA,NA,NA,NA,NA,NA,65.84,METAR KLGA 290100Z 06006KT 15SM SCT120 BKN250 19/10 A3003 RMK SLP169 T01880100,NA
LGA,1973-09-29T02:00:00Z,-73.8803,40.7794,66.92,44.96,45.09,120,7,NA,30.03,1016.9,15,NA,SCT,BKN,   ,   ,12000,25000,NA,NA,NA,NA,NA,NA,NA,NA,NA,66.92,METAR KLGA 290200Z 12007KT 15SM SCT120 BKN250 19/07 A3003 RMK VA SLP169 T01940072,NA
LGA,1973-09-29T03:00:00Z,-73.8803,40.7794,66.02,57.92,75.12,180,6,NA,30.03,1016.9,15,NA,SCT,BKN,   ,   ,12000,25000,NA,NA,NA,NA,NA,NA,NA,NA,NA,66.02,METAR KLGA 290300Z 18006KT 15SM SCT120 BKN250 19/14 A3003 RMK SLP169 8/046 T01890144 54000,NA
LGA,1973-09-29T04:00:00Z,-73.8803,40.7794,64.94,59,81.07,210,7,NA,30.02,1016.6,10,NA,SCT,BKN,   ,   ,10000,20000,NA,NA,NA,NA,NA,NA,NA,NA,NA,64.94,METAR KLGA 290400Z 21007KT 10SM SCT100 BKN200 18/15 A3002 RMK VA SLP166 T01830150,NA
LGA,1973-09-29T05:00:00Z,-73.8803,40.7794,64.94,57.92,77.99,210,8,NA,29.99,1015.6,10,NA,SCT,BKN,   ,   ,8000,20000,NA,NA,NA,NA,NA,NA,NA,NA,NA,64.94,METAR KLGA 290500Z 21008KT 10SM SCT080 BKN200 18/14 A2999 RMK VA SLP156 T01830144,NA
LGA,1973-09-29T06:00:00Z,-73.8803,40.7794,66.92,57.02,70.49,200,9,NA,29.97,1014.9,10,NA,BKN,OVC,   ,   ,7000,15000,NA,NA,NA,NA,NA,NA,NA,NA,NA,66.92,METAR KLGA 290600Z 20009KT 10SM BKN070 OVC150 19/14 A2997 RMK VA SLP149 T01940139,NA
LGA,1973-09-29T07:00:00Z,-73.8803,40.7794,66.92,55.94,67.79,210,10,NA,29.95,1014.2,9,NA,BKN,OVC,   ,   ,7000,15000,NA,NA,NA,NA,NA,NA,NA,NA,NA,66.92,METAR KLGA 290700Z 21010KT 9SM BKN070 OVC150 19/13 A2995 RMK VA SLP142 T01940133,NA
LGA,1973-09-29T08:00:00Z,-73.8803,40.7794,66.92,59.9,78.16,190,10,NA,29.99,1013.2,7,NA,SCT,OVC,   ,   ,2500,4100,NA,NA,-SHRA,NA,NA,NA,NA,NA,NA,66.92,METAR KLGA 290800Z 19010KT 7SM -SHRA SCT025 OVC041 19/16 A2999 RMK RB40 SLP132 T01940155,NA
LGA,1973-09-29T09:00:00Z,-73.8803,40.7794,63,61,93.18,200,7.04,0.19,29.91,NA,4,NA,   ,   ,   ,   ,NA,NA,NA,NA,NA,NA,NA,NA,NA,NA,NA,63,METAR KLGA 290900Z 20007KT 4SM -RA FGDZ SCT002 BKN009 OVC040 17/16 A2991 RMK SLP129 P0019 8/8// T01720161 50014,NA
LGA,1973-09-29T10:00:00Z,-73.8803,40.7794,63,61,93.18,NA,0,0.14,29.9,NA,4,NA,   ,   ,   ,   ,NA,NA,NA,NA,NA,NA,NA,NA,NA,NA,NA,63,METAR KLGA 291000Z 00000KT 4SM -RA FGDZ BKN013 OVC040 17/16 A2990 RMK SLP125 P0014 T01720161,NA
LGA,1973-09-29T10:36:00Z,-73.8803,40.7794,NA,NA,NA,210,5,NA,29.89,NA,3,NA,BKN,OVC,NA,NA,1200,2000,NA,NA,NA,NA,NA,NA,NA,NA,NA,NA,KLGA 291036Z AUTO 21005KT 3SM BKN012 OVC020 A2989 RMK IEM_DS3505,NA
LGA,1973-09-29T11:00:00Z,-73.8803,40.7794,63,61.9,96.2,230,6,NA,29.89,NA,2,NA,   ,   ,   ,   ,NA,NA,NA,NA,NA,NA,NA,NA,NA,NA,NA,63,METAR KLGA 291100Z 23006KT 2SM -RA FGDZ BKN013 OVC018 17/17 A2989 RMK SLP122 T01720166,NA
LGA,1973-09-29T12:00:00Z,-73.8803,40.7794,63,62.1,96.88,300,6,0.01,29.89,NA,2,NA,   ,   ,   ,   ,NA,NA,NA,NA,NA,NA,NA,NA,NA,NA,NA,63,METAR KLGA 291200Z 30006KT 2SM FGFU BKN012 OVC020 17/17 A2989 RMK RE40 SLP122 P0001 60035 70035 T01720167,NA
LGA,1973-09-29T13:00:00Z,-73.8803,40.7794,63.9,61.9,93.21,300,6,NA,29.88,NA,2,NA,   ,   ,   ,   ,NA,NA,NA,NA,NA,NA,NA,NA,NA,NA,NA,63.9,METAR KLGA 291300Z 30006KT 2SM FGFU SCT012 BKN023 OVC040 18/17 A2988 RMK OCNL BINOVC SLP119 T01770166,NA
LGA,1973-09-29T13:34:00Z,-73.8803,40.7794,NA,NA,NA,260,7,NA,29.87,NA,2,NA,SCT,BKN,BKN,NA,4900,6900,14800,NA,NA,NA,NA,NA,NA,NA,NA,NA,KLGA 291334Z AUTO 26007KT 2SM SCT049 BKN069 BKN148 A2987 RMK IEM_DS3505,NA
LGA,1973-09-29T14:00:00Z,-73.8803,40.7794,65.8,61.9,87.23,290,7.04,NA,29.87,NA,6,NA,   ,   ,   ,   ,NA,NA,NA,NA,NA,NA,NA,NA,NA,NA,NA,65.8,METAR KLGA 291400Z 29007KT 6SM FUDZ SCT050 SCT150 19/17 A2987 RMK VA SLP115 T01880166,NA
LGA,1973-09-29T15:00:00Z,-73.8803,40.7794,69.1,61,75.4,290,8,NA,29.85,NA,6,NA,   ,   ,   ,   ,NA,NA,NA,NA,NA,NA,NA,NA,NA,NA,NA,69.1,METAR KLGA 291500Z 29008KT 6SM FUDZ SCT060 SCT150 21/16 A2985 RMK VA SLP108 8/570 T02060161 58012,NA
LGA,1973-09-29T16:00:00Z,-73.8803,40.7794,70.88,57.92,63.56,310,8,NA,29.84,1010.5,9,NA,SCT,BKN,OVC,   ,4500,8000,15000,NA,NA,NA,NA,NA,NA,NA,NA,70.88,METAR KLGA 291600Z 31008KT 9SM SCT045 BKN080 OVC150 22/14 A2984 RMK BINOVC/VA SLP105 T02160144,NA
LGA,1973-09-29T17:00:00Z,-73.8803,40.7794,72.86,57.92,59.44,310,9,NA,29.82,1009.8,10,NA,SCT,BKN,   ,   ,5000,10000,NA,NA,NA,NA,NA,NA,NA,NA,NA,72.86,METAR KLGA 291700Z 31009KT 10SM SCT050 BKN100 23/14 A2982 RMK VA SLP098 T02270144,NA
LGA,1973-09-29T18:00:00Z,-73.8803,40.7794,75.02,55.04,49.81,320,10,NA,29.81,1009.5,10,NA,SCT,BKN,BKN,   ,7000,10000,23000,NA,NA,NA,NA,NA,NA,NA,NA,75.02,METAR KLGA 291800Z 32010KT 10SM SCT070 BKN100 BKN230 24/13 A2981 RMK VA SLP095 T02390128,NA
LGA,1973-09-29T19:00:00Z,-73.8803,40.7794,75.92,51.98,43.21,320,10,NA,29.81,1009.5,15,NA,SCT,BKN,BKN,   ,8000,10000,23000,NA,NA,NA,NA,NA,NA,NA,NA,75.92,METAR KLGA 291900Z 32010KT 15SM SCT080 BKN100 BKN230 24/11 A2981 RMK VA SLP095 T02440111,NA
LGA,1973-09-29T20:00:00Z,-73.8803,40.7794,74.84,53.96,48.18,340,9,NA,29.8,1009.1,15,NA,SCT,BKN,OVC,   ,3000,4500,10000,NA,NA,NA,NA,NA,NA,NA,NA,74.84,METAR KLGA 292000Z 34009KT 15SM SCT030 BKN045 OVC100 24/12 A2980 RMK SLP091 T02380122,NA
LGA,1973-09-29T21:00:00Z,-73.8803,40.7794,73.04,50,44.23,320,10,NA,29.8,1009.1,15,NA,SCT,BKN,OVC,   ,5000,9000,16000,NA,NA,NA,NA,NA,NA,NA,NA,73.04,METAR KLGA 292100Z 32010KT 15SM SCT050 BKN090 OVC160 23/10 A2980 RMK SLP091 8/57/ T02280100 56003,NA
LGA,1973-09-29T22:00:00Z,-73.8803,40.7794,71.96,47.84,42.31,310,10,NA,29.81,1009.5,15,NA,BKN,OVC,   ,   ,9000,16000,NA,NA,NA,NA,NA,NA,NA,NA,NA,70.84,METAR KLGA 292200Z 31010KT 15SM BKN090 OVC160 22/09 A2981 RMK SLP095 T02220088,NA
LGA,1973-09-29T23:00:00Z,-73.8803,40.7794,70.88,42.98,36.5,290,12,NA,29.83,1010.2,15,NA,SCT,BKN,OVC,   ,5000,9000,16000,NA,NA,NA,NA,NA,NA,NA,NA,69.38,METAR KLGA 292300Z 29012KT 15SM SCT050 BKN090 OVC160 22/06 A2983 RMK BINOVC N SLP102 T02160061,NA
